{
"type": "FeatureCollection",
"name": "disk",
"crs": { "type": "name", "properties": { "name": "urn:ogc:def:crs:ESRI::102016" } },
"features": [
{ "type": "Feature", "properties": { "fid": 1, "ObjectID": 0, "WRLD30_ID": 1 }, "geometry": { "type": "MultiPolygon", "coordinates": [ [ [ [ -290687.954388775920961, -16653501.753456914797425 ], [ -581287.362410687608644, -16645892.140150401741266 ], [ -871709.704670951818116, -16633212.026845619082451 ], [ -1161866.515710731735453, -16615465.276027917861938 ], [ -1451669.41095457249321, -16592657.293529512360692 ], [ -1741030.113633199362084, -16564795.026882816106081 ], [ -2029860.481673476053402, -16531886.963204158470035 ], [ -2318072.53454733453691, -16493943.126608524471521 ], [ -2605578.480071497149765, -16450975.075156111270189 ], [ -2892290.741149824578315, -16402995.897331630811095 ], [ -3178121.982450149022043, -16350020.208057433366776 ], [ -3462985.137007459066808, -16292064.144241658970714 ], [ -3746793.432745346799493, -16229145.359862780198455 ], [ -4029460.418907617684454, -16161283.020592026412487 ], [ -4310899.992392028681934, -16088497.797955336049199 ], [ -4591026.423978132195771, -16010811.8630366101861 ], [ -4869754.384441220201552, -15928248.879724185913801 ], [ -5146998.970544436946511, -15840833.997502587735653 ], [ -5422675.730901127681136, -15748593.843791743740439 ], [ -5696700.691699545830488, -15651556.515836028382182 ], [ -5968990.382282094098628, -15549751.57214555516839 ], [ -6239461.860571291297674, -15443210.023492380976677 ], [ -6508032.738334733061492, -15331964.323464315384626 ], [ -6774621.206281350925565, -15216048.358579250052571 ], [ -7039146.058981305919588, -15095497.437962992116809 ], [ -7301526.719601955264807, -14970348.282593762502074 ], [ -7561683.264452336356044, -14840639.014116633683443 ], [ -7819536.447328696027398, -14706409.143231308087707 ], [ -8075007.723653648048639, -14567699.557656768709421 ], [ -8328019.274401617236435, -14424552.509676493704319 ], [ -8578494.029803270474076, -14277011.60326799377799 ], [ -8826355.692821709439158, -14125121.780820621177554 ], [ -9071528.762393286451697, -13968929.309445682913065 ], [ -9313938.556425966322422, -13808481.766883030533791 ], [ -9553511.234548209235072, -13643828.027008419856429 ], [ -9790173.820601467043161, -13475018.244946051388979 ], [ -10023854.22486942820251, -13302103.841790840029716 ], [ -10254481.266037236899137, -13125137.488945044577122 ], [ -10481984.692874019965529, -12944173.092074057087302 ], [ -10706295.205632086843252, -12759265.774686202406883 ], [ -10927344.477156307548285, -12570471.861341595649719 ], [ -11145065.173697225749493, -12377848.860495127737522 ], [ -11359390.975421564653516, -12181455.446978839114308 ], [ -11570256.596613897010684, -11981351.444128992035985 ], [ -11777597.805563310161233, -11777597.805563306435943 ], [ -11981351.444128995761275, -11570256.596613895148039 ], [ -12181455.446978842839599, -11359390.975421560928226 ], [ -12377848.860495131462812, -11145065.173697222024202 ], [ -12570471.861341597512364, -10927344.477156303822994 ], [ -12759265.774686206132174, -10706295.205632083117962 ], [ -12944173.092074058949947, -10481984.692874016240239 ], [ -13125137.488945048302412, -10254481.266037233173847 ], [ -13302103.841790841892362, -10023854.22486942447722 ], [ -13475018.244946053251624, -9790173.820601463317871 ], [ -13643828.027008421719074, -9553511.234548205509782 ], [ -13808481.766883034259081, -9313938.556425960734487 ], [ -13968929.30944568477571, -9071528.762393282726407 ], [ -14125121.780820623040199, -8826355.692821703851223 ], [ -14277011.603267995640635, -8578494.029803268611431 ], [ -14424552.509676495566964, -8328019.274401614442468 ], [ -14567699.557656770572066, -8075007.723653643392026 ], [ -14706409.143231309950352, -7819536.447328691370785 ], [ -14840639.014116635546088, -7561683.264452332630754 ], [ -14970348.282593764364719, -7301526.719601950608194 ], [ -15095497.437962993979454, -7039146.058981300331652 ], [ -15216048.358579253777862, -6774621.206281346268952 ], [ -15331964.323464319109917, -6508032.73833472840488 ], [ -15443210.023492382839322, -6239461.860571285709739 ], [ -15549751.572145557031035, -5968990.382282088510692 ], [ -15651556.515836028382182, -5696700.69169954303652 ], [ -15748593.843791745603085, -5422675.730901123955846 ], [ -15840833.997502587735653, -5146998.970544433221221 ], [ -15928248.879724187776446, -4869754.384441215544939 ], [ -16010811.863036612048745, -4591026.423978127539158 ], [ -16088497.797955337911844, -4310899.992392024025321 ], [ -16161283.020592028275132, -4029460.41890761256218 ], [ -16229145.3598627820611, -3746793.432745341677219 ], [ -16292064.144241660833359, -3462985.137007453478873 ], [ -16350020.208057435229421, -3178121.982450142502785 ], [ -16402995.897331630811095, -2892290.741149822250009 ], [ -16450975.075156111270189, -2605578.480071494355798 ], [ -16493943.126608524471521, -2318072.534547331277281 ], [ -16531886.963204158470035, -2029860.48167347186245 ], [ -16564795.026882816106081, -1741030.113633194938302 ], [ -16592657.293529512360692, -1451669.410954567836598 ], [ -16615465.276027917861938, -1161866.515710726846009 ], [ -16633212.026845620945096, -871709.704670946463011 ], [ -16645892.140150401741266, -581287.362410681904294 ], [ -16653501.75345691666007, -290687.954388769925572 ], [ -16656038.548803232610226, 0.000000006376912 ], [ -16653501.753456914797425, 290687.954388778947759 ], [ -16645892.140150401741266, 581287.362410690984689 ], [ -16633212.026845619082451, 871709.704670955543406 ], [ -16615465.276027917861938, 1161866.515710735926405 ], [ -16592657.293529510498047, 1451669.410954576916993 ], [ -16564795.026882816106081, 1741030.113633204018697 ], [ -16531886.963204158470035, 2029860.481673480942845 ], [ -16493943.126608524471521, 2318072.534547340124846 ], [ -16450975.075156109407544, 2605578.480071503203362 ], [ -16402995.89733162894845, 2892290.741149831097573 ], [ -16350020.20805743150413, 3178121.982450155075639 ], [ -16292064.144241658970714, 3462985.137007462326437 ], [ -16229145.359862780198455, 3746793.432745350524783 ], [ -16161283.020592026412487, 4029460.418907620944083 ], [ -16088497.797955334186554, 4310899.992392033338547 ], [ -16010811.863036608323455, 4591026.423978136852384 ], [ -15928248.879724185913801, 4869754.384441224858165 ], [ -15840833.997502585873008, 5146998.970544441603124 ], [ -15748593.843791741877794, 5422675.730901132337749 ], [ -15651556.515836024656892, 5696700.691699551418424 ], [ -15549751.572145553305745, 5968990.382282099686563 ], [ -15443210.023492379114032, 6239461.86057129688561 ], [ -15331964.323464315384626, 6508032.738334736786783 ], [ -15216048.358579250052571, 6774621.206281353719532 ], [ -15095497.437962990254164, 7039146.058981308713555 ], [ -14970348.282593758776784, 7301526.719601962715387 ], [ -14840639.014116631820798, 7561683.264452341012657 ], [ -14706409.143231308087707, 7819536.447328696027398 ], [ -14567699.557656766846776, 8075007.72365365177393 ], [ -14424552.509676493704319, 8328019.274401619099081 ], [ -14277011.6032679900527, 8578494.029803276062012 ], [ -14125121.780820619314909, 8826355.692821711301804 ], [ -13968929.309445679187775, 9071528.762393292039633 ], [ -13808481.766883028671145, 9313938.556425968185067 ], [ -13643828.027008414268494, 9553511.234548214823008 ], [ -13475018.244946049526334, 9790173.820601470768452 ], [ -13302103.841790834441781, 10023854.224869433790445 ], [ -13125137.488945042714477, 10254481.266037240624428 ], [ -12944173.092074055224657, 10481984.692874019965529 ], [ -12759265.774686198681593, 10706295.205632090568542 ], [ -12570471.861341593787074, 10927344.47715630941093 ], [ -12377848.860495124012232, 11145065.173697229474783 ], [ -12181455.446978837251663, 11359390.975421566516161 ], [ -11981351.444128988310695, 11570256.596613902598619 ], [ -11777597.805563304573298, 11777597.805563312023878 ], [ -11570256.596613887697458, 11981351.444129001349211 ], [ -11359390.975421557202935, 12181455.446978844702244 ], [ -11145065.173697216436267, 12377848.860495137050748 ], [ -10927344.477156301960349, 12570471.861341601237655 ], [ -10706295.205632081255317, 12759265.774686206132174 ], [ -10481984.692874010652304, 12944173.092074062675238 ], [ -10254481.266037231311202, 13125137.488945050165057 ], [ -10023854.224869418889284, 13302103.841790845617652 ], [ -9790173.820601461455226, 13475018.244946055114269 ], [ -9553511.234548199921846, 13643828.027008425444365 ], [ -9313938.556425958871841, 13808481.766883034259081 ], [ -9071528.762393275275826, 13968929.309445688501 ], [ -8826355.692821701988578, 14125121.780820624902844 ], [ -8578494.029803259298205, 14277011.603268001228571 ], [ -8328019.274401608854532, 14424552.509676499292254 ], [ -8075007.723653641529381, 14567699.557656772434711 ], [ -7819536.44732868578285, 14706409.143231313675642 ], [ -7561683.264452329836786, 14840639.014116637408733 ], [ -7301526.719601945020258, 14970348.282593766227365 ], [ -7039146.058981298469007, 15095497.437962995842099 ], [ -6774621.206281339749694, 15216048.358579255640507 ], [ -6508032.738334725610912, 15331964.323464319109917 ], [ -6239461.860571279190481, 15443210.023492384701967 ], [ -5968990.382282085716724, 15549751.572145558893681 ], [ -5696700.691699540242553, 15651556.515836030244827 ], [ -5422675.73090111836791, 15748593.84379174746573 ], [ -5146998.970544430427253, 15840833.997502589598298 ], [ -4869754.384441209957004, 15928248.879724189639091 ], [ -4591026.423978125676513, 16010811.863036612048745 ], [ -4310899.992392018437386, 16088497.797955339774489 ], [ -4029460.418907609768212, 16161283.020592028275132 ], [ -3746793.432745335157961, 16229145.359862783923745 ], [ -3462985.137007450684905, 16292064.144241660833359 ], [ -3178121.982450136449188, 16350020.208057435229421 ], [ -2892290.741149815730751, 16402995.89733163267374 ], [ -2605578.48007149156183, 16450975.075156111270189 ], [ -2318072.534547324758023, 16493943.126608526334167 ], [ -2029860.481673469301313, 16531886.96320416033268 ], [ -1741030.113633188651875, 16564795.026882816106081 ], [ -1451669.41095456527546, 16592657.293529512360692 ], [ -1161866.515710720559582, 16615465.276027919724584 ], [ -871709.704670943785459, 16633212.026845620945096 ], [ -581287.362410675501451, 16645892.140150401741266 ], [ -290687.95438876724802, 16653501.75345691666007 ], [ -0.000000016833243, 16656038.548803232610226 ], [ 0.0, 16656038.548803232610226 ], [ 0.000000016833243, 16656038.548803232610226 ], [ 290687.95438876724802, 16653501.75345691666007 ], [ 581287.362410675501451, 16645892.140150401741266 ], [ 871709.704670943785459, 16633212.026845620945096 ], [ 1161866.515710720559582, 16615465.276027919724584 ], [ 1451669.41095456527546, 16592657.293529512360692 ], [ 1741030.113633188651875, 16564795.026882816106081 ], [ 2029860.481673469301313, 16531886.96320416033268 ], [ 2318072.534547324758023, 16493943.126608526334167 ], [ 2605578.48007149156183, 16450975.075156111270189 ], [ 2892290.741149815730751, 16402995.89733163267374 ], [ 3178121.982450136449188, 16350020.208057435229421 ], [ 3462985.137007450684905, 16292064.144241660833359 ], [ 3746793.432745335157961, 16229145.359862783923745 ], [ 4029460.418907609768212, 16161283.020592028275132 ], [ 4310899.992392018437386, 16088497.797955339774489 ], [ 4591026.423978125676513, 16010811.863036612048745 ], [ 4869754.384441209957004, 15928248.879724189639091 ], [ 5146998.970544430427253, 15840833.997502589598298 ], [ 5422675.73090111836791, 15748593.84379174746573 ], [ 5696700.691699540242553, 15651556.515836030244827 ], [ 5968990.382282085716724, 15549751.572145558893681 ], [ 6239461.860571279190481, 15443210.023492384701967 ], [ 6508032.738334725610912, 15331964.323464319109917 ], [ 6774621.206281339749694, 15216048.358579255640507 ], [ 7039146.058981298469007, 15095497.437962995842099 ], [ 7301526.719601945020258, 14970348.282593766227365 ], [ 7561683.264452329836786, 14840639.014116637408733 ], [ 7819536.44732868578285, 14706409.143231313675642 ], [ 8075007.723653641529381, 14567699.557656772434711 ], [ 8328019.274401608854532, 14424552.509676499292254 ], [ 8578494.029803259298205, 14277011.603268001228571 ], [ 8826355.692821701988578, 14125121.780820624902844 ], [ 9071528.762393275275826, 13968929.309445688501 ], [ 9313938.556425958871841, 13808481.766883034259081 ], [ 9553511.234548199921846, 13643828.027008425444365 ], [ 9790173.820601461455226, 13475018.244946055114269 ], [ 10023854.224869418889284, 13302103.841790845617652 ], [ 10254481.266037231311202, 13125137.488945050165057 ], [ 10481984.692874010652304, 12944173.092074062675238 ], [ 10706295.205632081255317, 12759265.774686206132174 ], [ 10927344.477156301960349, 12570471.861341601237655 ], [ 11145065.173697216436267, 12377848.860495137050748 ], [ 11359390.975421557202935, 12181455.446978844702244 ], [ 11570256.596613887697458, 11981351.444129001349211 ], [ 11777597.805563304573298, 11777597.805563312023878 ], [ 11981351.444128988310695, 11570256.596613902598619 ], [ 12181455.446978837251663, 11359390.975421566516161 ], [ 12377848.860495124012232, 11145065.173697229474783 ], [ 12570471.861341593787074, 10927344.47715630941093 ], [ 12759265.774686198681593, 10706295.205632090568542 ], [ 12944173.092074055224657, 10481984.692874019965529 ], [ 13125137.488945042714477, 10254481.266037240624428 ], [ 13302103.841790834441781, 10023854.224869433790445 ], [ 13475018.244946049526334, 9790173.820601470768452 ], [ 13643828.027008414268494, 9553511.234548214823008 ], [ 13808481.766883028671145, 9313938.556425968185067 ], [ 13968929.309445679187775, 9071528.762393292039633 ], [ 14125121.780820619314909, 8826355.692821711301804 ], [ 14277011.6032679900527, 8578494.029803276062012 ], [ 14424552.509676493704319, 8328019.274401619099081 ], [ 14567699.557656766846776, 8075007.72365365177393 ], [ 14706409.143231308087707, 7819536.447328696027398 ], [ 14840639.014116631820798, 7561683.264452341012657 ], [ 14970348.282593758776784, 7301526.719601962715387 ], [ 15095497.437962990254164, 7039146.058981308713555 ], [ 15216048.358579250052571, 6774621.206281353719532 ], [ 15331964.323464315384626, 6508032.738334736786783 ], [ 15443210.023492379114032, 6239461.86057129688561 ], [ 15549751.572145553305745, 5968990.382282099686563 ], [ 15651556.515836024656892, 5696700.691699551418424 ], [ 15748593.843791741877794, 5422675.730901132337749 ], [ 15840833.997502585873008, 5146998.970544441603124 ], [ 15928248.879724185913801, 4869754.384441224858165 ], [ 16010811.863036608323455, 4591026.423978136852384 ], [ 16088497.797955334186554, 4310899.992392033338547 ], [ 16161283.020592026412487, 4029460.418907620944083 ], [ 16229145.359862780198455, 3746793.432745350524783 ], [ 16292064.144241658970714, 3462985.137007462326437 ], [ 16350020.20805743150413, 3178121.982450155075639 ], [ 16402995.89733162894845, 2892290.741149831097573 ], [ 16450975.075156109407544, 2605578.480071503203362 ], [ 16493943.126608524471521, 2318072.534547340124846 ], [ 16531886.963204158470035, 2029860.481673480942845 ], [ 16564795.026882816106081, 1741030.113633204018697 ], [ 16592657.293529510498047, 1451669.410954576916993 ], [ 16615465.276027917861938, 1161866.515710735926405 ], [ 16633212.026845619082451, 871709.704670955543406 ], [ 16645892.140150401741266, 581287.362410690984689 ], [ 16653501.753456914797425, 290687.954388778947759 ], [ 16656038.548803232610226, 0.000000006376912 ], [ 16653501.75345691666007, -290687.954388769925572 ], [ 16645892.140150401741266, -581287.362410681904294 ], [ 16633212.026845620945096, -871709.704670946463011 ], [ 16615465.276027917861938, -1161866.515710726846009 ], [ 16592657.293529512360692, -1451669.410954567836598 ], [ 16564795.026882816106081, -1741030.113633194938302 ], [ 16531886.963204158470035, -2029860.48167347186245 ], [ 16493943.126608524471521, -2318072.534547331277281 ], [ 16450975.075156111270189, -2605578.480071494355798 ], [ 16402995.897331630811095, -2892290.741149822250009 ], [ 16350020.208057435229421, -3178121.982450142502785 ], [ 16292064.144241660833359, -3462985.137007453478873 ], [ 16229145.3598627820611, -3746793.432745341677219 ], [ 16161283.020592028275132, -4029460.41890761256218 ], [ 16088497.797955337911844, -4310899.992392024025321 ], [ 16010811.863036612048745, -4591026.423978127539158 ], [ 15928248.879724187776446, -4869754.384441215544939 ], [ 15840833.997502587735653, -5146998.970544433221221 ], [ 15748593.843791745603085, -5422675.730901123955846 ], [ 15651556.515836028382182, -5696700.69169954303652 ], [ 15549751.572145557031035, -5968990.382282088510692 ], [ 15443210.023492382839322, -6239461.860571285709739 ], [ 15331964.323464319109917, -6508032.73833472840488 ], [ 15216048.358579253777862, -6774621.206281346268952 ], [ 15095497.437962993979454, -7039146.058981300331652 ], [ 14970348.282593764364719, -7301526.719601950608194 ], [ 14840639.014116635546088, -7561683.264452332630754 ], [ 14706409.143231309950352, -7819536.447328691370785 ], [ 14567699.557656770572066, -8075007.723653643392026 ], [ 14424552.509676495566964, -8328019.274401614442468 ], [ 14277011.603267995640635, -8578494.029803268611431 ], [ 14125121.780820623040199, -8826355.692821703851223 ], [ 13968929.30944568477571, -9071528.762393282726407 ], [ 13808481.766883034259081, -9313938.556425960734487 ], [ 13643828.027008421719074, -9553511.234548205509782 ], [ 13475018.244946053251624, -9790173.820601463317871 ], [ 13302103.841790841892362, -10023854.22486942447722 ], [ 13125137.488945048302412, -10254481.266037233173847 ], [ 12944173.092074058949947, -10481984.692874016240239 ], [ 12759265.774686206132174, -10706295.205632083117962 ], [ 12570471.861341597512364, -10927344.477156303822994 ], [ 12377848.860495131462812, -11145065.173697222024202 ], [ 12181455.446978842839599, -11359390.975421560928226 ], [ 11981351.444128995761275, -11570256.596613895148039 ], [ 11777597.805563310161233, -11777597.805563306435943 ], [ 11570256.596613897010684, -11981351.444128992035985 ], [ 11359390.975421564653516, -12181455.446978839114308 ], [ 11145065.173697225749493, -12377848.860495127737522 ], [ 10927344.477156307548285, -12570471.861341595649719 ], [ 10706295.205632086843252, -12759265.774686202406883 ], [ 10481984.692874019965529, -12944173.092074057087302 ], [ 10254481.266037236899137, -13125137.488945044577122 ], [ 10023854.22486942820251, -13302103.841790840029716 ], [ 9790173.820601467043161, -13475018.244946051388979 ], [ 9553511.234548209235072, -13643828.027008419856429 ], [ 9313938.556425966322422, -13808481.766883030533791 ], [ 9071528.762393286451697, -13968929.309445682913065 ], [ 8826355.692821709439158, -14125121.780820621177554 ], [ 8578494.029803270474076, -14277011.60326799377799 ], [ 8328019.274401617236435, -14424552.509676493704319 ], [ 8075007.723653648048639, -14567699.557656768709421 ], [ 7819536.447328696027398, -14706409.143231308087707 ], [ 7561683.264452336356044, -14840639.014116633683443 ], [ 7301526.719601955264807, -14970348.282593762502074 ], [ 7039146.058981305919588, -15095497.437962992116809 ], [ 6774621.206281350925565, -15216048.358579250052571 ], [ 6508032.738334733061492, -15331964.323464315384626 ], [ 6239461.860571291297674, -15443210.023492380976677 ], [ 5968990.382282094098628, -15549751.57214555516839 ], [ 5696700.691699545830488, -15651556.515836028382182 ], [ 5422675.730901127681136, -15748593.843791743740439 ], [ 5146998.970544436946511, -15840833.997502587735653 ], [ 4869754.384441220201552, -15928248.879724185913801 ], [ 4591026.423978132195771, -16010811.8630366101861 ], [ 4310899.992392028681934, -16088497.797955336049199 ], [ 4029460.418907617684454, -16161283.020592026412487 ], [ 3746793.432745346799493, -16229145.359862780198455 ], [ 3462985.137007459066808, -16292064.144241658970714 ], [ 3178121.982450149022043, -16350020.208057433366776 ], [ 2892290.741149824578315, -16402995.897331630811095 ], [ 2605578.480071497149765, -16450975.075156111270189 ], [ 2318072.53454733453691, -16493943.126608524471521 ], [ 2029860.481673476053402, -16531886.963204158470035 ], [ 1741030.113633199362084, -16564795.026882816106081 ], [ 1451669.41095457249321, -16592657.293529512360692 ], [ 1161866.515710731735453, -16615465.276027917861938 ], [ 871709.704670951818116, -16633212.026845619082451 ], [ 581287.362410687608644, -16645892.140150401741266 ], [ 290687.954388775920961, -16653501.753456914797425 ], [ 0.0, -16656038.548803232610226 ], [ -290687.954388775920961, -16653501.753456914797425 ] ] ] ] } }
]
}
