{
"type": "FeatureCollection",
"name": "map015",
"crs": { "type": "name", "properties": { "name": "urn:ogc:def:crs:ESRI::102016" } },
"features": [
{ "type": "Feature", "properties": { "id": 1 }, "geometry": { "type": "MultiPolygon", "coordinates": [ [ [ [ -7054107.432001790031791, -1587079.476385720074177 ], [ -7441860.865666823461652, -727278.384345863945782 ], [ -7610449.315086402930319, -52924.58666754513979 ], [ -7863331.989215772598982, 452840.761591194197536 ], [ -8133073.508287100121379, 705723.435720563866198 ], [ -8605121.166661923751235, 874311.885140143334866 ], [ -8251085.422880806028843, 2223019.480496780946851 ], [ -7644167.004970319569111, 2998526.347826847806573 ], [ -6447189.014091303572059, 3403138.626433839090168 ], [ -4626433.760359842330217, 3403138.626433839090168 ], [ -2991125.800989918410778, 3352562.091607965063304 ], [ -1187229.392200415953994, 3419997.471375796943903 ], [ -479157.904638182371855, 2728784.828755520284176 ], [ -344287.145102517679334, 1396936.078340840525925 ], [ -394863.67992839217186, 368546.53688140399754 ], [ -108263.315915105864406, -727278.384345863945782 ], [ -158839.850740980356932, -1300479.112372434698045 ], [ -563452.129347970709205, -1806244.46063117403537 ], [ -1136652.857374543324113, -2210856.739238165318966 ], [ -1591841.670807408168912, -2430021.723483619280159 ], [ -2283054.313427684828639, -2918928.226800399832428 ], [ -2974266.956047961488366, -3222387.435755643062294 ], [ -3867785.73797173332423, -3138093.211045853793621 ], [ -5452517.162515782751143, -2396304.033599702641368 ], [ -5873988.286064731888473, -1941115.220166837796569 ], [ -7054107.432001790031791, -1587079.476385720074177 ] ] ] ] } },
{ "type": "Feature", "properties": { "id": 2 }, "geometry": { "type": "MultiPolygon", "coordinates": [ [ [ [ -8028205.183824858628213, 607409.381537212058902 ], [ -7602515.740996070206165, -84658.883028877549805 ], [ -7441860.865666823461652, -727278.384345863945782 ], [ -7422906.784085114486516, -769307.000027045141906 ], [ -7177642.165100590325892, -1313154.633427510270849 ], [ -7162504.957387382164598, -1346719.746182885486633 ], [ -7054107.432001790031791, -1587079.476385720074177 ], [ -7027813.820624424144626, -1594967.559798929607496 ], [ -7037248.587059832178056, -2261433.274064038880169 ], [ -6716930.533162631094456, -3272963.97058151755482 ], [ -6767507.067988504655659, -3913600.078375919722021 ], [ -7054107.432001790031791, -4436224.271576617844403 ], [ -7425002.020724865607917, -4621671.565938155166805 ], [ -7745320.074622066691518, -4486800.806402490474284 ], [ -7829614.299331856891513, -3846164.698608088307083 ], [ -8183650.043112974613905, -2800916.312206693924963 ], [ -8672556.546429755166173, -2059127.134760543704033 ], [ -9228898.429514367133379, -1738809.08086334168911 ], [ -9498639.948585696518421, -1182467.197778728790581 ], [ -9667228.398005275055766, -592407.624810200184584 ], [ -9582934.173295484855771, 81946.172868118621409 ], [ -9262616.119398284703493, 621429.211010773666203 ], [ -8553858.072539770975709, 856003.637239374686033 ], [ -8028205.183824858628213, 607409.381537212058902 ] ] ] ] } },
{ "type": "Feature", "properties": { "id": 3 }, "geometry": { "type": "MultiPolygon", "coordinates": [ [ [ [ -9080634.72970755212009, -1824173.029236962320283 ], [ -8705169.691300231963396, -2040349.869532086886466 ], [ -8294565.094279547221959, -2632631.406988445203751 ], [ -7993867.055139759555459, -3361227.990984756499529 ], [ -7797078.679583421908319, -4093435.408696192782372 ], [ -7745320.074622066691518, -4486800.806402490474284 ], [ -7724970.45708036236465, -4495369.066420050337911 ], [ -7543331.278282184153795, -4571848.720650862902403 ], [ -7273272.416247243992984, -5312884.208558430895209 ], [ -6228024.029845849610865, -6509862.199437446892262 ], [ -5637964.456877321004868, -7437098.671245135366917 ], [ -5334505.247922076843679, -8364335.143052823841572 ], [ -5621105.61193536221981, -9342148.149686384946108 ], [ -6177447.495019976049662, -9662466.203583586961031 ], [ -7437646.154431330040097, -9898490.032770998775959 ], [ -8651482.990252304822206, -9780478.118177292868495 ], [ -9477566.39240824431181, -9578171.978873796761036 ], [ -10489097.08892572298646, -9207277.390150722116232 ], [ -11416333.560733411461115, -8718370.886833939701319 ], [ -12141263.893237605690956, -8634076.662124151363969 ], [ -12933629.60550962947309, -8768947.421659814193845 ], [ -13456253.798710325732827, -8650935.507066108286381 ], [ -14400349.115459972992539, -8178887.848691284656525 ], [ -15395020.967035492882133, -7116780.617347933351994 ], [ -15631044.796222904697061, -6324414.905075908638537 ], [ -15681621.331048779189587, -5380319.588326262310147 ], [ -15698480.175990736111999, -3981035.458143751136959 ], [ -15277009.052441786974669, -3390975.885175222530961 ], [ -14636372.944647384807467, -3154952.055987810716033 ], [ -13051641.520103335380554, -2902069.38185844104737 ], [ -12124405.048295646905899, -2480598.25830949191004 ], [ -11416333.560733411461115, -1485926.406733971554786 ], [ -10674544.383287262171507, -946443.368591316509992 ], [ -10135061.345144607126713, -912725.678707400336862 ], [ -9459131.339472645893693, -1263953.704074393492192 ], [ -9228898.429514367133379, -1738809.08086334168911 ], [ -9140267.41227813065052, -1789839.060484205372632 ], [ -9080634.72970755212009, -1824173.029236962320283 ] ] ] ] } },
{ "type": "Feature", "properties": { "id": 4 }, "geometry": { "type": "MultiPolygon", "coordinates": [ [ [ [ 5265493.509333997964859, 5780235.763249909505248 ], [ 4186527.433048687875271, 6319718.801392564550042 ], [ 1961159.900710232555866, 6151130.351972984150052 ], [ -1680350.606752686202526, 5780235.763249909505248 ], [ -5659038.013054767623544, 5611647.313830329105258 ], [ -10312079.217035166919231, 6016259.592437321320176 ], [ -11525916.052856141701341, 7432402.567561790347099 ], [ -10885279.94506173953414, 9017133.992105839774013 ], [ -9705160.799124680459499, 10804171.555953385308385 ], [ -7210051.747714901342988, 12388902.980497434735298 ], [ -3602258.93013589642942, 13130692.157943584024906 ], [ 1050782.273844502866268, 13029539.088291836902499 ], [ 3107561.356763377785683, 12692362.189452677965164 ], [ 4489986.642003931105137, 11647113.803051283583045 ], [ 5737541.167708821594715, 9994946.998739402741194 ], [ 6951378.003529794514179, 8309062.504543604329228 ], [ 6479330.345154970884323, 7803297.156284864991903 ], [ 5804976.547476653009653, 6859201.839535219594836 ], [ 5265493.509333997964859, 5780235.763249909505248 ] ] ] ] } },
{ "type": "Feature", "properties": { "id": 5 }, "geometry": { "type": "MultiPolygon", "coordinates": [ [ [ [ 6001029.458730024285614, 9628991.038987731561065 ], [ 5737541.167708821594715, 9994946.998739402741194 ], [ 4538631.341016828082502, 11582692.444899069145322 ], [ 4489986.642003931105137, 11647113.803051283583045 ], [ 3145235.323658653534949, 12663876.994970884174109 ], [ 3107561.356763377785683, 12692362.189452677965164 ], [ 1504554.785464659333229, 12955150.151960663497448 ], [ 477581.54581793397665, 13939916.715157566592097 ], [ 410146.166050102561712, 14850294.342023298144341 ], [ 1691418.381638906896114, 15457212.759933784604073 ], [ 3444738.255602534860373, 15457212.759933784604073 ], [ 6411894.965387139469385, 14277093.613996725529432 ], [ 8805850.94714517146349, 12287749.910845685750246 ], [ 11098653.859251454472542, 9994946.998739402741194 ], [ 12615949.904027670621872, 7331249.497910043224692 ], [ 13087997.562402494251728, 5813953.453133825212717 ], [ 12851973.7332150824368, 4836140.446500264108181 ], [ 12278773.005188513547182, 4296657.408357609063387 ], [ 11840443.03669760376215, 4128068.958938028663397 ], [ 10896347.719947960227728, 4701269.686964597553015 ], [ 10255711.612153556197882, 5341905.794759001582861 ], [ 9547640.124591320753098, 6319718.801392564550042 ], [ 8097779.459582936018705, 7297531.808026127517223 ], [ 6951378.003529794514179, 8309062.504543604329228 ], [ 6001029.458730024285614, 9628991.038987731561065 ] ] ] ] } },
{ "type": "Feature", "properties": { "id": 6 }, "geometry": { "type": "MultiPolygon", "coordinates": [ [ [ [ 5744284.70568560436368, 6737818.15595312230289 ], [ 6267455.672235769219697, 7506672.614197981543839 ], [ 6903164.109681530855596, 8257404.761134750209749 ], [ 6903164.109681534580886, 8257404.761134754866362 ], [ 7690740.032093247398734, 7656684.244046440348029 ], [ 8097779.459582936018705, 7297531.808026127517223 ], [ 9098129.420272739604115, 6622877.183374863117933 ], [ 9630487.802543219178915, 6205310.103268513455987 ], [ 10255711.612153556197882, 5341905.794759001582861 ], [ 10390582.371689219027758, 5207035.035223338752985 ], [ 10862630.030064042657614, 3790892.060098867863417 ], [ 10626606.200876630842686, 1868983.736715659499168 ], [ 10019687.782966144382954, 891170.730082098394632 ], [ 9311616.295403908938169, 587711.521126855164766 ], [ 7861755.630395524203777, 183099.242519862949848 ], [ 7018813.383297625929117, 587711.521126855164766 ], [ 6816507.243994131684303, 385405.381823357194662 ], [ 6411894.965387139469385, -592407.624810203909874 ], [ 6108435.756431896239519, -828431.453997615724802 ], [ 5703823.477824904024601, 216816.932403780519962 ], [ 5231775.819450080394745, 1430653.768224753439426 ], [ 4624857.401539593935013, 2172442.945670902729034 ], [ 3815632.844325609505177, 2509619.844510063529015 ], [ 3411020.565718621015549, 3183973.642188381403685 ], [ 3242432.116299040615559, 4296657.408357609063387 ], [ 3309867.496066872030497, 4869858.136384177953005 ], [ 4591139.711655676364899, 5274470.414991170167923 ], [ 5265493.509333997964859, 5780235.763249909505248 ], [ 5744284.70568560436368, 6737818.15595312230289 ] ] ] ] } },
{ "type": "Feature", "properties": { "id": 7 }, "geometry": { "type": "MultiPolygon", "coordinates": [ [ [ [ 4666921.054266060702503, 2121031.8145607765764 ], [ 4666921.054266065359116, 2121031.814560770988464 ], [ 5295369.371282075531781, 1267127.492085336940363 ], [ 5295369.371282642707229, 1267127.492083879653364 ], [ 5754537.324509938247502, 85806.161800776171731 ], [ 5924925.606722551397979, -354363.567248474922962 ], [ 6048201.620838364586234, -672826.603714326396585 ], [ 5737541.16770881973207, -1907397.530282920226455 ], [ 5332928.889101827517152, -2295150.963947953656316 ], [ 5282352.354275954887271, -2767198.622322777286172 ], [ 4995751.990262668579817, -3272963.970581516623497 ], [ 4591139.711655678227544, -3576423.179536759853363 ], [ 3967362.448803232982755, -3441552.420001097023487 ], [ 3478455.945486452430487, -2463739.413367534056306 ], [ 3579609.015138199552894, -1064455.283185022883117 ], [ 3461597.10054449364543, -103501.12149341776967 ], [ 3815632.844325611367822, 975464.954791892319918 ], [ 3815632.844325609505177, 2509619.844510063529015 ], [ 4666921.054266060702503, 2121031.8145607765764 ] ] ] ] } },
{ "type": "Feature", "properties": { "id": 8 }, "geometry": { "type": "MultiPolygon", "coordinates": [ [ [ [ 5384924.313140011392534, -2245322.015911360736936 ], [ 5737541.16770881973207, -1907397.530282920226455 ], [ 5749510.090823207050562, -1859832.787649921607226 ], [ 5808136.869634234346449, -1626848.782414210261777 ], [ 6016920.367920678108931, -797138.935746853007004 ], [ 6078717.351862608455122, -751658.908860288443975 ], [ 6108435.756431896239519, -828431.453997615724802 ], [ 6411894.965387139469385, -592407.624810203909874 ], [ 6463036.314307517372072, -468816.031585958320647 ], [ 6814042.600672669708729, 379449.160463156586047 ], [ 6976666.270942732691765, 545564.408771960879676 ], [ 7840380.631932051852345, 193359.241782329889247 ], [ 8856427.48197104409337, -828431.453997611068189 ], [ 9564498.969533279538155, -1317337.95731439255178 ], [ 9716228.574010901153088, -1570220.63144376128912 ], [ 9345333.985287824645638, -1991691.75499271042645 ], [ 8249509.064060557633638, -2295150.963947953656316 ], [ 7490861.041672447696328, -2632327.862787114456296 ], [ 6900801.468703920021653, -2918928.226800398901105 ], [ 6580483.41480671800673, -3323540.505407391116023 ], [ 6074718.066547978669405, -3222387.435755642130971 ], [ 5263792.027926902286708, -2799952.139409339986742 ], [ 5282352.354275954887271, -2767198.622322777286172 ], [ 5293337.23308178037405, -2664673.086801740340889 ], [ 5384924.313140011392534, -2245322.015911360736936 ] ] ] ] } },
{ "type": "Feature", "properties": { "id": 9 }, "geometry": { "type": "MultiPolygon", "coordinates": [ [ [ [ 3920157.682965750806034, -3347142.888326132204384 ], [ 3798773.999383652582765, -3778729.318840255960822 ], [ 3630185.54996407404542, -4031611.992969624698162 ], [ 2905255.217459879815578, -4250776.977215079590678 ], [ 2517501.78379484731704, -4840836.550183607265353 ], [ 2399489.869201141409576, -5380319.588326262310147 ], [ 1978018.745652192272246, -5633202.262455632910132 ], [ 1775712.606348697096109, -5178013.449022768065333 ], [ 1320523.792915831319988, -4975707.309719271957874 ], [ 1253088.413148, -4621671.565938154235482 ], [ 1286806.103031915612519, -4250776.977215079590678 ], [ 1236229.568206042051315, -4014753.14802766777575 ], [ 1269947.258089957758784, -3626999.714362634345889 ], [ 1438535.707509537227452, -3239246.280697600916028 ], [ 1725136.071522822603583, -2632327.862787114456296 ], [ 1691418.381638906896114, -2126562.514528375118971 ], [ 1489112.242335410788655, -1890538.685340963304043 ], [ 1101358.808670377358794, -1688232.546037467196584 ], [ 1168794.188438209705055, -1148749.50789481215179 ], [ 1151935.34349625185132, -693560.694461947306991 ], [ 747323.064889260567725, 267393.467229656875134 ], [ 275275.406514436937869, 1042900.334559723734856 ], [ -95619.182208637706935, 2223019.480496781878173 ], [ 157263.491920731961727, 3099679.417478595860302 ], [ 612452.305353596806526, 3605444.765737335197628 ], [ 1236229.568206042051315, 3571727.075853419490159 ], [ 2045454.125420024618506, 3672880.145505167078227 ], [ 3006408.287111628800631, 3504291.696085587143898 ], [ 3431846.197705742903054, 3149264.255543177947402 ], [ 3465330.93868600577116, 3093456.353909406345338 ], [ 3623739.521015675738454, 2829442.050026622135192 ], [ 3815632.844325609505177, 2408466.774858319200575 ], [ 3815632.844325610436499, 1801548.356947841122746 ], [ 3815632.844325610436499, 1750971.822121958248317 ], [ 3815632.844325610436499, 1723833.193678802344948 ], [ 3815632.84432561090216, 1194629.939037345349789 ], [ 3657772.075167753268033, 494365.467834611423314 ], [ 3461597.10054449364543, -103501.12149341776967 ], [ 3462885.283966377843171, -113990.615071616717614 ], [ 3491021.332927821669728, -343098.442329090205021 ], [ 3533985.852279807906598, -692952.385623835260049 ], [ 3550774.912684401962906, -1463327.033795893657953 ], [ 3478455.945486452430487, -2463739.413367534056306 ], [ 3491943.021440018899739, -2490713.565274666529149 ], [ 3920157.682965750806034, -3347142.888326132204384 ] ] ] ] } },
{ "type": "Feature", "properties": { "id": 10 }, "geometry": { "type": "MultiPolygon", "coordinates": [ [ [ [ 1816034.792189256055281, -5268738.367164026014507 ], [ 1860006.831058486830443, -5367675.454619795084 ], [ 1976628.32545079337433, -5630073.817002485506237 ], [ 1725136.071522822603583, -5919802.626468917354941 ], [ 1387959.172683663666248, -5919802.626468917354941 ], [ 1000205.739018630236387, -5751214.177049338817596 ], [ 410146.166050100699067, -5700637.64222346432507 ], [ 72969.267210941761732, -5818649.556817170232534 ], [ -769972.979886956512928, -6020955.696120666339993 ], [ -1343173.707913528196514, -5650061.107397589832544 ], [ -1410609.087681359611452, -5127436.914196893572807 ], [ -1309456.018029611557722, -4554236.186170321889222 ], [ -1107149.878726116381586, -3745011.628956339322031 ], [ -1343173.707913528196514, -2885210.536916483193636 ], [ -1214080.575917827431113, -2248136.751870117150247 ], [ -1214080.575917826732621, -2248136.751870116684586 ], [ -1136652.857374543324113, -2210856.739238165318966 ], [ -791971.241762721328996, -1967552.069394527003169 ], [ -213631.096802343614399, -1738809.08086334168911 ], [ 713605.375005344860256, -1587079.476385719142854 ], [ 1106027.411885073408484, -1650883.720319898799062 ], [ 1101358.808670377358794, -1688232.546037467196584 ], [ 1448781.275980949867517, -1869496.442025592317805 ], [ 1693880.071387068834156, -2163487.860750804655254 ], [ 1707285.529819573508576, -2364569.73723837453872 ], [ 1722972.768410801421851, -2599878.316106796264648 ], [ 1538167.758343179477379, -3028260.761285182088614 ], [ 1438535.707509537227452, -3239246.280697600916028 ], [ 1269947.258089957758784, -3626999.714362634345889 ], [ 1236229.568206042051315, -4014753.14802766777575 ], [ 1279421.811736365081742, -4216316.951169176958501 ], [ 1281002.238379766233265, -4314619.488388722762465 ], [ 1253088.413148, -4621671.565938154235482 ], [ 1320523.792915831319988, -4975707.309719271957874 ], [ 1381528.479252195684239, -5002820.503646545112133 ], [ 1816034.792189256055281, -5268738.367164026014507 ] ] ] ] } },
{ "type": "Feature", "properties": { "id": 11 }, "geometry": { "type": "MultiPolygon", "coordinates": [ [ [ [ 2607476.497307771351188, -4703918.507881331257522 ], [ 2930042.230811114422977, -4243283.22899261303246 ], [ 3538940.602265329565853, -4059197.674832035787404 ], [ 3630185.54996407404542, -4031611.992969624698162 ], [ 3790992.994025825988501, -3790400.826876996085048 ], [ 3798773.999383652582765, -3778729.318840255960822 ], [ 3809604.530073637608439, -3740220.765275865793228 ], [ 3940388.29689610004425, -3387604.116186831146479 ], [ 3967362.448803232982755, -3441552.420001097023487 ], [ 4538033.761852469295263, -3564940.812011742033064 ], [ 4591139.711655678227544, -3576423.179536759853363 ], [ 4995751.990262668579817, -3272963.970581516623497 ], [ 5009009.366226277314126, -3249568.601233971770853 ], [ 5312214.336820846423507, -2825176.748600787483156 ], [ 5839053.091909893788397, -3099622.598201570566744 ], [ 6074718.066547978669405, -3222387.435755642130971 ], [ 6460526.248873556032777, -3299549.072220758534968 ], [ 6765930.709168255329132, -3610140.869420675560832 ], [ 7018813.383297625929117, -4301353.512040952220559 ], [ 6782789.554110214114189, -4975707.309719271957874 ], [ 6411894.96538713760674, -5717496.487165423110127 ], [ 6057859.221606021746993, -6206402.990482203662395 ], [ 5231775.819450080394745, -6122108.7657724134624 ], [ 4557422.021771762520075, -5869226.09164304472506 ], [ 3697620.929731905460358, -5633202.262455632910132 ], [ 3107561.356763375923038, -5380319.588326262310147 ], [ 2399489.869201141409576, -5380319.588326262310147 ], [ 2607476.497307771351188, -4703918.507881331257522 ] ] ] ] } },
{ "type": "Feature", "properties": { "id": 12 }, "geometry": { "type": "MultiPolygon", "coordinates": [ [ [ [ 456050.314352353103459, -5704572.283506514504552 ], [ 1042125.029144579544663, -5769439.955364968627691 ], [ 1387959.172683663666248, -5919802.626468917354941 ], [ 1505971.087277369573712, -5919802.626468917354941 ], [ 1674559.53669694904238, -5919802.626468917354941 ], [ 1725136.071522822603583, -5919802.626468917354941 ], [ 1976628.32545079337433, -5630073.817002485506237 ], [ 1978018.745652192272246, -5633202.262455632910132 ], [ 2263566.333206314593554, -5461873.709923158399761 ], [ 2483784.093910931609571, -5380319.588326262310147 ], [ 3207261.077713230624795, -5423048.04016191419214 ], [ 3697620.929731905460358, -5633202.262455632910132 ], [ 4524530.095833876170218, -5860196.935503233224154 ], [ 4119092.053280854597688, -6341273.750017866492271 ], [ 3495314.790428409352899, -6813321.408392690122128 ], [ 2854678.682634007185698, -7116780.617347933351994 ], [ 2197183.729897646233439, -7083062.927464017644525 ], [ 1455394.552451495081186, -7133639.462289892137051 ], [ 848476.134541008621454, -7774275.570084294304252 ], [ 730464.21994730271399, -7757416.72514233738184 ], [ 207840.026746605522931, -7605687.120664713904262 ], [ -449654.925989755429327, -7251651.376883598044515 ], [ -1275738.328145695850253, -7083062.927464017644525 ], [ -2068104.04041772056371, -7319086.756651429459453 ], [ -2455857.474082753993571, -7133639.462289892137051 ], [ -2304127.869605132378638, -6779603.718508774414659 ], [ -1680350.606752687133849, -6408709.129785699769855 ], [ -804225.218512935214676, -5998792.482892092317343 ], [ -769972.979886956512928, -6020955.696120666339993 ], [ -55193.661432535911445, -5849408.659691604785621 ], [ 72969.267210941761732, -5818649.556817170232534 ], [ 156175.42646887639421, -5789527.40107689332217 ], [ 456050.314352353103459, -5704572.283506514504552 ] ] ] ] } },
{ "type": "Feature", "properties": { "id": 13 }, "geometry": { "type": "MultiPolygon", "coordinates": [ [ [ [ -1817316.651000066893175, -7244384.130016383714974 ], [ -1452002.634202050976455, -7135567.188842506147921 ], [ -1120166.443933201488107, -7114812.291589017026126 ], [ -397377.039839462726377, -7279801.007887601852417 ], [ 207840.026746605522931, -7605687.120664713904262 ], [ 361316.997110726253595, -7650244.950770426541567 ], [ 730464.21994730271399, -7757416.72514233738184 ], [ 848476.134541008621454, -7774275.570084294304252 ], [ 881701.595375523087569, -7739204.250314529053867 ], [ 1291039.272856756579131, -7307125.590751005336642 ], [ 1644560.327265526168048, -7120741.79582529887557 ], [ 2112135.407753434032202, -7088861.676701122894883 ], [ 2717574.817079801112413, -7109749.649883614853024 ], [ 2854678.682634007185698, -7116780.617347933351994 ], [ 2948889.874956712126732, -7072154.263089809566736 ], [ 3495314.790428409352899, -6813321.408392691984773 ], [ 3545891.325254283845425, -7420239.826303178444505 ], [ 3529032.480312325060368, -7942864.019503875635564 ], [ 2837819.83769204840064, -8414911.677878700196743 ], [ 2416348.71414309926331, -8735229.731775900349021 ], [ 2146607.195071771740913, -8347476.29811086691916 ], [ 1640841.846813032403588, -9139842.010382892563939 ], [ 983346.894076672382653, -9561313.133931841701269 ], [ 190981.181804647669196, -9628748.513699673116207 ], [ -837408.359654788859189, -9628748.513699673116207 ], [ -1730927.141578561160713, -9595030.823815757408738 ], [ -2438998.629140796139836, -9595030.823815757408738 ], [ -2978481.66728345118463, -9392724.684512261301279 ], [ -3737129.689671559724957, -8516064.74753044731915 ], [ -3905718.139091139193624, -7740557.880200380459428 ], [ -3737129.689671559724957, -7184215.997115767560899 ], [ -3315658.566122610121965, -7032486.392638145945966 ], [ -2455857.474082753993571, -7133639.462289892137051 ], [ -2068104.04041772056371, -7319086.756651429459453 ], [ -2013742.151633985573426, -7302893.853609465993941 ], [ -1817316.651000066893175, -7244384.130016383714974 ] ] ] ] } },
{ "type": "Feature", "properties": { "id": 14 }, "geometry": { "type": "MultiPolygon", "coordinates": [ [ [ [ 3567745.963541789911687, -6758508.628739322535694 ], [ 4119092.053280854597688, -6341273.750017866492271 ], [ 4460278.584185680374503, -5936435.248900826089084 ], [ 4740328.94223793502897, -5937816.186817859299481 ], [ 5231775.819450080394745, -6122108.7657724134624 ], [ 5465367.416267463937402, -6145944.642998676747084 ], [ 5465367.416267465800047, -6145944.642998677678406 ], [ 5465367.41626747418195, -6145944.642998678609729 ], [ 6057859.221606021746993, -6206402.990482203662395 ], [ 6411894.96538713760674, -5717496.487165423110127 ], [ 6415266.734375528991222, -5710752.949188640341163 ], [ 7541437.576498322188854, -5346601.898442348465323 ], [ 8384379.823596220463514, -4840836.550183609127998 ], [ 9126169.001042371615767, -4874554.24006752576679 ], [ 9379051.675171740353107, -5312884.208558432757854 ], [ 9294757.450461952015758, -5936661.471410878002644 ], [ 8704697.877493422478437, -6594156.424147238023579 ], [ 7878614.475337481126189, -7167357.152173809707165 ], [ 7524578.731556365266442, -7622545.965606674551964 ], [ 7322272.592252869158983, -8330617.453168909065425 ], [ 6782789.554110214114189, -8735229.731775900349021 ], [ 6243306.515967559069395, -9089265.475557018071413 ], [ 5906129.61712840013206, -9240995.080034639686346 ], [ 5282352.354275954887271, -9173559.700266808271408 ], [ 5012610.835204627364874, -8617217.817182194441557 ], [ 4860881.230727005749941, -8195746.693633245304227 ], [ 4270821.657758476212621, -8111452.468923456035554 ], [ 3883068.22409344278276, -8263182.073401077650487 ], [ 3529032.480312325060368, -7942864.019503875635564 ], [ 3545891.325254283845425, -7420239.826303178444505 ], [ 3535078.410912200342864, -7290484.85419817827642 ], [ 3567745.963541789911687, -6758508.628739322535694 ] ] ] ] } },
{ "type": "Feature", "properties": { "id": 15 }, "geometry": { "type": "MultiPolygon", "coordinates": [ [ [ [ 1604995.197479316731915, -9162820.631750658154488 ], [ 1640841.846813032403588, -9139842.010382892563939 ], [ 1902427.784413564251736, -8730024.041475392878056 ], [ 2146607.195071771740913, -8347476.29811086691916 ], [ 2416348.71414309926331, -8735229.731775900349021 ], [ 2539883.353803997859359, -8641343.405633617192507 ], [ 2929794.582835842389613, -8352099.656804889440536 ], [ 3575383.793400875292718, -7984800.921822087839246 ], [ 3883068.22409344278276, -8263182.073401077650487 ], [ 3979688.751826369203627, -8225374.040809932164848 ], [ 4094532.676288106478751, -8180435.113846643827856 ], [ 4174836.791392213664949, -8149011.764458080753684 ], [ 4808955.988305774517357, -8188328.801858783699572 ], [ 5010492.531204370781779, -8611333.639403702691197 ], [ 5012610.835204627364874, -8617217.817182194441557 ], [ 5052119.44431767705828, -8698704.323477858677506 ], [ 5282352.354275954887271, -9173559.700266808271408 ], [ 5350810.219946403056383, -9180960.550609558820724 ], [ 5832267.18311554659158, -9233009.952033249661326 ], [ 5906129.61712840013206, -9240995.080034639686346 ], [ 6243306.515967559069395, -9089265.475557018071413 ], [ 6575834.286235693842173, -8871044.12631855532527 ], [ 6782789.554110214114189, -8735229.731775900349021 ], [ 7203586.323861484415829, -8419632.15446244738996 ], [ 7322272.592252869158983, -8330617.453168909065425 ], [ 7482471.193954855203629, -7769922.347211957909167 ], [ 7571783.497393847443163, -7561854.123815625905991 ], [ 8093205.72177888918668, -7018457.103622628375888 ], [ 8204174.685256169177592, -6941458.231005740351975 ], [ 8621555.38157781213522, -6651847.135598886758089 ], [ 8704697.877493422478437, -6594156.424147238023579 ], [ 9141548.245973037555814, -6107380.299269954673946 ], [ 9294757.450461952015758, -5936661.471410878002644 ], [ 9308665.39284591935575, -5833742.697769513353705 ], [ 10542311.976166840642691, -5869226.091643045656383 ], [ 10879488.875006001442671, -7032486.392638145945966 ], [ 10323146.99192138761282, -8280040.918343035504222 ], [ 9564498.969533279538155, -9089265.475557018071413 ], [ 8333803.288770347833633, -10151372.706900369375944 ], [ 7777461.405685734003782, -11044891.48882414214313 ], [ 7204260.677659163251519, -12140716.410051411017776 ], [ 6496189.190096927806735, -12831929.052671687677503 ], [ 5501517.338521407917142, -13219682.486336721107364 ], [ 4169668.588106729090214, -13320835.555988468229771 ], [ 3545891.325254283845425, -13169105.951510846614838 ], [ 3006408.287111628800631, -13152247.106568887829781 ], [ 2483784.093910931609571, -12831929.052671687677503 ], [ 2028595.280478065833449, -11854116.046038124710321 ], [ 1674559.53669694904238, -10572843.830449318513274 ], [ 1211907.581281390506774, -9414799.872903175652027 ], [ 1604995.197479316731915, -9162820.631750658154488 ] ] ] ] } }
]
}
