{
"type": "FeatureCollection",
"name": "map002",
"crs": { "type": "name", "properties": { "name": "urn:ogc:def:crs:ESRI::102016" } },
"features": [
{ "type": "Feature", "properties": { "id": 1 }, "geometry": { "type": "MultiPolygon", "coordinates": [ [ [ [ -6300006.744940273463726, 3039882.408650525845587 ], [ -6474025.058136723935604, 1995772.529471818357706 ], [ -6887318.551978296600282, 1234442.409237342886627 ], [ -7452878.069866763427854, 146827.951759521849453 ], [ -7844419.274558779783547, -614502.168474951758981 ], [ -8257712.768400351516902, -1484593.734457209706306 ], [ -8279465.057549907825887, -2202419.276392571628094 ], [ -8061942.166054343804717, -3159519.998973054811358 ], [ -7909676.142007448710501, -3790336.384310189634562 ], [ -7996685.29860567394644, -4247134.456450875848532 ], [ -8736263.12969059124589, -4638675.661142891272902 ], [ -8910281.442887043580413, -5117226.022433131933212 ], [ -8866776.864587930962443, -5595776.383723372593522 ], [ -8301217.346699464134872, -6074326.745013615116477 ], [ -7518134.93731543328613, -6204840.479910952970386 ], [ -6604538.793034063652158, -6117831.323312727734447 ], [ -6082483.853444708511233, -6574629.395453412085772 ], [ -5647438.070453580468893, -7183693.491640992462635 ], [ -5168887.709163339808583, -8619344.57551171630621 ], [ -5429915.178958017379045, -9989738.791933769360185 ], [ -6300006.744940273463726, -10946839.514514252543449 ], [ -7213602.889221643097699, -11273123.851757599040866 ], [ -8562244.816494140774012, -11142610.116860261186957 ], [ -10128409.635262202471495, -10707564.333869131281972 ], [ -11890345.056376274675131, -10185509.394279778003693 ], [ -12738684.333208974450827, -9619949.876391310244799 ], [ -14038383.609894972294569, -8532335.418913489207625 ], [ -14495181.682035658508539, -7596986.985482564195991 ], [ -15147750.356522349640727, -6683390.841201193630695 ], [ -15648053.006962146610022, -5835051.564368493855 ], [ -15930832.765906382352114, -5269492.046480026096106 ], [ -15996089.633355051279068, -4638675.66114289034158 ], [ -15626300.717812590301037, -4007859.275805754587054 ], [ -14473429.392886102199554, -3268281.44472083542496 ], [ -13168292.043912716209888, -3094263.131524384021759 ], [ -11732640.960041992366314, -3050758.55322527140379 ], [ -11341099.755349976941943, -2485199.035336804576218 ], [ -10405751.321919050067663, -832025.059970516711473 ], [ -9709678.069133244454861, 603626.023900207132101 ], [ -9187623.129543891176581, 1256194.698386899195611 ], [ -8274026.985262520611286, 2300304.577565607614815 ], [ -7773724.334822723641992, 2800607.228005405515432 ], [ -7295173.973532481119037, 3105139.276099195703864 ], [ -6300006.744940273463726, 3039882.408650525845587 ] ] ] ] } },
{ "type": "Feature", "properties": { "id": 2 }, "geometry": { "type": "MultiPolygon", "coordinates": [ [ [ [ -7142907.949485586956143, 146827.951759521849453 ], [ -6664357.588195346295834, 1169185.541788673959672 ], [ -6472114.38408980332315, 2007236.573753339936957 ], [ -5729009.154764419421554, 2735350.360556736588478 ], [ -5359220.239221960306168, 3322662.167594759725034 ], [ -5076440.480277726426721, 3757707.950585888233036 ], [ -4206348.914295468479395, 3801212.528885000851005 ], [ -2596679.517228294163942, 3409671.324192984960973 ], [ -2009367.710190270096064, 2865864.095454074442387 ], [ -1574321.927199143916368, 2169790.842668269760907 ], [ -1661331.083797369152308, 1321451.565835569053888 ], [ -1944110.842741601169109, 538369.156451537273824 ], [ -2313899.758284062147141, 59818.795161296613514 ], [ -2596679.517228294163942, -679759.03592362254858 ], [ -2835954.697873413562775, -1223566.264662532135844 ], [ -2814202.40872385725379, -1941391.806597894057631 ], [ -3009973.011069867759943, -3007253.97492615878582 ], [ -3358009.637462768703699, -3616318.071113739162683 ], [ -4141092.046846799552441, -3725079.516861520707607 ], [ -5402724.817521072924137, -3572813.492814626544714 ], [ -6251064.094353772699833, -3268281.444720836356282 ], [ -6903632.768840465694666, -2702721.926832368597388 ], [ -7208164.816934255883098, -2245923.854691684246063 ], [ -7403935.419280264526606, -1593355.18020499125123 ], [ -7403935.419280264526606, -919034.216568741947412 ], [ -7142907.949485586956143, 146827.951759521849453 ] ] ] ] } },
{ "type": "Feature", "properties": { "id": 3 }, "geometry": { "type": "MultiPolygon", "coordinates": [ [ [ [ -557402.409457379020751, -5987317.58841538708657 ], [ -100604.337316694669425, -5932936.865541496314108 ], [ 334441.445674434304237, -5845927.708943270146847 ], [ 834744.096114232204854, -5758918.552345044910908 ], [ 1280666.02368013933301, -5856803.853518049232662 ], [ 1737464.095820823684335, -5911184.576391940005124 ], [ 2270395.179984955117106, -5802423.130644157528877 ], [ 3053477.589368985965848, -5508767.227125145494938 ], [ 3455894.938635781407356, -5258615.901905247010291 ], [ 3996983.131230995990336, -5030216.865834904834628 ], [ 4714808.673166356980801, -4693056.384016780182719 ], [ 5323872.769353937357664, -4432028.914222102612257 ], [ 5758918.552345065400004, -4149249.155277869664133 ], [ 6030822.166714521124959, -3964354.69750664010644 ], [ 6346230.359383089467883, -3648946.504838071763515 ], [ 6574629.395453432574868, -3583689.637389402836561 ], [ 7118436.624192342162132, -3931726.263782305642962 ], [ 7107560.47961756400764, -4595171.082843775860965 ], [ 6813904.576098551973701, -5160730.600732242688537 ], [ 6552877.106303876265883, -5519643.37169992364943 ], [ 6433239.515981314703822, -5769794.6969198230654 ], [ 5932936.865541517734528, -6117831.323312725871801 ], [ 5378253.492227828130126, -6161335.901611838489771 ], [ 4268886.745600450783968, -6204840.47991095110774 ], [ 3616318.071113758720458, -6563753.250878632068634 ], [ 3300909.878445190377533, -6911789.877271534875035 ], [ 3137767.709823517128825, -7455597.106010445393622 ], [ 2996377.830351400189102, -7858014.455277239903808 ], [ 2637465.059383719228208, -8064661.202198025770485 ], [ 2191543.131817813031375, -8097289.635922360233963 ], [ 1636859.758504124358296, -8075537.346772803924978 ], [ 1049547.951466100290418, -8075537.346772803924978 ], [ 375226.987829851917922, -8021156.623898913152516 ], [ -320846.26495595369488, -7966775.901025021448731 ], [ -940786.505718311760575, -7792757.587828570045531 ], [ -1386708.433284218423069, -7781881.443253791891038 ], [ -1767373.493401456158608, -7760129.154104235582054 ], [ -2278552.288416031748056, -7509977.828884337097406 ], [ -2441694.457037704996765, -7085808.190467986278236 ], [ -2485199.035336817614734, -6607257.829177745617926 ], [ -2028400.963196133030578, -6291849.636509177275002 ], [ -1125680.963489541318268, -5943813.010116274468601 ], [ -557402.409457379020751, -5987317.58841538708657 ] ] ] ] } },
{ "type": "Feature", "properties": { "id": 4 }, "geometry": { "type": "MultiPolygon", "coordinates": [ [ [ [ -2848188.169515894725919, -2126425.393132317345589 ], [ -2824756.759112821891904, -1593098.243762054946274 ], [ -2615712.770234156399965, -1158309.397213862277567 ], [ -2398189.878738591447473, -570997.590175839141011 ], [ -2282745.161744988989085, 100136.508329508535098 ], [ -1680364.336803229525685, 560121.445601094514132 ], [ -1310575.421260770410299, 1430213.011583351530135 ], [ -1375832.288709440268576, 1995772.529471818357706 ], [ -1648102.514693776611239, 2287839.782659682445228 ], [ -1974386.851937121944502, 2809894.722249037120491 ], [ -2028400.963196132332087, 3518432.769940768368542 ], [ -1506346.023606778122485, 4062239.998679678887129 ], [ -723263.614222747273743, 3953478.552931896876544 ], [ -505740.722727183252573, 3148643.854398309253156 ], [ -462236.144428070634604, 2061029.396920488215983 ], [ 146827.95175950974226, 1060424.096040892414749 ], [ 560121.445601081475616, 407855.421554200351238 ], [ 1082176.385190434753895, -179456.38548382371664 ], [ 1082176.385190434753895, -919034.216568741947412 ], [ 777644.337096646428108, -1549850.601905878633261 ], [ 386103.132404630072415, -2093657.830644788220525 ], [ -70694.93973605427891, -2637465.059383699670434 ], [ -745015.903372303582728, -3050758.55322527140379 ], [ -1419336.867008552886546, -3181272.288122609257698 ], [ -2419942.16788814868778, -2985501.685776602476835 ], [ -2848188.169515894725919, -2126425.393132317345589 ] ] ] ] } },
{ "type": "Feature", "properties": { "id": 5 }, "geometry": { "type": "MultiPolygon", "coordinates": [ [ [ [ 3099156.689421508461237, -7565490.010231547057629 ], [ 3583689.637389423325658, -7140188.91334187798202 ], [ 4258010.601025672629476, -6835656.865248087793589 ], [ 5193359.034456599503756, -6574629.395453411154449 ], [ 5693661.68489639647305, -6357106.503957846201956 ], [ 5909621.935826383531094, -6119659.945251167751849 ], [ 6329355.016590631566942, -5842062.174756820313632 ], [ 6868285.298972444608808, -5508767.227125145494938 ], [ 7238074.214514903724194, -5378253.492227807641029 ], [ 7955899.756450265645981, -5987317.58841538708657 ], [ 8717229.876684740185738, -6618133.973752523772418 ], [ 9282789.394573207944632, -7270702.648239216767251 ], [ 9652578.310115665197372, -8097289.635922360233963 ], [ 9456807.70776965841651, -8902124.334455948323011 ], [ 9065266.503077642992139, -9445931.563194859772921 ], [ 8477954.69603961892426, -9685206.743839979171753 ], [ 8021156.623898934572935, -9902729.6353355422616 ], [ 8151670.358796272426844, -10816325.779616912826896 ], [ 7781881.443253813311458, -11925692.526244290173054 ], [ 7151065.057916676625609, -12774031.803076991811395 ], [ 6237468.913635307922959, -13230829.87521767616272 ], [ 5410881.925952164456248, -13709380.23650791682303 ], [ 4323267.46847434155643, -13796389.393106142058969 ], [ 3366166.74589386023581, -13731132.525657473132014 ], [ 2517827.469061158597469, -13143820.718619450926781 ], [ 1625983.613929346203804, -11990949.393692959100008 ], [ 1169185.541788661852479, -11316628.430056711658835 ], [ 581873.7347506377846, -10337775.418326672166586 ], [ -48942.650586497969925, -9924481.924485098570585 ], [ -1093052.529765206389129, -9859225.057036429643631 ], [ -1984896.384897019714117, -9793968.189587760716677 ], [ -2724474.215981937944889, -9206656.382549736648798 ], [ -3050758.553225284442306, -8358317.105717037804425 ], [ -2833235.661729720421135, -7640491.563781675882638 ], [ -1941391.806597907096148, -8010280.479324134998024 ], [ -810272.770820973441005, -8140794.214221472851932 ], [ 16314.216862170957029, -8380069.39486659411341 ], [ 908158.071993984282017, -8380069.39486659411341 ], [ 1669488.192228458821774, -8488830.840614374727011 ], [ 2539579.758210716769099, -8423573.973165705800056 ], [ 3105139.276099182665348, -8075537.346772803924978 ], [ 3099156.689421508461237, -7565490.010231547057629 ] ] ] ] } },
{ "type": "Feature", "properties": { "id": 6 }, "geometry": { "type": "MultiPolygon", "coordinates": [ [ [ [ 8695477.587535185739398, 6716019.274925561621785 ], [ 8586716.141787402331829, 6803028.431523786857724 ], [ 7847138.310702484101057, 6716019.274925561621785 ], [ 7194569.636215792968869, 6215716.624485762789845 ], [ 6607257.82917776890099, 6128707.467887537553906 ], [ 6041698.311289301142097, 6672514.696626449003816 ], [ 4975836.142961036413908, 7629615.419206930324435 ], [ 3453175.902492087334394, 8608468.430936969816685 ], [ 1691240.481378017924726, 9913605.779910355806351 ], [ 125075.66260995529592, 11871311.803370432928205 ], [ -331722.409530729521066, 13176449.152343818917871 ], [ -505740.722727180924267, 14394577.344718977808952 ], [ -418731.566128955222666, 14851375.416859664022923 ], [ 255589.39750729361549, 15264668.910701233893633 ], [ 1103928.674339993856847, 15590953.247944582253695 ], [ 1974020.24032225087285, 15569200.95879502594471 ], [ 2822359.517154951579869, 15569200.95879502594471 ], [ 3931726.263782328926027, 15047146.019205670803785 ], [ 4323267.468474344350398, 14612100.236214542761445 ], [ 4714808.673166360706091, 13524485.778736721724272 ], [ 5432634.215101722627878, 12328109.87551111727953 ], [ 5976441.443840632215142, 12632641.923604909330606 ], [ 6911789.877271559089422, 13132944.574044706299901 ], [ 8695477.587535185739398, 12610889.634455353021622 ], [ 9565569.153517441824079, 11958320.959968660026789 ], [ 10653183.610995262861252, 10674935.900144830346107 ], [ 11697293.490173971280456, 9565569.153517452999949 ], [ 12306357.586361551657319, 9043514.21392809972167 ], [ 13263458.308942034840584, 7955899.756450277753174 ], [ 13720256.381082717329264, 6933542.166421126574278 ], [ 13676751.802783604711294, 5606652.528298184275627 ], [ 13241706.019792478531599, 4453781.2033716943115 ], [ 12610889.634455341845751, 3996983.131231008097529 ], [ 11719045.77932352758944, 4258010.601025685667992 ], [ 11044724.815687278285623, 4910579.275512378662825 ], [ 10218137.828004134818912, 5737166.263195522129536 ], [ 9348046.262021878734231, 6454991.805130884051323 ], [ 8695477.587535185739398, 6716019.274925561621785 ] ] ] ] } },
{ "type": "Feature", "properties": { "id": 7 }, "geometry": { "type": "MultiPolygon", "coordinates": [ [ [ [ 8565260.812216676771641, 6800504.275103701278567 ], [ 8939253.24179745092988, 6618509.013220654800534 ], [ 9478559.996919212862849, 6106955.178737982176244 ], [ 10174633.249705018475652, 5345625.058503507636487 ], [ 10609679.032696146517992, 4279762.890175242908299 ], [ 11001220.237388161942363, 2539579.758210729807615 ], [ 11001220.237388161942363, 1299699.276686012744904 ], [ 10805449.6350421551615, -48942.650586485862732 ], [ 10457413.008649252355099, -1332327.710410313680768 ], [ 9935358.069059897214174, -2245923.854691684246063 ], [ 9500312.286068769171834, -2702721.926832368597388 ], [ 8804239.033282963559031, -2941997.107477489858866 ], [ 7868890.599852036684752, -3007253.97492615878582 ], [ 7172817.347066231071949, -3290033.733870392665267 ], [ 6454991.805130869150162, -3268281.444720836356282 ], [ 6193964.335336193442345, -2963749.39662704616785 ], [ 5867679.998092846944928, -2311180.722140353173018 ], [ 5476138.793400831520557, -1419336.867008540779352 ], [ 4975836.14296103361994, -701511.325073178857565 ], [ 4432028.914222123101354, -70694.939736042171717 ], [ 4279762.890175228007138, 1147433.25263911858201 ], [ 4018735.420380550436676, 1691240.481378028169274 ], [ 3583689.637389422394335, 2126286.264369156211615 ], [ 3431423.613342527300119, 2561332.0473602861166 ], [ 3757707.950585873797536, 3409671.324192985892296 ], [ 4258010.601025671698153, 3670698.793987662531435 ], [ 5019340.72126014623791, 3757707.950585888698697 ], [ 5758918.552345063537359, 3953478.552931896410882 ], [ 6454991.805130869150162, 4606047.227418589405715 ], [ 6890037.588121999055147, 5258615.901905281469226 ], [ 7412092.527711352333426, 5954689.154691087082028 ], [ 8086413.491347601637244, 6498496.383429997600615 ], [ 8565260.812216676771641, 6800504.275103701278567 ] ] ] ] } },
{ "type": "Feature", "properties": { "id": 8 }, "geometry": { "type": "MultiPolygon", "coordinates": [ [ [ [ -595855.015259727835655, -5984373.848258269950747 ], [ -1158309.397213879972696, -5682785.540321596898139 ], [ -1310575.42126077413559, -5552271.805424257181585 ], [ -1354079.999559887684882, -4964959.998386234976351 ], [ -1354079.999559887684882, -4312391.323899541981518 ], [ -1049547.95146609749645, -3920850.119207526557148 ], [ -701511.325073194690049, -3551061.203665067441761 ], [ 59818.795161279849708, -3290033.733870389871299 ], [ 364350.84325507003814, -2506951.324486359022558 ], [ 647130.602199303917587, -2071905.541495230980217 ], [ 1103928.674339988268912, -1658612.047653657384217 ], [ 1256194.698386883363128, -1180061.686363416723907 ], [ 1343203.854985108599067, -266465.542082047089934 ], [ 1169185.541788657195866, 190332.530058637261391 ], [ 951662.650293093174696, 516616.867301983758807 ], [ 603626.023900190368295, 1169185.54178867675364 ], [ 212084.819208174943924, 2039277.107770933769643 ], [ -179456.385483840480447, 3039882.408650529105216 ], [ -92447.228885615244508, 3627194.215688552241772 ], [ 277341.686656843870878, 4083992.287829237058759 ], [ 995167.228592205792665, 4606047.227418591268361 ], [ 1800001.927125793881714, 4823570.118914155289531 ], [ 2474322.890762043185532, 4780065.540615042671561 ], [ 2996377.830351397395134, 4780065.540615042671561 ], [ 3366166.74589385651052, 4780065.540615042671561 ], [ 3648946.504838090389967, 4823570.118914155289531 ], [ 4714808.673166355118155, 4910579.275512381456792 ], [ 5302120.480204377323389, 4475533.49252125248313 ], [ 5215111.32360615208745, 4083992.287829237058759 ], [ 4895417.526830358430743, 3743545.299793913029134 ], [ 3836507.476509526371956, 3450784.120327065233141 ], [ 3496680.480791194364429, 3148643.854398311115801 ], [ 3442275.534878163132817, 2530326.557258469983935 ], [ 3692451.083137203007936, 1800001.927125812508166 ], [ 4062239.998679662123322, 1169185.54178867675364 ], [ 4171001.444427443668246, 429607.710703757591546 ], [ 4388524.335923008620739, -570997.590175837744027 ], [ 4540790.359969902783632, -766768.192521845456213 ], [ 4801817.829764580354095, -1201813.975512973964214 ], [ 5062845.299559257924557, -1876134.939149223268032 ], [ 4845322.408063692972064, -2311180.722140351310372 ], [ 4562542.649119459092617, -2637465.059383697807789 ], [ 4388524.335923008620739, -3159519.998973052017391 ], [ 4301515.179324781522155, -3529308.914515511132777 ], [ 3692451.083137203007936, -3420547.46876772865653 ], [ 2800607.228005388751626, -3464052.047066842205822 ], [ 2082781.686070027761161, -3224776.866421720944345 ], [ 1669488.192228455096483, -2550455.902785471640527 ], [ 1712992.770527567714453, -3072510.842374825850129 ], [ 1691240.481378011405468, -3551061.203665067441761 ], [ 1756497.348826681263745, -3986106.986656195484102 ], [ 1582479.035630229860544, -4247134.456450873054564 ], [ 1082176.385190431959927, -4225382.167301316745579 ], [ 1060424.096040875650942, -4355895.90219865553081 ], [ 951662.650293093174696, -4943207.709236678667367 ], [ 1386708.433284222148359, -5182482.889881798997521 ], [ 1800001.927125793881714, -5291244.335629581473768 ], [ 2039277.107770914211869, -5552271.805424258112907 ], [ 1724824.909364158986136, -5909679.9113375749439 ], [ 1280666.02368013933301, -5856803.853518049232662 ], [ 863025.466945947846398, -5765126.65813737269491 ], [ 239798.072211215738207, -5864856.383635913953185 ], [ -595855.015259727835655, -5984373.848258269950747 ] ] ] ] } },
{ "type": "Feature", "properties": { "id": 9 }, "geometry": { "type": "MultiPolygon", "coordinates": [ [ [ [ 2294866.50527820084244, -3523870.842228121124208 ], [ 2680969.637682827189565, -3643508.432550681289285 ], [ 3045320.480937897227705, -3774022.167448019608855 ], [ 3491242.408503803890198, -3844717.107184078544378 ], [ 3888221.685483208391815, -3806650.601172354537994 ], [ 4225382.167301332578063, -3670698.793987627141178 ], [ 4453781.203371675685048, -3469490.119354230351746 ], [ 4616923.371993348002434, -3224776.866421720013022 ], [ 4796379.757477188482881, -2996377.83035137783736 ], [ 5073721.444134033285081, -2735350.360556700732559 ], [ 5340186.98621609993279, -2626588.914808918721974 ], [ 5786108.913782006129622, -2708159.999119755346328 ], [ 6003631.805277570150793, -3110577.348386549390852 ], [ 6009069.877564959228039, -3556499.275952455587685 ], [ 5856803.853518064133823, -3861031.324046245776117 ], [ 5514205.29941255133599, -4127496.866128311492503 ], [ 5171606.745307037606835, -4263448.67331303935498 ], [ 4829008.191201522946358, -4350457.829911265522242 ], [ 4393962.408210394904017, -4589733.010556385852396 ], [ 4171001.444427441805601, -4752875.179178059101105 ], [ 3877345.540908430237323, -4916017.347799732349813 ], [ 3534746.986802916508168, -5068283.371846627444029 ], [ 3170396.143547846470028, -5149854.456157463602722 ], [ 2882178.312316223978996, -5291244.335629580542445 ], [ 2398189.878738593310118, -5236863.612755688838661 ], [ 2028400.963196134427562, -5100911.805570961907506 ], [ 1718430.842814955394715, -4916017.347799732349813 ], [ 1674926.264515842311084, -4600609.155131164006889 ], [ 1751059.276539289858192, -4274324.817887817509472 ], [ 2028400.963196134427562, -3828402.89032191131264 ], [ 2191543.13181780744344, -3605441.926538957748562 ], [ 2294866.50527820084244, -3523870.842228121124208 ] ] ] ] } },
{ "type": "Feature", "properties": { "id": 10 }, "geometry": { "type": "MultiPolygon", "coordinates": [ [ [ [ -7575234.69633302744478, -652568.674486672738567 ], [ -7361037.682839547283947, -743868.459435814642347 ], [ -7403935.419280264526606, -1577040.963342820527032 ], [ -7379464.093987019732594, -2305742.649852960370481 ], [ -7031427.467594116926193, -3012692.047213544137776 ], [ -6792152.286948995664716, -3676136.866275015287101 ], [ -6857409.154397665522993, -4339581.685336485505104 ], [ -6966170.600145447067916, -4818132.046626727096736 ], [ -7074932.045893229544163, -5340186.986216081306338 ], [ -7248950.359089680947363, -5786108.913781987503171 ], [ -7586110.840907805599272, -5938374.937828882597387 ], [ -7814509.876978147774935, -5905746.50410454813391 ], [ -8053785.05762326810509, -5753480.480057653039694 ], [ -8227803.37081971950829, -5622966.745160315185785 ], [ -8521459.27433873154223, -5438072.287389085628092 ], [ -8532335.418913509696722, -5079159.516421404667199 ], [ -8336564.816567501984537, -4774627.468327614478767 ], [ -8129918.069646716117859, -4491847.70938338059932 ], [ -8040535.267982504330575, -4270349.146120962686837 ], [ -7792757.58782859146595, -3915412.046920135617256 ], [ -7673119.997506030835211, -3415109.396480337716639 ], [ -7716624.575805144384503, -2784293.011143201962113 ], [ -7781881.443253813311458, -2164352.77038084436208 ], [ -7858014.455277260392904, -1674926.264515824383125 ], [ -7858014.455277260392904, -1163747.469501248328015 ], [ -7673119.997506030835211, -706949.397360563511029 ], [ -7575234.69633302744478, -652568.674486672738567 ] ] ] ] } }
]
}
