{
"type": "FeatureCollection",
"name": "map054",
"crs": { "type": "name", "properties": { "name": "urn:ogc:def:crs:ESRI::102016" } },
"features": [
{ "type": "Feature", "properties": { "id": 1 }, "geometry": { "type": "MultiPolygon", "coordinates": [ [ [ [ -738910.447035739198327, 1465874.31531766988337 ], [ -179635.162446042522788, 1737038.089664189144969 ], [ 633856.160593515262008, 1669247.146077559329569 ], [ 1023654.086216637864709, 1398083.371731040067971 ], [ 1430399.747736416757107, 940494.502521288581192 ], [ 1820197.673359537497163, 262585.066654989961535 ], [ 1769354.465669564902782, -805122.29483442986384 ], [ 1464295.219529731199145, -1567770.410184015985578 ], [ 1125340.50159658305347, -1974516.071703794877976 ], [ 684699.368283487856388, -2601582.299880120437592 ], [ -213530.634239356964827, -3245596.26395310414955 ], [ -806701.390622368082404, -3584550.981886253226548 ], [ -1450715.354695351794362, -3635394.189576225820929 ], [ -2094729.31876833550632, -3330334.943436392117292 ], [ -2433684.036701485514641, -2432104.940913546364754 ], [ -2433684.036701485514641, -1364397.579424126539379 ], [ -2382840.82901151292026, -550906.256384567823261 ], [ -2060833.846975021064281, 262585.066654989961535 ], [ -1416819.882902037352324, 1025233.182004576083273 ], [ -738910.447035739198327, 1465874.31531766988337 ] ] ] ] } },
{ "type": "Feature", "properties": { "id": 2 }, "geometry": { "type": "MultiPolygon", "coordinates": [ [ [ [ -753803.009335085982457, 1456194.149823094485328 ], [ -1412649.965458219870925, 1027943.62834305758588 ], [ -1912500.85265552951023, 438242.559928071917966 ], [ -2336563.65298150293529, -433995.495887700119056 ], [ -2424253.973537197336555, -1213516.568795518018305 ], [ -2433684.036701485514641, -1449136.25890741404146 ], [ -3043802.528981152921915, -2296523.053740286268294 ], [ -3755607.43664076551795, -2957484.753709928132594 ], [ -4297934.985333804041147, -3025275.697296557016671 ], [ -5382590.082719882018864, -2804955.130640010349452 ], [ -5907969.895516263321042, -2635477.771673436276615 ], [ -6348611.028829357586801, -2313470.789636944420636 ], [ -6857043.10572908166796, -1245763.428147523663938 ], [ -7077363.672385628335178, -347533.425624678842723 ], [ -6992624.992902341298759, 550696.576898166909814 ], [ -6670618.01086584944278, 1482822.05121432710439 ], [ -6314715.557036043144763, 2228522.430667255539447 ], [ -6043551.782689522951841, 2567477.148600404616445 ], [ -5365642.346823224797845, 3160647.904983415734023 ], [ -4179300.83405720256269, 3669079.981883139815181 ], [ -3281070.831534357741475, 4024982.435712946113199 ], [ -2331997.62132154032588, 4177512.058782863430679 ], [ -1450715.354695351794362, 4177512.058782863430679 ], [ -416903.464999245479703, 3940243.75622965907678 ], [ -247426.106032671406865, 3347072.999846647959203 ], [ -416903.464999245479703, 2364104.317840515170246 ], [ -753803.009335085982457, 1456194.149823094485328 ] ] ] ] } },
{ "type": "Feature", "properties": { "id": 3 }, "geometry": { "type": "MultiPolygon", "coordinates": [ [ [ [ -6308243.711891321465373, -2342969.982783970888704 ], [ -6484192.9160026172176, -3177805.320366474799812 ], [ -6907886.31341905426234, -4431937.776719125919044 ], [ -7179050.087765573523939, -4991213.061308822594583 ], [ -7467161.598008750006557, -5075951.740792109631002 ], [ -7789168.580045241862535, -4482780.984409098513424 ], [ -8026436.882598446682096, -3974348.907509374432266 ], [ -8314548.392841623164713, -3313387.207539734430611 ], [ -8687398.58256808668375, -2466000.412706862203777 ], [ -9043301.036397892981768, -1754195.505047247745097 ], [ -9094144.244087867438793, -1161024.748664236627519 ], [ -9280569.338951097801328, -262794.746141391806304 ], [ -9263621.603054441511631, 838808.087141343392432 ], [ -8653503.110774772241712, 1855672.240940791554749 ], [ -8060332.354391761124134, 2872536.394740238785744 ], [ -7348527.446732147596776, 3313177.528053333051503 ], [ -6484192.9160026172176, 3058961.489603471010923 ], [ -6056779.283877158537507, 2550942.772115860600024 ], [ -6455309.753142978996038, 1933944.115014626644552 ], [ -6698387.071336804889143, 1402437.928798402659595 ], [ -6926055.327389776706696, 743398.240224012290128 ], [ -7061067.77248499635607, -174796.886677977396175 ], [ -6864885.27499220892787, -1213791.50730554247275 ], [ -6599851.032325092703104, -1785866.782295899698511 ], [ -6308243.711891321465373, -2342969.982783970888704 ] ] ] ] } },
{ "type": "Feature", "properties": { "id": 4 }, "geometry": { "type": "MultiPolygon", "coordinates": [ [ [ [ -7175421.1301906760782, -4983728.336310596205294 ], [ -6920597.115341546013951, -5194585.892068713903427 ], [ -6734172.020478315651417, -5719965.704865095205605 ], [ -6496903.717925110831857, -6482613.82021468039602 ], [ -6310478.623061878606677, -7397791.558634183369577 ], [ -6581642.397408397868276, -8940035.525230012834072 ], [ -7191760.889688067138195, -9956899.679029460996389 ], [ -8242520.515280827879906, -10583965.907205786556005 ], [ -9886450.897256601601839, -10465331.755929185077548 ], [ -11377851.656162459403276, -9923004.207236144691706 ], [ -13140416.189414834603667, -8855296.845746723935008 ], [ -14242019.022697569802403, -7567268.917600756511092 ], [ -15140249.025220416486263, -6092815.894591558724642 ], [ -15428360.535463592037559, -3957401.171612717676908 ], [ -14801294.307287266477942, -2669373.243466750252992 ], [ -13818325.625281132757664, -1635561.353770645800978 ], [ -12598088.64072179608047, -1177972.484560893848538 ], [ -11310060.712575830519199, -991547.38969766208902 ], [ -10174562.407499779015779, -1110181.540974264033139 ], [ -9069144.960241924971342, -1452683.060200210195035 ], [ -9028895.460885735228658, -1783006.656071565113962 ], [ -8839080.818843171000481, -2162635.940156692173332 ], [ -8553015.077524248510599, -2771417.469624674413353 ], [ -8283628.138220221735537, -3384321.909318243619055 ], [ -7871541.380338575690985, -4306267.840923381969333 ], [ -7467161.598008750006557, -5075951.740792109631002 ], [ -7175421.1301906760782, -4983728.336310596205294 ] ] ] ] } },
{ "type": "Feature", "properties": { "id": 5 }, "geometry": { "type": "MultiPolygon", "coordinates": [ [ [ [ -744646.603800761862658, -3549091.10370247811079 ], [ -255508.872383385896683, -3269583.8286068351008 ], [ 295670.526372581603937, -2880508.639363411813974 ], [ 670337.825802520150319, -2611879.254866474773735 ], [ 973647.906069727381691, -2190386.303799704182893 ], [ 1401783.078927305527031, -1642784.978906926931813 ], [ 2193047.863086001947522, -2381261.733223575167358 ], [ 2786218.6194690130651, -3228648.528056448325515 ], [ 2854009.563055643811822, -4109930.794682636391371 ], [ 2684532.204089069738984, -4686153.815168989822268 ], [ 2362525.222052577883005, -5126794.948482084088027 ], [ 2226943.334879318252206, -5431854.194621918722987 ], [ 1735458.993876250460744, -5736913.440761752426624 ], [ 1243974.652873184531927, -5889443.063831669278443 ], [ 684699.368283487856388, -5889443.063831669278443 ], [ -162687.426549384370446, -6041972.686901587061584 ], [ -637224.031655794009566, -6008077.215108271688223 ], [ -1077865.164968887344003, -5906390.799728327430785 ], [ -1315133.467522092163563, -5567436.081795178353786 ], [ -1399872.147005379199982, -5008160.797205481678247 ], [ -1043969.693175572901964, -4092983.058785978704691 ], [ -744646.603800761862658, -3549091.10370247811079 ] ] ] ] } },
{ "type": "Feature", "properties": { "id": 6 }, "geometry": { "type": "MultiPolygon", "coordinates": [ [ [ [ 5472434.759089220315218, 8295811.881670625880361 ], [ 3404810.97969701141119, 7245052.25607786513865 ], [ 828755.123405076563358, 6295979.045865047723055 ], [ -764332.05088072270155, 6126501.686898473650217 ], [ -4425043.004558734595776, 6397665.461244992911816 ], [ -5916443.763464592397213, 7109470.368904605507851 ], [ -6967203.389057355001569, 8329707.353463944047689 ], [ -7340053.578783819451928, 9787212.640576485544443 ], [ -7001098.860850669443607, 10668494.907202672213316 ], [ -6255398.481397740542889, 11481986.230242231860757 ], [ -5543593.573738127946854, 12227686.60969515889883 ], [ -3984401.871245641261339, 12702223.214801568537951 ], [ -2865851.302066247910261, 12600536.79942162334919 ], [ -1577823.37392028234899, 12431059.440455049276352 ], [ -425377.332947574555874, 11922627.363555325195193 ], [ 150845.687538780272007, 11414195.286655601114035 ], [ -18631.671427793800831, 11820940.948175380006433 ], [ -323690.917567629367113, 12464954.91224836371839 ], [ -933809.409847296774387, 13651296.425014385953546 ], [ -1306659.599573763087392, 14837637.937780408188701 ], [ -933809.409847296774387, 15685024.732613280415535 ], [ -493168.276534203439951, 15786711.147993225604296 ], [ 354218.518298666924238, 15685024.732613280415535 ], [ 1506664.55927137658, 15447756.43006007745862 ], [ 2421842.297690879553556, 14837637.937780408188701 ], [ 4319988.718116514384747, 13786878.312187645584345 ], [ 6523194.384681984782219, 12702223.214801566675305 ], [ 7201103.820548284798861, 12092104.722521897405386 ], [ 8963668.353800658136606, 10770181.322582615539432 ], [ 10556755.528086461126804, 9143198.676503498107195 ], [ 11675306.097265854477882, 7821275.276564217172563 ], [ 12929438.553618505597115, 6397665.46124499104917 ], [ 13268393.27155165374279, 5007951.117719078436494 ], [ 11776992.512645795941353, 4940160.174132449552417 ], [ 10726232.887053035199642, 5482487.722825488075614 ], [ 9709368.733253587037325, 6228188.102278415113688 ], [ 8692504.579454138875008, 6533247.34841825067997 ], [ 7540058.538481432944536, 6939993.009938029572368 ], [ 6557089.856475301086903, 7550111.502217697910964 ], [ 5472434.759089220315218, 8295811.881670625880361 ] ] ] ] } },
{ "type": "Feature", "properties": { "id": 7 }, "geometry": { "type": "MultiPolygon", "coordinates": [ [ [ [ -1033924.827236824668944, -5916530.877666495740414 ], [ -623975.547756883548573, -6009023.535386765375733 ], [ -53029.468597359606065, -6022234.254470222629607 ], [ 421388.942302874231245, -5936838.940508180297911 ], [ 1277824.170935759320855, -5878938.040984663181007 ], [ 1817935.550671184901148, -5685721.095164896920323 ], [ 2238125.346192575991154, -5406694.669167088344693 ], [ 2981117.582280572503805, -5465749.666415235027671 ], [ 3947138.528390048071742, -5584383.817691837437451 ], [ 4658943.436049662530422, -5719965.70486509706825 ], [ 5235166.456536015495658, -5855547.592038356699049 ], [ 5252114.192432673648, -6262293.253558135591447 ], [ 5167375.512949386611581, -6482613.820214683189988 ], [ 4726734.379636291414499, -6685986.650974572636187 ], [ 4031877.207873335108161, -6923254.953527776524425 ], [ 3082803.997660517692566, -7194418.727874296717346 ], [ 2082887.57975772768259, -7346948.350944213569164 ], [ 1760880.597721235826612, -7414739.294530842453241 ], [ 981284.746474992483854, -7414739.294530842453241 ], [ -188109.030394371598959, -7482530.238117473199964 ], [ -1306659.599573764950037, -7363896.086840871721506 ], [ -1967621.299543404951692, -6923254.953527776524425 ], [ -2052359.979026692919433, -6652091.179181257262826 ], [ -1781196.204680172726512, -6313136.461248108185828 ], [ -1033924.827236824668944, -5916530.877666495740414 ] ] ] ] } },
{ "type": "Feature", "properties": { "id": 8 }, "geometry": { "type": "MultiPolygon", "coordinates": [ [ [ [ -1959799.267591101117432, -6928469.641495979391038 ], [ -1525676.49423826043494, -7217884.823731207288802 ], [ -817087.409476631088182, -7415820.410032991319895 ], [ 187409.088449590548407, -7460761.071807677857578 ], [ 1235500.784924855455756, -7414739.294530842453241 ], [ 1710037.390031263232231, -7414739.294530842453241 ], [ 2159242.791905274614692, -7335300.945701367221773 ], [ 2133730.787447700276971, -8211282.88167374394834 ], [ 1845619.27720452286303, -8990878.732919987291098 ], [ 1303291.728511484339833, -9584049.489302998408675 ], [ 472852.669575268402696, -9855213.263649517670274 ], [ -1035495.825227245688438, -10075533.830306064337492 ], [ -2052359.979026692919433, -10041638.358512749895453 ], [ -2577739.791823074221611, -9431519.866233080625534 ], [ -2899746.773859565146267, -8634976.27909018099308 ], [ -2747217.150789648294449, -8024857.786810511723161 ], [ -2374366.96106318384409, -7482530.238117473199964 ], [ -1959799.267591101117432, -6928469.641495979391038 ] ] ] ] } },
{ "type": "Feature", "properties": { "id": 9 }, "geometry": { "type": "MultiPolygon", "coordinates": [ [ [ [ 5213981.786665195599198, -6652091.179181257262826 ], [ 5227544.343355690129101, -6326174.861158294603229 ], [ 5824100.278944864869118, -5923338.535624986514449 ], [ 6705382.545571051537991, -5601331.55358849465847 ], [ 7196866.886574119329453, -5550488.345898522995412 ], [ 8349312.927546825259924, -6041972.686901588924229 ], [ 9298386.137759644538164, -6855464.009941146709025 ], [ 9620393.119796136394143, -7702850.804774019867182 ], [ 9620393.119796136394143, -8618028.543193522840738 ], [ 9213647.4582763556391, -9295937.979059820994735 ], [ 8417103.871133456006646, -9651840.432889627292752 ], [ 7671403.491680527105927, -9719631.376476258039474 ], [ 7315501.03785072080791, -10160272.509789351373911 ], [ 6671487.073777737095952, -10126377.037996036931872 ], [ 6163054.996878013014793, -9804370.055959545075893 ], [ 5756309.335358234122396, -9380676.658543108031154 ], [ 5264824.994355168193579, -8685819.486780153587461 ], [ 5180086.31487188115716, -8380760.240640318021178 ], [ 5044504.427698621526361, -7804537.220153965055943 ], [ 5044504.427698621526361, -7160523.256080981343985 ], [ 5078399.899491935968399, -6753777.594561202451587 ], [ 5213981.786665195599198, -6652091.179181257262826 ] ] ] ] } },
{ "type": "Feature", "properties": { "id": 10 }, "geometry": { "type": "MultiPolygon", "coordinates": [ [ [ [ 3892058.386725913733244, -11261875.343072086572647 ], [ 4620811.030282184481621, -10855129.681552307680249 ], [ 5400406.881528427824378, -10567018.171309130266309 ], [ 5976629.902014780789614, -10397540.812342554330826 ], [ 6705382.545571051537991, -10346697.604652583599091 ], [ 7298553.301954062655568, -10346697.604652583599091 ], [ 7654455.755783870816231, -10668704.58668907545507 ], [ 7146023.678884146735072, -11753359.684075152501464 ], [ 6078316.317394725978374, -12312634.968664849177003 ], [ 5027556.691801963374019, -12600746.478908024728298 ], [ 4281856.3123490344733, -12804119.30966791510582 ], [ 3434469.517516162246466, -12922753.460944516584277 ], [ 3027723.855996383354068, -12770223.837874600663781 ], [ 2536239.514993316493928, -12566851.00711471028626 ], [ 2434553.09961337223649, -12160105.345594931393862 ], [ 2841298.761133151128888, -11787255.155868466943502 ], [ 3892058.386725913733244, -11261875.343072086572647 ] ] ] ] } },
{ "type": "Feature", "properties": { "id": 11 }, "geometry": { "type": "MultiPolygon", "coordinates": [ [ [ [ 1328611.600727035198361, -9556355.879067240282893 ], [ 1735417.547656849725172, -9111411.87461275421083 ], [ 2096084.616098877973855, -8313148.992382321506739 ], [ 2141617.848698433488607, -7940472.205270822159946 ], [ 2149551.589395789895207, -7668058.740184992551804 ], [ 2192156.941259318962693, -7330280.143257530406117 ], [ 2839211.220671427901834, -7231576.948092970997095 ], [ 3508655.833139266353101, -7072746.774880368262529 ], [ 4220584.423273533582687, -6858818.343391123227775 ], [ 4842537.018939916975796, -6632539.278988284058869 ], [ 5222518.128171741962433, -6446957.806713941507041 ], [ 5061335.282658060081303, -6958552.996567711234093 ], [ 5044504.427698621526361, -7482530.238117472268641 ], [ 5147191.03732820507139, -8240955.311079694889486 ], [ 5433200.280091349035501, -8923867.304545098915696 ], [ 5912776.02613436896354, -9543662.794768247753382 ], [ 6286030.241488969884813, -9882254.377546483650804 ], [ 6690167.036824053153396, -10127360.193945843726397 ], [ 6844054.351443701423705, -10135459.526294246315956 ], [ 6652432.272761527448893, -10350391.8097323179245 ], [ 5538957.321167662739754, -10526268.042003473266959 ], [ 4901854.524265757761896, -10751265.78160185739398 ], [ 4158015.537054696120322, -11113434.142888579517603 ], [ 3634452.801096720155329, -11390678.135886682197452 ], [ 3234486.233935603871942, -11590661.419467240571976 ], [ 2570134.98678663186729, -11516091.381521947681904 ], [ 2112546.117576880380511, -11431352.702038660645485 ], [ 1739695.927850415930152, -10838181.945655649527907 ], [ 1316002.530433979816735, -10143324.773892693221569 ], [ 1328611.600727035198361, -9556355.879067240282893 ] ] ] ] } },
{ "type": "Feature", "properties": { "id": 12 }, "geometry": { "type": "MultiPolygon", "coordinates": [ [ [ [ 7291129.170254777185619, -5590688.437468214891851 ], [ 6796162.594438676722348, -5591940.514050465077162 ], [ 6139521.69704891834408, -5808088.40208696667105 ], [ 5671878.8385792626068, -6026129.107382025569677 ], [ 5266756.140651514753699, -6299696.310870120301843 ], [ 5171640.230097153224051, -5840600.24464097712189 ], [ 4442247.904806460253894, -5678690.365580677986145 ], [ 3705120.6973642911762, -5554662.329671130515635 ], [ 3079169.587044112849981, -5477791.140684441663325 ], [ 2574053.66126252617687, -5433395.144297868944705 ], [ 2127908.185479772742838, -5493324.287352670915425 ], [ 2399399.213486360851675, -5076335.802309539169073 ], [ 2655886.934954192489386, -4725352.604511452838778 ], [ 2758543.614433946553618, -4434515.019996407441795 ], [ 2854009.563055643811822, -4109930.794682636391371 ], [ 3248044.422652930021286, -3889610.228026090655476 ], [ 3519208.196999449282885, -3787923.812646145932376 ], [ 4315751.784142350777984, -3601498.717782913707197 ], [ 5146190.843078564852476, -3669289.661369543522596 ], [ 6146107.260981356725097, -3974348.907509378157556 ], [ 6518957.450707819312811, -4143826.266475952230394 ], [ 6976546.319917570799589, -4499728.720305759459734 ], [ 7179919.150677461177111, -4991213.061308825388551 ], [ 7291129.170254777185619, -5590688.437468214891851 ] ] ] ] } },
{ "type": "Feature", "properties": { "id": 13 }, "geometry": { "type": "MultiPolygon", "coordinates": [ [ [ [ 8196783.304476909339428, -25526.443588187918067 ], [ 7840880.850647101178765, 59212.235895099118352 ], [ 7383291.981437351554632, 143950.915378386154771 ], [ 6959598.584020914509892, 516801.10510485060513 ], [ 6840964.43274431116879, 1364187.899937723763287 ], [ 7264657.83016074821353, 2279365.638357226736844 ], [ 7298553.301954062655568, 2804745.451153608039021 ], [ 6874859.904537627473474, 3262334.3203633595258 ], [ 6095264.053291384130716, 3516550.358813221566379 ], [ 5349563.673838455229998, 3804661.869056398048997 ], [ 4756392.91745544411242, 3889400.548539685551077 ], [ 4281856.3123490344733, 3838557.340849712956697 ], [ 3756476.499552654102445, 3787714.133159740827978 ], [ 3400574.045722847804427, 3838557.340849712956697 ], [ 2858246.497029808349907, 4194459.794679519720376 ], [ 2570134.98678663186729, 4499519.040819354355335 ], [ 2485396.307303344830871, 5041846.589512392878532 ], [ 3010776.120099725201726, 5584174.13820543140173 ], [ 3637842.348276052623987, 6143449.422795128077269 ], [ 4315751.784142350777984, 6601038.292004879564047 ], [ 5112295.371285250410438, 6787463.386868111789227 ], [ 6112211.789188040420413, 6889149.802248056046665 ], [ 6773173.489157682284713, 6889149.802248056046665 ], [ 7281605.566057406365871, 6855254.330454740673304 ], [ 7850110.848350819200277, 6830562.782925304956734 ], [ 8857745.004446549341083, 6160397.158691785298288 ], [ 9552602.176209505647421, 5126585.268995679914951 ], [ 9993243.309522598981857, 3906348.284436342772096 ], [ 10332198.027455748990178, 2787797.715256950818002 ], [ 10366093.499249063432217, 2075992.807597337290645 ], [ 10094929.724902544170618, 1126919.597384518943727 ], [ 9603445.383899478241801, 499853.369208193384111 ], [ 8908588.212136521935463, 194794.123068358749151 ], [ 8196783.304476909339428, -25526.443588187918067 ] ] ] ] } },
{ "type": "Feature", "properties": { "id": 14 }, "geometry": { "type": "MultiPolygon", "coordinates": [ [ [ [ 6400207.219048363156617, -4089848.888448926620185 ], [ 5817094.027022277005017, -3873971.988674405030906 ], [ 5345122.966167240403593, -3729980.817566088866442 ], [ 4740763.416705070994794, -3636193.544930891133845 ], [ 4232678.783423154614866, -3620941.33497251290828 ], [ 4048413.979358766693622, -3664067.140179071575403 ], [ 3522968.70320484507829, -3787043.694172542542219 ], [ 4061535.745692487806082, -2788007.394743354991078 ], [ 4942818.0123186763376, -1838934.184530537575483 ], [ 5535988.768701687455177, -1110181.540974266827106 ], [ 6213898.204567985609174, -550906.256384570151567 ], [ 6891807.64043428376317, -127212.85896813403815 ], [ 7247710.094264090061188, 8369.028205125592649 ], [ 7745600.409710854291916, 76856.76199440403434 ], [ 8140266.605800072662532, -12070.086760369709737 ], [ 9433968.024932904168963, -618697.199971199966967 ], [ 10010191.045419257134199, -1313554.371734156273305 ], [ 10128825.196695858612657, -1940620.599910481832922 ], [ 9484811.232622874900699, -2771059.658846697770059 ], [ 8213731.040373565629125, -3415073.622919681482017 ], [ 7518873.868610611185431, -3770976.076749487780035 ], [ 6400207.219048363156617, -4089848.888448926620185 ] ] ] ] } },
{ "type": "Feature", "properties": { "id": 15 }, "geometry": { "type": "MultiPolygon", "coordinates": [ [ [ [ 665511.724617051309906, 1647225.884148142999038 ], [ 671988.566360996104777, 2347156.581943856552243 ], [ 1163472.907364062033594, 3279282.056260016746819 ], [ 1875277.815023675560951, 4109721.115196232683957 ], [ 2231180.268853482790291, 4431728.097232723608613 ], [ 2767536.021537258755416, 4290506.180495160631835 ], [ 3137369.344616533257067, 4011285.425950731616467 ], [ 3630724.299199456349015, 3805678.733210197649896 ], [ 3981252.398841827176511, 3809466.639542563818395 ], [ 4575674.059016433544457, 3870037.813706934452057 ], [ 4953325.608574604615569, 3861267.30695123411715 ], [ 5306855.379378878511488, 3810763.05397919472307 ], [ 6112211.789188040420413, 3719923.189573111012578 ], [ 6712679.990160470828414, 3315219.075051562860608 ], [ 7143658.005261939950287, 2972032.371581101324409 ], [ 7289982.840692332945764, 2671903.301596802193671 ], [ 7152781.714209217578173, 2037713.227901921141893 ], [ 6866330.995933321304619, 1418979.676425985060632 ], [ 6890810.323688698001206, 1008145.821763534098864 ], [ 6989398.480322521179914, 490577.196359436493367 ], [ 7359222.834424515254796, 165131.764749682275578 ], [ 7687032.322382738813758, 68800.377989674278069 ], [ 7127196.590095978230238, -37540.878144631453324 ], [ 6692243.289651172235608, -251940.578207578975707 ], [ 6170536.202720085158944, -586679.907909088069573 ], [ 5690276.821788401342928, -982893.89717772800941 ], [ 5116678.406430938281119, -1625334.271764044417068 ], [ 4494933.463115504011512, -2321271.391364722978324 ], [ 4011429.150401594582945, -2880954.611314927227795 ], [ 3599546.28411472029984, -3769121.281619167886674 ], [ 3170577.1623145933263, -3932925.255312042310834 ], [ 2848409.793631190434098, -4128970.010725777130574 ], [ 2833497.817992483265698, -3843278.108861551620066 ], [ 2795913.721327542327344, -3354684.852217327337712 ], [ 2429320.912692255806178, -2718794.66123250965029 ], [ 1878892.958829932380468, -2088065.19687784742564 ], [ 1435470.176918612793088, -1602360.461317358072847 ], [ 1609811.986366547876969, -1203978.493091973476112 ], [ 1761757.204750373028219, -824115.447132409433834 ], [ 1790452.863129148026928, -362055.948183184897061 ], [ 1817753.288374442607164, 211252.98196799622383 ], [ 1553024.059942188439891, 727234.829119946109131 ], [ 1121834.073480034479871, 1287630.886059718905017 ], [ 665511.724617051309906, 1647225.884148142999038 ] ] ] ] } }
]
}
