{
"type": "FeatureCollection",
"name": "map023",
"crs": { "type": "name", "properties": { "name": "urn:ogc:def:crs:ESRI::102016" } },
"features": [
{ "type": "Feature", "properties": { "id": 1 }, "geometry": { "type": "MultiPolygon", "coordinates": [ [ [ [ -7956517.359519381076097, -2931250.011506319511682 ], [ -7582855.419627133756876, -3729527.792185212019831 ], [ -7362055.182418078184128, -4307005.335655050352216 ], [ -6852516.173474103212357, -5988484.065170163288713 ], [ -6444884.966318923979998, -7330270.122055960819125 ], [ -5663591.819271497428417, -8502209.842627102509141 ], [ -5748514.987428827211261, -9538272.494146514683962 ], [ -6393931.065424526110291, -10217657.839405147358775 ], [ -7905563.458624983206391, -10438458.076614202931523 ], [ -10215473.63250433281064, -9962888.33493315987289 ], [ -12185691.13375436514616, -8756979.347099088132381 ], [ -13969077.665058273822069, -7737901.329211140051484 ], [ -14835293.980263030156493, -6447069.173219740390778 ], [ -15344832.989207003265619, -5411006.521700326353312 ], [ -15684525.661836318671703, -4408913.137443844228983 ], [ -15378802.256469935178757, -3169034.882346841040999 ], [ -14614493.743053974583745, -2574572.705245538149029 ], [ -13323661.587062573060393, -2319803.200773550663143 ], [ -12287598.935543160885572, -1606448.588251987472177 ], [ -11523290.422127198427916, -1011986.411150684114546 ], [ -10266427.533398728817701, -910078.609361889772117 ], [ -9519103.653614234179258, -1164848.11383387632668 ], [ -8686856.605672409757972, -1827248.825461042579263 ], [ -7956517.359519381076097, -2931250.011506319511682 ] ] ] ] } },
{ "type": "Feature", "properties": { "id": 2 }, "geometry": { "type": "MultiPolygon", "coordinates": [ [ [ [ -5935345.957374947145581, -3882389.494868407025933 ], [ -6903470.074368497356772, -2353772.468036483973265 ], [ -7277132.014260744675994, -1589463.954620523378253 ], [ -7837624.924099115654826, -961032.510256288573146 ], [ -8296210.032148692756891, -162754.729577396064997 ], [ -9111472.446459051221609, 907277.189204949885607 ], [ -9451165.119088366627693, 1518723.999937717802823 ], [ -8856702.941987063735723, 2283032.513353679329157 ], [ -6767593.005316771566868, 3421002.966661887709051 ], [ -4559590.633226215839386, 3981495.876500259153545 ], [ -2368572.894767127931118, 4134357.57918345136568 ], [ -483278.561674425378442, 3522910.768450682517141 ], [ -958848.30335546657443, 1739524.237146773841232 ], [ -1723156.816771429032087, 24076.240368727594614 ], [ -2351588.261135661974549, -1589463.954620523378253 ], [ -2827158.002816705033183, -2880296.110611924901605 ], [ -4084020.891545174643397, -3491742.921344691887498 ], [ -5935345.957374947145581, -3882389.494868407025933 ] ] ] ] } },
{ "type": "Feature", "properties": { "id": 3 }, "geometry": { "type": "MultiPolygon", "coordinates": [ [ [ [ 1886077.829915054142475, -4867498.245493423193693 ], [ 2106878.067124109715223, -4612728.741021435707808 ], [ 2650386.343331014737487, -4103189.732077460736036 ], [ 3091986.817749125882983, -4035251.197551598772407 ], [ 4314880.43921466358006, -4171128.266603324562311 ], [ 5554758.694311667233706, -4205097.533866256475449 ], [ 5758574.297889256849885, -4986390.680913683027029 ], [ 5503804.793417269363999, -5954514.79790723323822 ], [ 5198081.388050884008408, -6260238.203273618593812 ], [ 3873279.964796552434564, -6039437.966064563021064 ], [ 2939125.11506593413651, -5869591.629749905318022 ], [ 1750200.760863326489925, -5648791.392540849745274 ], [ 1631308.32544306665659, -5241160.185385670512915 ], [ 1886077.829915054142475, -4867498.245493423193693 ] ] ] ] } },
{ "type": "Feature", "properties": { "id": 4 }, "geometry": { "type": "MultiPolygon", "coordinates": [ [ [ [ 2058683.091489645419642, -4668338.328291971236467 ], [ 1805945.813698900863528, -4985025.202610448002815 ], [ 1053830.781973229721189, -5190206.284491272643209 ], [ 561276.406660721637309, -5122267.749965408816934 ], [ 102691.298611144535244, -4697651.909178765490651 ], [ 34752.764085281640291, -4120174.365708926692605 ], [ 374445.436714597977698, -3712543.158553747460246 ], [ 866999.812027106061578, -3593650.72313348762691 ], [ 1512415.890022806823254, -3848420.227605475112796 ], [ 1954016.364440916106105, -4205097.533866256475449 ], [ 2058683.091489645419642, -4668338.328291971236467 ] ] ] ] } },
{ "type": "Feature", "properties": { "id": 5 }, "geometry": { "type": "MultiPolygon", "coordinates": [ [ [ [ 6845590.850303066894412, 6308390.68401107378304 ], [ 7847684.234559549018741, 6953806.762006773613393 ], [ 9053593.222393620759249, 6546175.554851594381034 ], [ 10021717.33938717097044, 4983589.260756741277874 ], [ 10446333.180173818022013, 4015465.14376319013536 ], [ 10429348.546542350202799, 2809556.155929118394852 ], [ 10106640.507544502615929, 1739524.237146772444248 ], [ 9597101.498600527644157, 788384.753784688189626 ], [ 9155501.024182416498661, 788384.753784688189626 ], [ 8985654.687867758795619, 1518723.999937718734145 ], [ 8917716.153341894969344, 2401924.948773939162493 ], [ 8323253.976240592077374, 3217187.363084297627211 ], [ 7762761.066402221098542, 3930541.975605862215161 ], [ 7236237.423826780170202, 4389127.083655438385904 ], [ 6896544.751197464764118, 5221374.131597261875868 ], [ 6845590.850303066894412, 6308390.68401107378304 ] ] ] ] } },
{ "type": "Feature", "properties": { "id": 6 }, "geometry": { "type": "MultiPolygon", "coordinates": [ [ [ [ 7452791.502627968788147, 8244638.917998174205422 ], [ 7045160.295472789555788, 8278608.18526110611856 ], [ 5652420.337692594155669, 8040823.314420584589243 ], [ 4990019.626065427437425, 8669254.75878481939435 ], [ 4871127.190645167604089, 9807225.212093029171228 ], [ 4837157.923382235690951, 11064088.100821496918797 ], [ 5278758.397800346836448, 12405874.157707296311855 ], [ 5958143.743058979511261, 13068274.869334461167455 ], [ 7248975.899050379171968, 13441936.809226710349321 ], [ 8064238.313360737636685, 13153198.037491790950298 ], [ 8794577.559513768181205, 12830489.998493939638138 ], [ 9677778.508349988609552, 12202058.554129704833031 ], [ 10577964.090817676857114, 10826303.229980975389481 ], [ 11868796.246809078380466, 9246732.302254656329751 ], [ 12480243.057541847229004, 7752084.542685666121542 ], [ 12938828.165591422468424, 6444267.753062799572945 ], [ 12684058.661119434982538, 5629005.338752441108227 ], [ 12004673.31586080417037, 5357251.200648987665772 ], [ 10696856.52623793669045, 5595036.071489509195089 ], [ 9762701.676507318392396, 6240452.149485209956765 ], [ 9236178.033931879326701, 6800945.059323580935597 ], [ 8539808.055041780695319, 7531284.305476611480117 ], [ 7452791.502627968788147, 8244638.917998174205422 ] ] ] ] } },
{ "type": "Feature", "properties": { "id": 7 }, "geometry": { "type": "MultiPolygon", "coordinates": [ [ [ [ 4947558.041986764408648, -6574453.925455737859011 ], [ 5949651.426243246532977, -6336669.054615217261016 ], [ 6696975.306027742102742, -6557469.291824272833765 ], [ 6968729.444131195545197, -6999069.766242383047938 ], [ 7223498.948603181168437, -7729409.012395413592458 ], [ 7274452.849497579038143, -8765471.663914825767279 ], [ 7087621.879551455378532, -10022334.552643295377493 ], [ 6985714.077762661501765, -10888550.867848053574562 ], [ 6272359.465241096913815, -11924613.519367467612028 ], [ 5185342.912827285937965, -11652859.381264014169574 ], [ 4556911.468463051132858, -9971380.651748899370432 ], [ 4268172.696728131733835, -8272917.288602318614721 ], [ 4488972.933937187306583, -7083992.934399712830782 ], [ 4947558.041986764408648, -6574453.925455737859011 ] ] ] ] } },
{ "type": "Feature", "properties": { "id": 8 }, "geometry": { "type": "MultiPolygon", "coordinates": [ [ [ [ 2043185.691006111679599, -8561656.060337238013744 ], [ 2790509.570790607482195, -8357840.456759648397565 ], [ 3452910.282417773269117, -8510702.159442840144038 ], [ 3945464.657730282284319, -9190087.504701472818851 ], [ 4505957.567568653263152, -10480919.660692874342203 ], [ 4607865.369357448071241, -11635874.747632548213005 ], [ 4522942.20120011921972, -12620983.498257564380765 ], [ 4115310.994044939987361, -12841783.735466619953513 ], [ 3181156.144314320757985, -12637968.131889030337334 ], [ 2501770.799055688083172, -12128429.122945055365562 ], [ 1856354.721059987554327, -11533966.945843752473593 ], [ 1652539.117482397938147, -10769658.432427791878581 ], [ 1465708.147536274278536, -10039319.186274763196707 ], [ 1448723.513904808321968, -9342949.207384664565325 ], [ 1805400.820165590150282, -8731502.396651895716786 ], [ 2043185.691006111679599, -8561656.060337238013744 ] ] ] ] } },
{ "type": "Feature", "properties": { "id": 6 }, "geometry": { "type": "MultiPolygon", "coordinates": [ [ [ [ -2368572.894767131656408, -8052117.051393259316683 ], [ -2181741.924821007065475, -7338762.438871695660055 ], [ -1604264.381351170130074, -6727315.628138926811516 ], [ -772017.333409345708787, -6285715.15372081566602 ], [ -7708.819993384182453, -6064914.916511761024594 ], [ 773584.327054042369127, -5912053.213828568346798 ], [ 1707739.176784661598504, -5912053.213828568346798 ], [ 2489032.323832089081407, -5946022.481091500259936 ], [ 3151433.035459255799651, -6098884.183774692006409 ], [ 3440171.807194173336029, -6268730.520089350640774 ], [ 3423187.17356270737946, -6965100.498979448340833 ], [ 2981586.699144596233964, -7610516.576975149102509 ], [ 2132355.017571307718754, -8137040.219550589099526 ], [ 1079307.732420426793396, -8561656.060337234288454 ], [ -109616.621782178990543, -8952302.633860947564244 ], [ -1451402.678667977452278, -9071195.069281209260225 ], [ -2062849.489400746300817, -8612609.961231630295515 ], [ -2368572.894767131656408, -8052117.051393259316683 ] ] ] ] } },
{ "type": "Feature", "properties": { "id": 10 }, "geometry": { "type": "MultiPolygon", "coordinates": [ [ [ [ -7362055.182418067008257, -663801.421705635264516 ], [ -6886485.440737023949623, -1411125.301490131765604 ], [ -6930500.621235949918628, -2298482.713080330286175 ], [ -6818546.906211161054671, -3313404.268214302137494 ], [ -7090301.044314613565803, -4060728.147998796775937 ], [ -7334128.387843211181462, -4399163.757752113044262 ], [ -7905563.45862497203052, -4060728.147998796775937 ], [ -7901640.531733495183289, -3048486.870867075398564 ], [ -8007471.26041376683861, -2158449.181274626404047 ], [ -8041440.527676698751748, -1445094.568753063678741 ], [ -7811059.658030696213245, -990817.808575425762683 ], [ -7871417.870284523814917, -902207.752081689075567 ], [ -7362055.182418067008257, -663801.421705635264516 ] ] ] ] } },
{ "type": "Feature", "properties": { "id": 11 }, "geometry": { "type": "MultiPolygon", "coordinates": [ [ [ [ 1656785.275890273973346, -3653096.940843617543578 ], [ 1334077.236892422661185, -3194511.832794040441513 ], [ 1232169.435103628784418, -2294326.250326354056597 ], [ 1147246.266946299932897, -1156355.797018144279718 ], [ 722630.426159654743969, -324108.749076319858432 ], [ 145152.882689816877246, 1357369.98043879494071 ], [ -143585.889045101590455, 2869002.373639251105487 ], [ 179122.149952748790383, 4312696.232313844375312 ], [ 1079307.732420436106622, 5060020.112098339945078 ], [ 1928539.4139937274158, 5552574.487410848028958 ], [ 3406202.539931250736117, 5552574.487410848028958 ], [ 4459249.825082130730152, 5416697.418359121307731 ], [ 5495312.476601544767618, 5026050.84483540803194 ], [ 6327559.524543369188905, 4482542.568628503009677 ], [ 7244729.740642523393035, 3225679.679900033399463 ], [ 7550453.146008906885982, 1442293.148596123792231 ], [ 7516483.878745976835489, 389245.863445243798196 ], [ 7057898.770696399733424, -1088417.262492281384766 ], [ 6021836.119176985695958, -2464172.586641010828316 ], [ 5121650.536709297448397, -3143557.931899643503129 ], [ 3389217.906299786642194, -3771989.376263878308237 ], [ 2658878.660146756097674, -3755004.742632412351668 ], [ 1656785.275890273973346, -3653096.940843617543578 ] ] ] ] } }
]
}
