{
"type": "FeatureCollection",
"name": "map055",
"crs": { "type": "name", "properties": { "name": "urn:ogc:def:crs:ESRI::102016" } },
"features": [
{ "type": "Feature", "properties": { "id": 1 }, "geometry": { "type": "MultiPolygon", "coordinates": [ [ [ [ -8216415.357027301564813, -3216320.33108638599515 ], [ -7525961.496160512790084, -4664589.405099649913609 ], [ -7189154.734762080013752, -5708690.365434793755412 ], [ -7694364.876859730109572, -6988556.058748841285706 ], [ -8266936.371237067505717, -8049497.357153907418251 ], [ -9361558.345781976357102, -9059917.641349207609892 ], [ -10759306.40558547526598, -8975715.950999598950148 ], [ -12342298.184158112853765, -8403144.456622261554003 ], [ -13790567.258171375840902, -7443245.186636727303267 ], [ -14733626.190086990594864, -6735950.987700016237795 ], [ -15120953.9656951893121, -5978135.774553541094065 ], [ -15323038.022534249350429, -5287681.913686752319336 ], [ -14666264.837807305157185, -4327782.643701217137277 ], [ -13841088.272381141781807, -3283681.683366073295474 ], [ -12813827.650115920230746, -2391143.765660224016756 ], [ -11702365.337501090019941, -1801731.933212965261191 ], [ -11062432.490844065323472, -1549126.862164140213281 ], [ -10220415.58734798245132, -1448084.833744610194117 ], [ -9597323.07876087911427, -1599647.876373905222863 ], [ -8772146.513334717601538, -2121698.356541477143764 ], [ -8216415.357027301564813, -3216320.33108638599515 ] ] ] ] } },
{ "type": "Feature", "properties": { "id": 2 }, "geometry": { "type": "MultiPolygon", "coordinates": [ [ [ [ -7071272.368272628635168, -4108858.248792234808207 ], [ -7660684.200719887390733, -3974135.54423286113888 ], [ -8013546.51854192931205, -3641850.08986058132723 ], [ -8165894.342817537486553, -2930034.583897717297077 ], [ -8266936.371237067505717, -2189059.708821163978428 ], [ -8266936.371237067505717, -1582807.538303983397782 ], [ -8149054.004747616127133, -1060757.05813641147688 ], [ -7862768.257558947429061, -808151.98708758642897 ], [ -7458600.143880827352405, -808151.98708758642897 ], [ -7205995.072832001373172, -824992.325157508254051 ], [ -7037591.692132785916328, -2138538.694611398968846 ], [ -6869188.31143356859684, -3233160.669156308285892 ], [ -7020751.354062862694263, -3906774.191953174769878 ], [ -6936549.663713255897164, -3906774.191953174769878 ], [ -7071272.368272628635168, -4108858.248792234808207 ] ] ] ] } },
{ "type": "Feature", "properties": { "id": 3 }, "geometry": { "type": "MultiPolygon", "coordinates": [ [ [ [ -8772146.513334717601538, -1262841.114975470118225 ], [ -8940549.894033934921026, -387143.535339542664587 ], [ -8991070.908243698999286, 134906.944828028790653 ], [ -8991070.908243698999286, 808520.4676248957403 ], [ -8738465.837194874882698, 1549495.342701449524611 ], [ -8216415.357027301564813, 2290470.217778003308922 ], [ -7829087.581419104710221, 2593596.303036593832076 ], [ -7239675.748971845954657, 2728319.007595967035741 ], [ -6970230.339853098616004, 2408352.584267455153167 ], [ -6886028.64950348995626, 1936823.118309648241848 ], [ -7003911.015992941334844, 1212688.581303016282618 ], [ -7104953.044412471354008, 623276.748855757527053 ], [ -7357558.115461297333241, -16656.097801266238093 ], [ -7694364.876859730109572, -538706.577968837693334 ], [ -8233255.695097224786878, -909194.01550711505115 ], [ -8772146.513334717601538, -1262841.114975470118225 ] ] ] ] } },
{ "type": "Feature", "properties": { "id": 4 }, "geometry": { "type": "MultiPolygon", "coordinates": [ [ [ [ -7375623.430363638326526, -44657.335899894475006 ], [ -7097901.737115945667028, 664409.374752156320028 ], [ -7031475.217242995277047, 1051897.407344366656616 ], [ -6532381.550035133957863, 2021024.808659256435931 ], [ -6027171.407937483862042, 2879882.050225262064487 ], [ -5370398.223210539668798, 3452453.54460259899497 ], [ -4831507.404973044991493, 3738739.291791267693043 ], [ -3555851.796176478266716, 4176588.081609231419861 ], [ -2629633.202330786734819, 4193428.419679152779281 ], [ -1686574.270415171980858, 3738739.291791267693043 ], [ -1349767.509016739204526, 2745159.345665888860822 ], [ -1551851.565855799242854, 1667377.709190901368856 ], [ -1888658.327254232019186, 724318.777275287546217 ], [ -2057061.707953449338675, -33496.435871187597513 ], [ -2444389.483561648055911, -774471.310947741381824 ], [ -2764355.906890159472823, -1481765.509884451515973 ], [ -3101162.6682885941118, -2037496.666191867552698 ], [ -3623213.14845616556704, -2441664.779869987629354 ], [ -4279986.333183109760284, -2509026.132149673998356 ], [ -5088322.560539351776242, -2357463.08952037896961 ], [ -5879818.449825670570135, -1751210.919003198854625 ], [ -6300826.901573712006211, -1431244.495674686506391 ], [ -6974440.42437057942152, -858673.001297350041568 ], [ -7375623.430363638326526, -44657.335899894475006 ] ] ] ] } },
{ "type": "Feature", "properties": { "id": 5 }, "geometry": { "type": "MultiPolygon", "coordinates": [ [ [ [ -882448.127576412633061, -4782471.771589102223516 ], [ -74111.900220172479749, -4327782.643701217137277 ], [ 801585.679415754973888, -4580387.714750042185187 ], [ 1222594.131163796409965, -4765631.433519179932773 ], [ 1576241.230632152408361, -4967715.490358240902424 ], [ 2165653.063079411163926, -5338202.927896517328918 ], [ 2670863.205177061259747, -5489765.970525812357664 ], [ 2940308.614295808598399, -5641329.01315510738641 ], [ 3192913.685344632714987, -5994976.112623462453485 ], [ 3041350.642715338617563, -6618068.621210564859211 ], [ 2586661.514827452600002, -6836993.016119546256959 ], [ 2115132.048869645223022, -6752791.325769938528538 ], [ 1273115.145373562350869, -6651749.297350408509374 ], [ 582661.28450677357614, -6735950.987700016237795 ], [ 77451.14240912348032, -6719110.649630094878376 ], [ -747725.423017039895058, -6533866.930860956199467 ], [ -1269775.903184611350298, -6348623.212091817520559 ], [ -1572901.98844320140779, -5927614.760343776084483 ], [ -1623423.00265296548605, -5590807.998945342376828 ], [ -1421338.945813905447721, -5018236.504568005912006 ], [ -882448.127576412633061, -4782471.771589102223516 ] ] ] ] } },
{ "type": "Feature", "properties": { "id": 6 }, "geometry": { "type": "MultiPolygon", "coordinates": [ [ [ [ -812888.03679501498118, -4743344.220524566248059 ], [ -511960.690038135275245, -3452085.06406528968364 ], [ -714044.746877195313573, -3367883.373715681023896 ], [ -1387658.269674062728882, -2980555.598107482306659 ], [ -2263355.849309990182519, -2525866.470219597220421 ], [ -2448599.568079128861427, -1801731.933212965261191 ], [ -2280196.187379911541939, -1077597.396206333301961 ], [ -1842347.397561948746443, -639748.606388369575143 ], [ -1337137.255464296787977, -185059.478500484488904 ], [ -663523.732667431235313, -84017.45008095446974 ], [ 515299.932227086275816, -100857.788150876061991 ], [ 1963569.006240351125598, -151378.802360641071573 ], [ 2384577.457988392561674, -488185.563759074546397 ], [ 2788745.57166651263833, -1246000.776905550155789 ], [ 3310796.051834084093571, -2475345.456009832210839 ], [ 3361317.066043850034475, -3351043.035645759664476 ], [ 2973989.290435651317239, -4142538.924932078458369 ], [ 2468779.148338001221418, -4513026.362470354884863 ], [ 1641424.868041474372149, -5008688.062444100156426 ], [ 1256274.807303640991449, -5338202.927896517328918 ], [ 818426.017485676333308, -5472925.632455890998244 ], [ 127972.156618887558579, -5776051.717714481055737 ], [ -545641.366177977994084, -5978135.774553541094065 ], [ -1034011.170205706730485, -5877093.746134011074901 ], [ -1050851.50827562995255, -5472925.632455890998244 ], [ -812888.03679501498118, -4743344.220524566248059 ] ] ] ] } },
{ "type": "Feature", "properties": { "id": 7 }, "geometry": { "type": "MultiPolygon", "coordinates": [ [ [ [ 3563401.122882910072803, -8824152.908370302990079 ], [ 4304375.997959462925792, -8352623.442412496544421 ], [ 4843266.816196957603097, -8234741.075923045165837 ], [ 5449518.986714137718081, -8217900.737853122875094 ], [ 6308376.228280141949654, -8369463.780482418835163 ], [ 7083031.779496539384127, -8739951.21802069619298 ], [ 7706124.288083642721176, -9767211.84028591774404 ], [ 7470359.555104739964008, -11114438.885879650712013 ], [ 6729384.680028185248375, -12141699.508144874125719 ], [ 5668443.381623119115829, -13000556.749710880219936 ], [ 4674863.435497740283608, -13270002.158829625695944 ], [ 3630762.475162597373128, -13371044.187249155715108 ], [ 2805585.90973643399775, -13118439.11620033159852 ], [ 2064611.034659881144762, -12697430.664452288299799 ], [ 1879367.315890742465854, -12057497.817795265465975 ], [ 2081451.372729802504182, -10962875.84325035661459 ], [ 2502459.824477843940258, -10205060.630103882402182 ], [ 2805585.90973643399775, -9615648.797656621783972 ], [ 3563401.122882910072803, -8824152.908370302990079 ] ] ] ] } },
{ "type": "Feature", "properties": { "id": 8 }, "geometry": { "type": "MultiPolygon", "coordinates": [ [ [ [ 2131972.386939568445086, -8032657.019083985127509 ], [ 2603501.852897373959422, -8537867.161181636154652 ], [ 2738224.557456748560071, -9144119.331698816269636 ], [ 2519300.162547765299678, -9598808.459586700424552 ], [ 2131972.386939568445086, -9986136.235194899141788 ], [ 1087871.426604423671961, -10002976.573264822363853 ], [ 380577.227667713537812, -10238741.306243725121021 ], [ -579322.042317822575569, -10120858.939754273742437 ], [ -1825507.059492025524378, -9598808.459586700424552 ], [ -2515960.920358814299107, -8840993.246440224349499 ], [ -2819087.005617405287921, -8066337.695223828777671 ], [ -2701204.639127952978015, -7342203.15821719635278 ], [ -2499120.582288892939687, -6752791.325769937597215 ], [ -2162313.820890460163355, -6500186.254721112549305 ], [ -1505540.636163514107466, -6601228.283140642568469 ], [ -545641.366177977994084, -6988556.058748841285706 ], [ 801585.679415754973888, -7359043.4962871177122 ], [ 1677283.259051682427526, -7729530.933825394138694 ], [ 2131972.386939568445086, -8032657.019083985127509 ] ] ] ] } },
{ "type": "Feature", "properties": { "id": 9 }, "geometry": { "type": "MultiPolygon", "coordinates": [ [ [ [ 2284575.450447289738804, -8196160.301413686946034 ], [ 1993039.597862713970244, -7258001.467867589555681 ], [ 2169337.537539703305811, -6762470.877318163402379 ], [ 2228804.330841617658734, -6399144.226301584392786 ], [ 2700333.796799425035715, -5893934.084203934296966 ], [ 2950264.895249309949577, -5655267.806490009650588 ], [ 3306585.9673166051507, -5422404.618246126919985 ], [ 3744434.757134567946196, -5237160.899476988241076 ], [ 4064401.180463079363108, -5136118.871057458221912 ], [ 4434888.618001356720924, -5018236.504568006843328 ], [ 5007460.112378694117069, -4816152.447728946805 ], [ 5866317.353944698348641, -4698270.081239495426416 ], [ 6438888.848322035744786, -4765631.433519181795418 ], [ 6944098.990419685840607, -5085597.856847694143653 ], [ 7280905.751818120479584, -5725530.703504716977477 ], [ 7045141.018839215859771, -6887514.030329313129187 ], [ 6321006.481832584366202, -7679009.919615630060434 ], [ 5501156.0971550475806, -8227013.169107400812209 ], [ 4636972.674840416759253, -8537867.161181636154652 ], [ 3536508.884863245300949, -8852240.356968618929386 ], [ 2952938.867848249152303, -8739951.21802069619298 ], [ 2625889.596449152100831, -8638612.007164638489485 ], [ 2284575.450447289738804, -8196160.301413686946034 ] ] ] ] } },
{ "type": "Feature", "properties": { "id": 7 }, "geometry": { "type": "MultiPolygon", "coordinates": [ [ [ [ 8678653.811621619388461, -7291682.144007433205843 ], [ 9049141.249159896746278, -7392724.172426963225007 ], [ 9099662.263369660824537, -7460085.524706650525331 ], [ 9116502.601439582183957, -7813732.624175005592406 ], [ 9352267.33441848680377, -8352623.442412499338388 ], [ 9419628.686698172241449, -8672589.865741010755301 ], [ 9065981.587229818105698, -9144119.331698816269636 ], [ 8678653.811621619388461, -9059917.641349209472537 ], [ 8543931.107062246650457, -8605228.513461325317621 ], [ 8358687.388293107971549, -8504186.485041793435812 ], [ 8375527.726363029330969, -8217900.737853125669062 ], [ 8628132.797411853447556, -7813732.624175005592406 ], [ 8678653.811621619388461, -7291682.144007433205843 ] ] ] ] } },
{ "type": "Feature", "properties": { "id": 10 }, "geometry": { "type": "MultiPolygon", "coordinates": [ [ [ [ 3709824.37600717600435, -5251803.753030885010958 ], [ 3205543.938897075131536, -5119278.53298753593117 ], [ 3070821.234337700530887, -4934034.814218399114907 ], [ 3037140.558197857812047, -4479345.686330513097346 ], [ 3323426.305386526510119, -4142538.924932080321014 ], [ 3828636.44748417660594, -3586807.768624664284289 ], [ 4468569.294141199439764, -3182639.654946544207633 ], [ 5344266.873777126893401, -2795311.879338345490396 ], [ 6135762.763063445687294, -2862673.231618031859398 ], [ 6674653.581300940364599, -3148958.97880670055747 ], [ 6893577.976209921762347, -3519446.416344976983964 ], [ 6876737.638140000402927, -4310942.305631295777857 ], [ 6537046.251029350794852, -4827797.788567148149014 ], [ 5984199.72043415158987, -5068757.518777771852911 ], [ 5630552.620965795591474, -5102438.19491761457175 ], [ 4653813.012910338118672, -5439244.956316049210727 ], [ 3709824.37600717600435, -5251803.753030885010958 ] ] ] ] } },
{ "type": "Feature", "properties": { "id": 11 }, "geometry": { "type": "MultiPolygon", "coordinates": [ [ [ [ 7095662.033048981800675, -3031076.612317249178886 ], [ 5866317.353944698348641, -2340622.751450460404158 ], [ 4940098.760099006816745, -1565967.200234062969685 ], [ 4687493.689050182700157, -656588.944458292797208 ], [ 4468569.294141199439764, 892722.157974501606077 ], [ 4586451.660630652680993, 2138907.175148705486208 ], [ 4990619.774308772757649, 3031445.092854554299265 ], [ 5512670.25447634421289, 3284050.163903379812837 ], [ 6321006.481832584366202, 3048285.430924476124346 ], [ 6977779.666559530422091, 2543075.288826825562865 ], [ 7230384.737608354538679, 2340991.231987765524536 ], [ 7634552.851286474615335, 1381091.962002230342478 ], [ 8005040.288824751973152, 791680.129554971586913 ], [ 8156603.331454047933221, 235948.973247556015849 ], [ 8628132.797411853447556, -622908.268318449147046 ], [ 8661813.473551698029041, -1347042.805325081571937 ], [ 8510250.430922402068973, -2054337.004261791706085 ], [ 8240805.02180365473032, -2727950.527058659121394 ], [ 7701914.20356616191566, -3064757.288457091897726 ], [ 7095662.033048981800675, -3031076.612317249178886 ] ] ] ] } },
{ "type": "Feature", "properties": { "id": 12 }, "geometry": { "type": "MultiPolygon", "coordinates": [ [ [ [ 8022916.95539128407836, 726132.35214435250964 ], [ 7613948.202353864908218, 1430028.003217178629711 ], [ 7358133.56099053658545, 2037587.776455082464963 ], [ 7230384.737608354538679, 2340991.231987765524536 ], [ 7381947.780237650498748, 3317730.840043222531676 ], [ 7685073.86549624055624, 4513394.843007661402225 ], [ 7920838.598475143313408, 5237529.380014293827116 ], [ 8426048.740572793409228, 5810100.874391630291939 ], [ 9419628.686698172241449, 5810100.874391630291939 ], [ 10379527.956683708354831, 5271210.056154137477279 ], [ 11019460.803340731188655, 4361831.800378366373479 ], [ 11171023.845970029011369, 3385092.192322908900678 ], [ 10867897.760711437091231, 2324150.893917843699455 ], [ 10362687.618613786995411, 1498974.3284916812554 ], [ 9857477.47651613689959, 875881.819904579780996 ], [ 9385948.01055832952261, 404352.353946772404015 ], [ 9065981.587229818105698, 303310.325527242384851 ], [ 8543931.107062246650457, 252789.311317477375269 ], [ 8022916.95539128407836, 726132.35214435250964 ] ] ] ] } },
{ "type": "Feature", "properties": { "id": 13 }, "geometry": { "type": "MultiPolygon", "coordinates": [ [ [ [ 10383961.235624261200428, 1533721.236275454983115 ], [ 8998620.234950130805373, 1835781.089890114963055 ], [ 8106082.317244281992316, 2745159.345665886066854 ], [ 7364701.709784621372819, 3206589.49712370429188 ], [ 6640972.905161095783114, 3721898.953721342608333 ], [ 5074821.464658379554749, 5608016.817552568390965 ], [ 4098081.856602922081947, 7999344.823481446132064 ], [ 3424468.333806056529284, 9346571.869075180962682 ], [ 3357106.981526371091604, 11232689.73290640860796 ], [ 4266485.237302139401436, 13219849.625157166272402 ], [ 6051561.07271383702755, 13691379.091114971786737 ], [ 7533510.822866946458817, 13758740.443394659087062 ], [ 9486990.038977861404419, 12276790.69324155151844 ], [ 11777276.016487207263708, 9885462.687312673777342 ], [ 12956099.681381724774837, 8235109.556460348889232 ], [ 13798116.58487780764699, 6685798.454027555882931 ], [ 13932839.289437182247639, 4395512.476518208160996 ], [ 13461309.823479376733303, 2846201.37408541329205 ], [ 12248805.482445012778044, 2004184.470589328557253 ], [ 10383961.235624261200428, 1533721.236275454983115 ] ] ] ] } }
]
}
