{
"type": "FeatureCollection",
"name": "map001",
"crs": { "type": "name", "properties": { "name": "urn:ogc:def:crs:ESRI::102016" } },
"features": [
{ "type": "Feature", "properties": { "id": 1 }, "geometry": { "type": "MultiPolygon", "coordinates": [ [ [ [ 1107535.966611441224813, -1934383.617576359771192 ], [ 1292808.613110503181815, -2338614.846301585435867 ], [ 1595982.03465442173183, -2624945.299981953576207 ], [ 1629667.970381524413824, -3046019.496570729650557 ], [ 1646510.938245074823499, -3113391.368024934083223 ], [ 1814940.616880586370826, -3298664.014523996040225 ], [ 2202328.877742260694504, -3332349.950251097790897 ], [ 2960262.43160205706954, -3517622.596750159747899 ], [ 3364493.660327283665538, -3803953.050430526956916 ], [ 3650824.114007651805878, -4039754.600520242005587 ], [ 3516080.3710992410779, -4494514.732836120761931 ], [ 2943419.463738506659865, -5117704.54378751013428 ], [ 2320229.652787117287517, -5656679.515421142801642 ], [ 1781254.681153483688831, -5926167.001237960532308 ], [ 1360180.484564706683159, -5841952.161920204758644 ], [ 821205.512931073084474, -5757737.322602450847626 ], [ 63271.959071276709437, -5892481.065510857850313 ], [ -206215.526745541021228, -5959852.936965063214302 ], [ -610446.75547076575458, -5993538.872692164033651 ], [ -1267322.502149257808924, -5909324.033374410122633 ], [ -1806297.473782891407609, -5252448.28669591806829 ], [ -1941041.216691300272942, -4056597.568383793346584 ], [ -1823140.441646441817284, -3096548.400161382742226 ], [ -1823140.441646441817284, -3062862.464434280991554 ], [ -1452595.148648319765925, -2574416.396391300484538 ], [ -896777.20915113389492, -2220714.071256727911532 ], [ 585403.962841358035803, -1429094.581669827923179 ], [ 720147.705749766901135, -1277507.870897868648171 ], [ 1107535.966611441224813, -1934383.617576359771192 ] ] ] ] } },
{ "type": "Feature", "properties": { "id": 2 }, "geometry": { "type": "MultiPolygon", "coordinates": [ [ [ [ -485167.768842959776521, -2000877.211092134704813 ], [ -206215.526745541021228, -1210135.999443664215505 ], [ -172529.591018438339233, -603789.156355826184154 ], [ 130643.830525480210781, -47971.216858641244471 ], [ 80114.926934827119112, 912077.951363769359887 ], [ -374645.20538105070591, 1922656.023176832124591 ], [ -442017.076835256069899, 2562688.801991772372276 ], [ -627289.7233343180269, 3101663.773625406436622 ], [ -812562.369833378121257, 3421680.163032876327634 ], [ -2547388.059779137372971, 3859597.327485203742981 ], [ -3810610.649545466527343, 4028027.006120714358985 ], [ -4989618.399994040839374, 4129084.813302021007985 ], [ -7398162.804481842555106, 3556423.905941284727305 ], [ -8594013.522793967276812, 2343730.219765608664602 ], [ -8796129.137156579643488, 1366838.083679647184908 ], [ -8728757.265702376142144, 962606.854954422451556 ], [ -8728757.265702376142144, 962606.854954422451556 ], [ -8492955.715612661093473, 491003.754774992354214 ], [ -8004509.647569680586457, -132186.056176397018135 ], [ -7735022.161752863787115, -418516.509856764227152 ], [ -7297104.997300535440445, -721689.931400683708489 ], [ -7162361.254392127506435, -1075392.256535256281495 ], [ -6421270.668395880609751, -2018598.456894114613533 ], [ -5410692.596582817845047, -3248135.110933342948556 ], [ -3962197.36031742580235, -3534465.564613711088896 ], [ -3002148.192095017060637, -3248135.110933342948556 ], [ -2715817.738414648920298, -3130234.335888484492898 ], [ -485167.768842959776521, -2000877.211092134704813 ] ] ] ] } },
{ "type": "Feature", "properties": { "id": 3 }, "geometry": { "type": "MultiPolygon", "coordinates": [ [ [ [ -8411842.726032672449946, 387514.768069490033668 ], [ -8202319.254311068914831, 120191.717941925919149 ], [ -7782985.989503746852279, -367554.942871451610699 ], [ -7474023.53173927590251, -599207.8690969402669 ], [ -7316373.352536438032985, -708350.300852751126513 ], [ -7139567.458766059949994, -1104402.541877523995936 ], [ -6778957.922835709527135, -1563360.133061605738476 ], [ -6479716.298206309787929, -1944213.109862659359351 ], [ -6505485.507713636383414, -2776532.010753912851214 ], [ -7010774.543620168231428, -3921853.825475385412574 ], [ -7448691.708072495646775, -4275556.150609957054257 ], [ -7718179.193889312446117, -4410299.89351836591959 ], [ -7802394.033207067288458, -3770267.114703424274921 ], [ -8038195.583296782337129, -3046019.496570728719234 ], [ -8156096.358341639861465, -2507044.524937095120549 ], [ -8391897.908431354910135, -2153342.199802523478866 ], [ -8829815.072883682325482, -1816482.842531502246857 ], [ -9116145.526564050465822, -1664896.131759542971849 ], [ -9621434.562470581382513, -1344879.742352073080838 ], [ -9638277.530334133654833, -620632.124219377525151 ], [ -9419318.948107969015837, 170987.365367522463202 ], [ -8981401.78365564160049, 743648.272728258743882 ], [ -8698439.923547983169556, 901972.170645638019778 ], [ -8411842.726032672449946, 387514.768069490033668 ] ] ] ] } },
{ "type": "Feature", "properties": { "id": 4 }, "geometry": { "type": "MultiPolygon", "coordinates": [ [ [ [ -9624129.437328750267625, -1229000.123450845014304 ], [ -9622973.190345684066415, -1278718.743722656974569 ], [ -8952085.915266113355756, -1751751.220093744806945 ], [ -8483876.792414836585522, -2082589.212122921599075 ], [ -8223468.229795843362808, -2405986.717755789868534 ], [ -7986999.549927669577301, -3203264.456204431131482 ], [ -7801075.48909249342978, -3780288.049974185880274 ], [ -7756531.629221904091537, -4118821.384990665130317 ], [ -7644070.135289694182575, -4373245.36421855725348 ], [ -6960245.640029519796371, -6263026.358508985489607 ], [ -6101254.278988417237997, -7475720.04468466155231 ], [ -5158048.078629557043314, -7947323.144864089787006 ], [ -4484329.364087514579296, -9968479.28849021717906 ], [ -6572857.379167845472693, -10760098.778077118098736 ], [ -8695071.329975279048085, -10810627.681667771190405 ], [ -12013135.99909483641386, -8957901.216677153483033 ], [ -13764804.656904147937894, -7711521.594774375669658 ], [ -14893283.503762068226933, -7004116.944505231454968 ], [ -15331200.668214395642281, -5892481.065510861575603 ], [ -15769117.832666723057628, -4191341.311292205005884 ], [ -14977498.343079824000597, -3568151.500340815633535 ], [ -12383681.292092960327864, -2978647.625116528943181 ], [ -11928921.159777082502842, -1311193.806624974124134 ], [ -10648855.602147202938795, -890119.610036197700538 ], [ -9624129.437328750267625, -1229000.123450845014304 ] ] ] ] } },
{ "type": "Feature", "properties": { "id": 5 }, "geometry": { "type": "MultiPolygon", "coordinates": [ [ [ [ 1689752.019202458206564, -5907866.468847755342722 ], [ 1334490.543114101979882, -5837938.108568548224866 ], [ 962500.190909383352846, -5779814.616036561317742 ], [ 722064.611259364755824, -5775362.371788532473147 ], [ 154249.383020694949664, -5876307.301253183744848 ], [ -321909.292208281636704, -5969494.084086958318949 ], [ -668550.092054393724538, -5986089.726976314559579 ], [ -883967.946883628261276, -5958472.053280259482563 ], [ -1423119.954887108877301, -6077753.712009923532605 ], [ -1423119.954887108877301, -6077753.712009923532605 ], [ -2197896.476610457524657, -6364084.165690291672945 ], [ -2534755.833881478756666, -6852530.233733272179961 ], [ -2450540.994563722983003, -7239918.494594946503639 ], [ -2063152.733702048659325, -7408348.173230457119644 ], [ -1726293.376431027427316, -7492563.012548211961985 ], [ -1035731.694025434553623, -7122017.719550088979304 ], [ -597814.529573107138276, -7239918.494594946503639 ], [ 581193.220875468105078, -7879951.273409886285663 ], [ 1558085.35696142911911, -7273604.430322048254311 ], [ 2097060.328595062717795, -7223075.526731395162642 ], [ 2905522.786045514047146, -7189389.59100429341197 ], [ 3158167.303998779505491, -7138860.687413640320301 ], [ 3562398.532724004238844, -6802001.330142619088292 ], [ 3461340.725542698055506, -6212497.454918331466615 ], [ 2939208.721772614866495, -5926167.001237964257598 ], [ 2417076.71800253354013, -5926167.001237964257598 ], [ 2383390.782275430858135, -5841952.161920208483934 ], [ 1689752.019202458206564, -5907866.468847755342722 ] ] ] ] } },
{ "type": "Feature", "properties": { "id": 6 }, "geometry": { "type": "MultiPolygon", "coordinates": [ [ [ [ -2440071.041567461099476, -7244470.648071582429111 ], [ -2059189.682440036907792, -7409338.936045960523188 ], [ -1750071.684003100031987, -7486618.435655193403363 ], [ -1323120.181714782724157, -7276226.176359007135034 ], [ -967477.018738382263109, -7140393.97828121855855 ], [ -696270.388615492382087, -7213411.14792968891561 ], [ -86366.022442830377258, -7517561.969894238747656 ], [ 562236.917195494053885, -7869660.708555042743683 ], [ 910317.824664085172117, -7675667.036575572565198 ], [ 1351805.987453148700297, -7401639.901051325723529 ], [ 1611304.570036579621956, -7268615.129096252843738 ], [ 1978621.491653306642547, -7234179.167694685049355 ], [ 2817250.455336018931121, -7193067.604783855378628 ], [ 3103103.755214092787355, -7149873.397170577198267 ], [ 3184674.26981682702899, -7116771.549231933429837 ], [ 3309754.014770738780499, -7762050.498365028761327 ], [ 3292911.046907188370824, -8082066.887772499583662 ], [ 3747671.179223066195846, -8267339.534271560609341 ], [ 4135059.440084740519524, -8334711.405725764110684 ], [ 3815043.050677269697189, -8722099.666587438434362 ], [ 3276068.079043636098504, -8856843.409495847299695 ], [ 3006580.593226820230484, -9042116.055994909256697 ], [ 2956051.689636167138815, -9665305.866946298629045 ], [ 2737093.107410002499819, -10069537.095671523362398 ], [ 2299175.942957675084472, -10237966.774307034909725 ], [ 1996002.521413756534457, -10692726.906622912734747 ], [ 648565.092329671606421, -9682148.83480984903872 ], [ -547285.625982454046607, -9783206.641991155222058 ], [ -1423119.954887108877301, -9732677.738400502130389 ], [ -1978937.894384292885661, -9311603.541811726987362 ], [ -2484226.930290825664997, -8705256.698723888024688 ], [ -2703185.512516988441348, -8166281.727090254426003 ], [ -2440071.041567461099476, -7244470.648071582429111 ] ] ] ] } },
{ "type": "Feature", "properties": { "id": 7 }, "geometry": { "type": "MultiPolygon", "coordinates": [ [ [ [ 2005071.811801821924746, -10679122.971040815114975 ], [ 2324852.787007392849773, -10228091.065057143568993 ], [ 2725524.419431558810174, -10073986.591047847643495 ], [ 2910716.976470548659563, -9749000.722021285444498 ], [ 2999072.76085368078202, -9134712.655263628810644 ], [ 3291920.284091684501618, -8852880.358233835548162 ], [ 3842100.616186160128564, -8689345.771497728303075 ], [ 4123643.125069361645728, -8348531.155481223016977 ], [ 3648292.715014036744833, -8226852.011816030368209 ], [ 3296668.145401612855494, -8010682.016378429718316 ], [ 3299551.852211243007332, -7709418.14979650452733 ], [ 3249206.507604075595737, -7449689.517684030346572 ], [ 3192664.937176352832466, -7157994.925874784588814 ], [ 3508556.258406095672399, -6846869.89207420963794 ], [ 3545448.710187250748277, -6703127.365344889461994 ], [ 4703509.605479588732123, -6161968.551327678374946 ], [ 5074054.898477712646127, -6195654.487054781056941 ], [ 5764616.580883305519819, -6296712.294236087240279 ], [ 6370963.423971142619848, -5959852.93696506600827 ], [ 6842566.52415057271719, -5336663.126013676635921 ], [ 7314169.624330002814531, -5673522.48328469786793 ], [ 7448913.367238411679864, -6633571.651507108472288 ], [ 7499442.270829064771533, -7425191.141094007529318 ], [ 8206846.9210982080549, -7324133.33391270134598 ], [ 9166896.089320618659258, -7020959.912368782795966 ], [ 9857457.77172621153295, -7795736.434092131443322 ], [ 9891143.70745331607759, -8570512.955815479159355 ], [ 9638499.189500048756599, -9345289.477538827806711 ], [ 8813193.764186047017574, -9901107.417036013677716 ], [ 7566814.142283268272877, -11400131.556892057880759 ], [ 6539393.102606654167175, -12781254.921703243628144 ], [ 5326699.416430978104472, -13471816.604108838364482 ], [ 4215063.537436608225107, -13623403.314880797639489 ], [ 3238171.401350647211075, -13252858.021882673725486 ], [ 2294965.200991787016392, -12309651.821523815393448 ], [ 2076006.618765624240041, -11366445.621164955198765 ], [ 2005071.811801821924746, -10679122.971040815114975 ] ] ] ] } },
{ "type": "Feature", "properties": { "id": 8 }, "geometry": { "type": "MultiPolygon", "coordinates": [ [ [ [ 6936568.493443094193935, -5403807.389794048853219 ], [ 6348082.411024432629347, -5972564.610824349336326 ], [ 5814668.796704236418009, -6268905.507668904028833 ], [ 5489115.851443682797253, -6256395.114318093284965 ], [ 4828037.121978957206011, -6173289.234645802527666 ], [ 4104285.809125474188477, -6441984.257137366570532 ], [ 3729996.980515732895583, -6616888.443448922596872 ], [ 3522211.702296876814216, -6793664.753524052910507 ], [ 2951840.947670279070735, -6549356.812189352698624 ], [ 2800254.236898319795728, -6380927.13355384208262 ], [ 2682353.46185346134007, -6111439.647737025283277 ], [ 2665510.493989910930395, -5926167.001237964257598 ], [ 2667241.948270910885185, -5356560.773381105624139 ], [ 2979480.091172308661044, -5078462.096286019310355 ], [ 3174071.401475480757654, -4866700.964485508389771 ], [ 3465958.366930239833891, -4549059.266784739680588 ], [ 3542927.169812391046435, -4403906.787179240956903 ], [ 3615696.975875729229301, -4010826.369117482565343 ], [ 3622781.440709057729691, -4016660.634274341166019 ], [ 3945576.051619790494442, -3719738.211112775374204 ], [ 4316121.344617914408445, -3601837.436067917849869 ], [ 4855096.316251548007131, -3416564.789568856358528 ], [ 5141426.76993191614747, -3062862.464434284251183 ], [ 5562500.966520693153143, -3046019.496570732910186 ], [ 5916203.291655264794827, -3147077.303752039559186 ], [ 6152004.841744979843497, -3231292.143069794867188 ], [ 6404649.359698245301843, -3349192.918114651925862 ], [ 7061525.106376737356186, -3534465.564613713882864 ], [ 6936568.493443094193935, -5403807.389794048853219 ] ] ] ] } },
{ "type": "Feature", "properties": { "id": 9 }, "geometry": { "type": "MultiPolygon", "coordinates": [ [ [ [ 682977.018050892977044, -1319324.894559101667255 ], [ 1041113.052614916814491, -1821753.459060513880104 ], [ 1321988.436717504169792, -2366173.568597086705267 ], [ 1572737.090425118338317, -2602991.741543166805059 ], [ 1620028.115960414288566, -2925521.316306854132563 ], [ 1699097.579991004662588, -3171236.67394545674324 ], [ 1842922.695760837057605, -3301097.238774452824146 ], [ 2175800.413349292706698, -3330043.127260405104607 ], [ 2714269.551703013014048, -3457491.003885948564857 ], [ 3023350.542443566955626, -3562310.008596228901297 ], [ 3234111.564588164910674, -3711599.065948651637882 ], [ 3365969.590500894933939, -3805168.522338206879795 ], [ 3609202.883111846167594, -4005478.292723696213216 ], [ 3930254.190441749989986, -3733832.015639106277376 ], [ 4683283.334027727134526, -3475625.50220829481259 ], [ 5090897.866341264918447, -3433407.757432408630848 ], [ 5067294.638773574493825, -3154437.44998282333836 ], [ 5206000.448642017319798, -3060279.517285880167037 ], [ 5508689.567595611326396, -3048171.952527736313641 ], [ 6159381.324020988307893, -3234734.501465265639126 ], [ 6118318.906017879024148, -2658631.235709059983492 ], [ 5983575.163109470158815, -2237557.039120282977819 ], [ 5983575.163109470158815, -2220714.071256732568145 ], [ 5781459.548746857792139, -1816482.84253150690347 ], [ 5966732.195245919749141, -1445937.549533382989466 ], [ 6354120.456107594072819, -1159607.095853015780449 ], [ 6893095.427741227671504, -755375.867127790115774 ], [ 7061525.106376739218831, -47971.216858645901084 ], [ 6926781.363468330353498, 608904.529819846153259 ], [ 6960467.299195433035493, 1013135.758545070886612 ], [ 7516285.238692617043853, 1248937.308634785935283 ], [ 7482599.302965514361858, 1670011.505223562009633 ], [ 7347855.560057107359171, 2529002.866264666430652 ], [ 7331012.592193555086851, 2579531.769855319522321 ], [ 6825723.55628702417016, 3236407.516533810645342 ], [ 6185690.777472084388137, 3674324.680986138060689 ], [ 5966732.195245919749141, 3674324.680986138060689 ], [ 5394071.287885183468461, 3489052.034487076569349 ], [ 5090897.866341264918447, 3354308.291578668169677 ], [ 4821410.380524447187781, 3404837.195169321261346 ], [ 4551922.894707631319761, 3674324.680986138060689 ], [ 4063476.826664650812745, 3943812.166802954860032 ], [ 3692931.533666526898742, 3943812.166802954860032 ], [ 3625559.662212323397398, 3943812.166802954860032 ], [ 3322386.240668404847383, 3809068.42389454646036 ], [ 3153956.562032893300056, 3674324.680986138060689 ], [ 2783411.269034769386053, 3455366.098759974353015 ], [ 2429708.94390019774437, 3135349.709352504462004 ], [ 2345494.104582441970706, 3708010.616713240277022 ], [ 2463394.879627300426364, 4162770.749029118567705 ], [ 1907576.940130115486681, 4668059.784935650415719 ], [ 1082271.514816113747656, 4769117.592116956599057 ], [ 711726.221817989833653, 4718588.688526303507388 ], [ 189594.218047907575965, 4499630.106300139799714 ], [ -180951.074950216338038, 3977498.102530057076365 ], [ -383066.689312828704715, 3371151.259442219045013 ], [ -496304.389412054326385, 2720615.529487912543118 ], [ 273809.057365662418306, 1686854.47308711335063 ], [ 610668.414636683650315, 962606.854954417794943 ], [ 560139.511046030558646, -755375.867127790115774 ], [ 682977.018050892977044, -1319324.894559101667255 ] ] ] ] } },
{ "type": "Feature", "properties": { "id": 10 }, "geometry": { "type": "MultiPolygon", "coordinates": [ [ [ [ 7060441.704613123089075, -3550673.176061002071947 ], [ 6659678.768046320416033, -3421124.289700006600469 ], [ 6294463.155700379051268, -3297772.68958231434226 ], [ 6193036.524405273608863, -3250440.26164459856227 ], [ 6107758.438504012301564, -2625629.774728225544095 ], [ 6008607.382401598617435, -2315782.72440818278119 ], [ 5911150.401296200230718, -2075864.547630191780627 ], [ 5793249.626251342706382, -1840062.997540477197617 ], [ 5951573.524168724194169, -1476254.891687774797902 ], [ 6261535.608921215869486, -1228039.374208164867014 ], [ 6542761.696179365739226, -1018126.165799186564982 ], [ 6825723.556287023238838, -805904.770718443440273 ], [ 6985713.679136828519404, -366379.211266269325279 ], [ 7023949.879647706635296, 135208.01344538902049 ], [ 6945653.988658024929464, 516900.482020083232783 ], [ 6947515.637700357474387, 857715.820604166248813 ], [ 6957272.943221311084926, 974803.48685561097227 ], [ 7215884.025477991439402, 1121494.369695247383788 ], [ 7507877.143447536975145, 1354038.499198281206191 ], [ 7430977.028477903455496, 1999103.50508208759129 ], [ 7327881.92902189027518, 2583601.631978483404964 ], [ 7163209.046192376874387, 2797676.379656851291656 ], [ 6770475.443776111118495, 3274208.856672856491059 ], [ 6303734.558847856707871, 3593557.883202714845538 ], [ 5991996.647041246294975, 3674324.680986138060689 ], [ 5620086.242708840407431, 3562174.519871200900525 ], [ 5280771.94220511149615, 3438696.769740377552807 ], [ 5056322.11344401165843, 3360791.245246903039515 ], [ 4851918.397786728106439, 3399116.941932643763721 ], [ 4513853.488310478627682, 3695328.491412153467536 ], [ 4004526.439142220653594, 3943812.166802955791354 ], [ 3650824.114007648080587, 3943812.166802954860032 ], [ 3300819.025721174199134, 3791814.651936762034893 ], [ 2986558.611903572455049, 3575407.710455175954849 ], [ 2712626.701473549008369, 3391322.918585537001491 ], [ 2437867.912746817804873, 3142731.633547065779567 ], [ 2379615.019581210799515, 3475988.394721613731235 ], [ 2374666.21151834866032, 3820531.600608878768981 ], [ 2452711.06903518922627, 4121561.765316690318286 ], [ 3802410.824779608286917, 5644951.921021610498428 ], [ 5082476.382409488782287, 5914439.406838428229094 ], [ 6328856.004312267526984, 6015497.214019734412432 ], [ 7019417.686717860400677, 6335513.603427204303443 ], [ 7912094.983486065641046, 6369199.539154306054115 ], [ 8451069.955119699239731, 6655529.992834674194455 ], [ 9394276.155478559434414, 6554472.185653368011117 ], [ 9950094.094975743442774, 5661794.888885162770748 ], [ 10438540.16301872394979, 4567001.977754343301058 ], [ 10606969.841654235497117, 3590109.841668382287025 ], [ 10691184.680971991270781, 2950077.062853441573679 ], [ 10505912.034472929313779, 2175300.541130092926323 ], [ 9950094.094975743442774, 1046821.694272172637284 ], [ 9175317.573252394795418, -115343.088312851265073 ], [ 9512176.930523416027427, -772218.834991341456771 ], [ 9781664.416340233758092, -1344879.742352077737451 ], [ 9815350.352067334577441, -1765953.938940854743123 ], [ 9697449.577022477984428, -2052284.392621222883463 ], [ 9461648.026932762935758, -2422829.685619344934821 ], [ 8417384.019392598420382, -2692317.171436162665486 ], [ 7709979.369123453274369, -2692317.171436162665486 ], [ 7060441.704613123089075, -3550673.176061002071947 ] ] ] ] } },
{ "type": "Feature", "properties": { "id": 11 }, "geometry": { "type": "MultiPolygon", "coordinates": [ [ [ [ 9986925.203935950994492, 5579242.403284695930779 ], [ 9643524.425935478881001, 6154164.357343768700957 ], [ 9435912.594250537455082, 6487601.541565038263798 ], [ 8409199.850697288289666, 6633286.499860268086195 ], [ 8010202.385024861432612, 6421319.096221791580319 ], [ 7540172.554828994907439, 6355164.730525737628341 ], [ 6564657.55440198071301, 6857645.607197290286422 ], [ 5587765.418316019698977, 7834537.743283252231777 ], [ 3836096.760506710037589, 9485148.59391125664115 ], [ 1275965.64524694904685, 12617940.616531753912568 ], [ 231701.637706784531474, 13527460.881163511425257 ], [ -509388.948289463296533, 14874898.310247596353292 ], [ 770676.609340418130159, 15582302.96051673963666 ], [ 2556031.202876830473542, 15717046.703425150364637 ], [ 4172956.117777733132243, 15211757.667518617585301 ], [ 5991996.64704124443233, 14268551.467159759253263 ], [ 7541549.690487941727042, 13426403.073982205241919 ], [ 9225846.476843049749732, 12550568.745077550411224 ], [ 10809085.456016847863793, 10664156.344359831884503 ], [ 12392324.435190645977855, 8609314.2650066036731 ], [ 13268158.764095300808549, 7261876.835922518745065 ], [ 13840819.671456037089229, 5712323.792475821450353 ], [ 13874505.607183141633868, 4600687.913481451570988 ], [ 13335530.635549506172538, 3522737.970214184373617 ], [ 12527068.178099056705832, 3421680.163032878190279 ], [ 11853349.463557014241815, 3657481.713122591376305 ], [ 11112258.877560766413808, 4230142.620483327656984 ], [ 10876457.327471053227782, 4297514.491937533020973 ], [ 9986925.203935950994492, 5579242.403284695930779 ] ] ] ] } }
]
}
