{
"type": "FeatureCollection",
"name": "map012",
"crs": { "type": "name", "properties": { "name": "urn:ogc:def:crs:ESRI::102016" } },
"features": [
{ "type": "Feature", "properties": { "id": 1 }, "geometry": { "type": "MultiPolygon", "coordinates": [ [ [ [ -290936.867375303059816, -5699099.757183779962361 ], [ -823867.951539435423911, -5601214.456010775640607 ], [ -1422055.903152236714959, -5416319.998239546082914 ], [ -1628702.650073022581637, -5024778.793547530658543 ], [ -1737464.095820804592222, -4513599.998532954603434 ], [ -1563445.782624353654683, -4122058.793840938713402 ], [ -1171904.577932337298989, -3425985.54105513356626 ], [ -399698.31312308460474, -2686407.709970214869827 ], [ 231118.072214051149786, -2370999.517301646992564 ], [ 709668.433504292741418, -2294866.505278199445456 ], [ 1318732.529691872186959, -2327494.939002534374595 ], [ 1906044.336729896254838, -2447132.529325094539672 ], [ 2417223.131744472309947, -2632026.987096324097365 ], [ 2743507.468987818807364, -2773416.866568440571427 ], [ 3222057.830278059467673, -3056196.625512674450874 ], [ 3657103.613269187510014, -3338976.38445690786466 ], [ 3994264.095087312161922, -3730517.589148923289031 ], [ 4070397.107110759243369, -4067678.07096704794094 ], [ 4048644.817961202934384, -4296077.107037389650941 ], [ 3885502.649339530616999, -4676742.167154627852142 ], [ 3602722.890395296737552, -5013902.648972752504051 ], [ 3222057.830278059467673, -5405443.853664767928421 ], [ 2906649.637609491124749, -5557709.877711663022637 ], [ 2319337.830571467988193, -5655595.178884666413069 ], [ 1808159.035556891933084, -5731728.190908114425838 ], [ 1275227.951392759568989, -5764356.624632448889315 ], [ 655287.710630401968956, -5775232.769207227043808 ], [ -290936.867375303059816, -5699099.757183779962361 ] ] ] ] } },
{ "type": "Feature", "properties": { "id": 2 }, "geometry": { "type": "MultiPolygon", "coordinates": [ [ [ [ 3558216.334873855113983, -5059680.82036623544991 ], [ 3491242.408503820654005, -4589733.01055640168488 ], [ 3567375.420527268666774, -4111182.649266160558909 ], [ 3730517.58914894098416, -3861031.324046262074262 ], [ 3931410.629103716462851, -3657526.467361521907151 ], [ 4480971.564808638766408, -3121453.492961343377829 ], [ 4992150.359823213890195, -2795169.155717997346073 ], [ 5525081.443987345322967, -2599398.553371989168227 ], [ 5873118.070380249992013, -2479760.963049429003149 ], [ 6416925.299119159579277, -2436256.384750315919518 ], [ 6982484.817007627338171, -2523265.54134854208678 ], [ 7352273.732550086453557, -3088825.059237008914351 ], [ 7450159.033723089843988, -3817526.745747148990631 ], [ 7504539.75659698061645, -4567980.721406845375896 ], [ 7428406.744573533535004, -5013902.648972752504051 ], [ 7134750.841054521501064, -5438072.287389102391899 ], [ 6667076.624339058995247, -5666471.323459444567561 ], [ 6253783.130497487261891, -5829613.492081117816269 ], [ 5720852.046333353966475, -5938374.937828900292516 ], [ 5198797.106744000688195, -5981879.516128012910485 ], [ 4948645.781524101272225, -5971003.371553234755993 ], [ 4296077.107037408277392, -5731728.190908114425838 ], [ 3893659.757770614232868, -5546833.733136884868145 ], [ 3621756.143401159439236, -5285806.263342207297683 ], [ 3558216.334873855113983, -5059680.82036623544991 ] ] ] ] } },
{ "type": "Feature", "properties": { "id": 3 }, "geometry": { "type": "MultiPolygon", "coordinates": [ [ [ [ -327063.239216808171477, -5692464.301131258718669 ], [ 435045.78299114247784, -5546833.7331368830055 ], [ 1011481.445454387925565, -5427196.142814322374761 ], [ 1772811.565688862465322, -5416319.998239544220269 ], [ 2305742.649852994829416, -5459824.576538657769561 ], [ 2906649.637609491124749, -5557709.877711663022637 ], [ 3534746.986802932806313, -5720852.0463333344087 ], [ 3850155.179471501149237, -5720852.0463333344087 ], [ 4414638.800590082071722, -5775200.811877428553998 ], [ 4981274.21524843480438, -5742604.335482890717685 ], [ 5622966.745160349644721, -5775232.769207225181162 ], [ 6079764.817301034927368, -5699099.757183778099716 ], [ 6493058.311142606660724, -5557709.877711661159992 ], [ 6862847.22668506577611, -5198797.106743980199099 ], [ 7036865.539881516247988, -5144416.383870089426637 ], [ 7439282.889148309826851, -5187920.962169202044606 ], [ 8407259.756303571164608, -6068888.672726237215102 ], [ 9288227.466860605403781, -7025989.395306721329689 ], [ 9658016.382403066381812, -8135356.141934098675847 ], [ 9440493.490907503291965, -9027199.997065911069512 ], [ 9027199.997065929695964, -9897291.563048169016838 ], [ 7983090.117887223139405, -11463456.381816230714321 ], [ 7134750.841054519638419, -12464061.682695826515555 ], [ 5677347.46803423948586, -13268896.381229413673282 ], [ 4393962.408210413530469, -13638685.296771872788668 ], [ 3110577.348386581987143, -13725694.453370098024607 ], [ 2349247.228152107447386, -13725694.453370098024607 ], [ 1261632.770674286410213, -13464666.983575420454144 ], [ 108761.445747796446085, -12964364.33313562348485 ], [ -1044109.879178693518043, -12355300.236948043107986 ], [ -1892449.156011393293738, -11637474.695012681186199 ], [ -2653779.27624586969614, -10832639.996479094028473 ], [ -3349852.529031675308943, -9853786.984749054536223 ], [ -3697889.155424576252699, -8526897.346626114100218 ], [ -3480366.263929013162851, -7417530.599998735822737 ], [ -2958311.324339658021927, -6634448.190614704973996 ], [ -1892449.156011393293738, -6025384.094427125528455 ], [ -327063.239216808171477, -5692464.301131258718669 ] ] ] ] } },
{ "type": "Feature", "properties": { "id": 4 }, "geometry": { "type": "MultiPolygon", "coordinates": [ [ [ [ -8293060.238268370740116, -2099095.90293219126761 ], [ -9043514.213928060606122, -1239880.481524715200067 ], [ -9326293.972872294485569, -326284.337243344634771 ], [ -9435055.418620077893138, 500302.65043979883194 ], [ -9435055.418620077893138, 1239880.481524717062712 ], [ -8738982.165834272280335, 2392751.806451207958162 ], [ -7238074.214514877647161, 3436861.685629916377366 ], [ -6150459.757037058472633, 3763146.022873262874782 ], [ -5236863.612755686044693, 4111182.649266165681183 ], [ -4236258.311876092106104, 4328705.540761729702353 ], [ -3126891.565248716622591, 4328705.540761729702353 ], [ -2061029.396920450031757, 4067678.070967053063214 ], [ -1430213.011583313345909, 3850155.179471488110721 ], [ -516616.867301944643259, 3154081.926685682497919 ], [ -38066.506011702120304, 2305742.649852982722223 ], [ 114199.518035192042589, 1435651.08387072570622 ], [ 201208.674633417278528, -195770.602346006780863 ], [ -146827.951759483665228, -1479155.662169834598899 ], [ -973414.939442630857229, -2740788.432844107970595 ], [ -1778249.637976218014956, -3371604.818181242793798 ], [ -2952873.252052262425423, -3763146.022873260080814 ], [ -4171001.44442742317915, -3828402.890321929007769 ], [ -4975836.142961015924811, -3741393.733723700977862 ], [ -6422363.371406517922878, -3241091.083283904008567 ], [ -7586110.840907786972821, -2751664.577418884262443 ], [ -8293060.238268370740116, -2099095.90293219126761 ] ] ] ] } },
{ "type": "Feature", "properties": { "id": 5 }, "geometry": { "type": "MultiPolygon", "coordinates": [ [ [ [ -8197294.569105145521462, -2187494.982159783598036 ], [ -7694872.286655567586422, -2795169.155717997811735 ], [ -7151065.057916652411222, -3708765.299999369308352 ], [ -6302725.781083952635527, -5253177.829617874696851 ], [ -6085202.889588389545679, -6775838.070086823776364 ], [ -6237468.913635283708572, -7624177.346919525414705 ], [ -7020551.323019314557314, -9473121.924631820991635 ], [ -8108165.780497137457132, -10560736.382109642028809 ], [ -9239284.81627406924963, -10713002.406156536191702 ], [ -10457413.008649230003357, -10604240.960408754646778 ], [ -12371614.453810194507241, -9821158.551024723798037 ], [ -13720256.381082693114877, -8777048.671846015378833 ], [ -14786118.549410957843065, -7711186.503517750650644 ], [ -15482191.802196763455868, -6601819.756890373304486 ], [ -15873733.006888778880239, -5448948.431963881477714 ], [ -15960742.163487004116178, -4361333.974486062303185 ], [ -15482191.802196763455868, -3164958.071260458324105 ], [ -14111797.585774708539248, -1946829.8788852985017 ], [ -13024183.128296887502074, -1490031.806744614150375 ], [ -11588532.0444261636585, -1294261.20439860643819 ], [ -10631431.321845680475235, -1250756.626099492888898 ], [ -10131128.671405881643295, -1250756.626099492888898 ], [ -9087018.792227175086737, -1577040.963342839386314 ], [ -8197294.569105145521462, -2187494.982159783598036 ] ] ] ] } },
{ "type": "Feature", "properties": { "id": 6 }, "geometry": { "type": "MultiPolygon", "coordinates": [ [ [ [ 1806160.718575417296961, -2426785.866367700509727 ], [ 1223566.264662558212876, -2077343.613782634958625 ], [ 788520.481671430170536, -1337765.782697716727853 ], [ 462236.14442808367312, -119637.590322557836771 ], [ 375226.987829858437181, 815710.843108369037509 ], [ 396979.276979414746165, 1577040.963342843577266 ], [ 592749.879325421527028, 2621150.842521551996469 ], [ 1006043.373166993260384, 3882783.613195824436843 ], [ 1876134.939149251207709, 5187920.962169209495187 ], [ 3159519.998973079025745, 6036260.239001910202205 ], [ 4094868.432404005900025, 6058012.52815146651119 ], [ 5574024.094573842361569, 5992755.660702797584236 ], [ 6835656.865248115733266, 5514205.299412555992603 ], [ 7771005.298679042607546, 5209673.251318765804172 ], [ 8728106.021259523928165, 4731122.890028525143862 ], [ 9598197.587241780012846, 4274324.817887839861214 ], [ 10250766.261728473007679, 3730517.589148929342628 ], [ 10990344.092813391238451, 2969187.468914454802871 ], [ 11338380.719206295907497, 2077343.613782641477883 ], [ 11186114.695159398019314, 663444.819061473943293 ], [ 10577050.59897181764245, -380665.060117233544588 ], [ 9619949.876391336321831, -1424774.939295941963792 ], [ 8836867.467007305473089, -2164352.770380860194564 ], [ 7248950.359089687466621, -2164352.770380860194564 ], [ 6270097.347359647974372, -2186105.059530416503549 ], [ 5726290.118620736524463, -2294866.505278198979795 ], [ 4877950.841788036748767, -2599398.553371989168227 ], [ 3920850.119207553565502, -2599398.553371989168227 ], [ 3007253.974926184862852, -2534141.68592331930995 ], [ 1806160.718575417296961, -2426785.866367700509727 ] ] ] ] } },
{ "type": "Feature", "properties": { "id": 7 }, "geometry": { "type": "MultiPolygon", "coordinates": [ [ [ [ 7831911.708297800272703, 5179220.046509386971593 ], [ 6550158.070160190574825, 6275535.41964703053236 ], [ 5680066.504177932627499, 7471911.322872634977102 ], [ 5158011.56458857934922, 8603030.3586495667696 ], [ 4962240.962242570705712, 9668892.526977833360434 ], [ 4983993.251392127014697, 10604240.960408758372068 ], [ 5158011.56458857934922, 11322066.502344120293856 ], [ 5788827.949925716035068, 12431433.248971497640014 ], [ 6593662.648459303192794, 13018745.056009521707892 ], [ 7681277.105937124229968, 13127506.501757303252816 ], [ 8594873.250218492001295, 12931735.899411296471953 ], [ 9312698.792153853923082, 12844726.742813069373369 ], [ 10291551.803883895277977, 12192158.068326378241181 ], [ 11161643.369866151362658, 11626598.550437910482287 ], [ 12227505.538194414228201, 10343213.490614082664251 ], [ 12793065.056082881987095, 9125085.298238921910524 ], [ 13249863.128223568201065, 6732333.491787713952363 ], [ 13054092.525877557694912, 5427196.142814328894019 ], [ 12184000.959895301610231, 4339581.685336507856846 ], [ 11096386.502417482435703, 3948040.480644492432475 ], [ 9649547.253430897369981, 4231533.429396907798946 ], [ 8967381.201904645189643, 4426590.84193473495543 ], [ 8325688.671992730349302, 4731122.890028525143862 ], [ 7831911.708297800272703, 5179220.046509386971593 ] ] ] ] } },
{ "type": "Feature", "properties": { "id": 8 }, "geometry": { "type": "MultiPolygon", "coordinates": [ [ [ [ 5005745.540541685186327, 12540194.694719281047583 ], [ 4809974.938195676542819, 10865268.430203435942531 ], [ 4092149.396260314621031, 9125085.298238921910524 ], [ 3026287.227932049892843, 8124479.997359327040613 ], [ 1525379.276612657122314, 7167379.274778844788671 ], [ -454079.035996977239847, 6884599.515834610909224 ], [ -2237766.746260603889823, 6928104.094133723527193 ], [ -4086711.323972899932414, 7841700.238415094092488 ], [ -5217830.359749834053218, 8929314.695892915129662 ], [ -5718133.010189631953835, 10451974.936361864209175 ], [ -5522362.407843623310328, 11735359.996185693889856 ], [ -4935050.600805601105094, 12931735.899411296471953 ], [ -3738674.697579997591674, 13888836.621991779655218 ], [ -2694564.818401289172471, 14737175.898824479430914 ], [ -649849.638342984952033, 15476753.729909397661686 ], [ 916315.18042507674545, 15672524.332255404442549 ], [ 2047434.216202010400593, 15607267.464806735515594 ], [ 3352571.565175396390259, 15106964.814366936683655 ], [ 4309672.287755879573524, 14410891.561581131070852 ], [ 4875231.805644345469773, 13388533.971551980823278 ], [ 5005745.540541685186327, 12540194.694719281047583 ] ] ] ] } }
]
}
