{
"type": "FeatureCollection",
"name": "map005",
"crs": { "type": "name", "properties": { "name": "urn:ogc:def:crs:ESRI::102016" } },
"features": [
{ "type": "Feature", "properties": { "id": 1 }, "geometry": { "type": "MultiPolygon", "coordinates": [ [ [ [ -9097894.93680196814239, -1995772.529471779707819 ], [ -8575839.997212614864111, -2235047.710116900503635 ], [ -8282184.093693602830172, -2474322.890762021299452 ], [ -7955899.756450256332755, -2985501.6857765968889 ], [ -7901519.033576365560293, -3583689.63738939864561 ], [ -7781881.443253803998232, -4181877.589002200402319 ], [ -7825386.021552916616201, -4649551.805717662908137 ], [ -7303331.081963563337922, -5410881.925952138379216 ], [ -6792152.28694898635149, -6128707.467887500301003 ], [ -6378858.793107414618134, -6835656.865248083136976 ], [ -6172212.046186629682779, -7596986.985482558608055 ], [ -5976441.443840621039271, -8325688.671992698684335 ], [ -5867679.998092839494348, -8858619.756156831979752 ], [ -6128707.46788751706481, -9282789.394573181867599 ], [ -6400611.082256970927119, -9445931.563194854184985 ], [ -7194569.636215781792998, -9576445.298092193901539 ], [ -8684601.442960396409035, -9815720.478737313300371 ], [ -9957110.358209446072578, -9793968.189587756991386 ], [ -11610284.333575734868646, -9598197.587241750210524 ], [ -13143820.718619462102652, -9010885.780203726142645 ], [ -14133549.874924279749393, -8358317.105717033147812 ], [ -15025393.730056092143059, -7270702.648239212110639 ], [ -15406058.790173329412937, -6367982.648532620631158 ], [ -15667086.259968006983399, -5323872.769353912211955 ], [ -15569200.958795003592968, -4268886.745600425638258 ], [ -15210288.187827322632074, -3703327.227711958810687 ], [ -14514214.935041517019272, -3561937.348239841870964 ], [ -13633247.224484480917454, -3735955.661436293274164 ], [ -13187325.296918574720621, -3920850.119207522831857 ], [ -12284605.297211984172463, -3909973.974632744677365 ], [ -11762550.357622630894184, -3909973.974632744677365 ], [ -11577655.899851400405169, -3518432.769940729252994 ], [ -11436266.020379282534122, -2985501.6857765968889 ], [ -11381885.297505393624306, -2409066.023313351906836 ], [ -11088229.393986381590366, -1908763.372873554006219 ], [ -10805449.635042145848274, -1473717.589882425731048 ], [ -10566174.454397026449442, -1332327.710410309024155 ], [ -10239890.117153679952025, -1419336.867008534725755 ], [ -9565569.153517430648208, -1734745.059677102835849 ], [ -9097894.93680196814239, -1995772.529471779707819 ] ] ] ] } },
{ "type": "Feature", "properties": { "id": 2 }, "geometry": { "type": "MultiPolygon", "coordinates": [ [ [ [ -7809588.134708042256534, -4672590.390699772164226 ], [ -7794012.527587210759521, -4121222.16733516799286 ], [ -7899427.467311984859407, -3594147.468711300753057 ], [ -7943953.827163204550743, -3116906.907934163231403 ], [ -8149319.516353596933186, -2682477.395261363126338 ], [ -8397177.130933117121458, -2380624.860418713651597 ], [ -8648493.267141116783023, -2201748.294733003713191 ], [ -9048835.254530658945441, -2018258.217179463244975 ], [ -9195780.237974971532822, -1190937.830938192084432 ], [ -8945628.912755072116852, -429607.710703717544675 ], [ -8706353.732109952718019, 48942.650586523115635 ], [ -8488830.840614387765527, 396979.276979426387697 ], [ -8173422.647945819422603, 668882.891348881646991 ], [ -8216927.226244932040572, 1016919.517741784453392 ], [ -8042908.913048481568694, 1386708.433284243568778 ], [ -7858014.455277251079679, 1756497.348826702684164 ], [ -7499101.684309570118785, 2006648.674046601634473 ], [ -7172817.347066225484014, 2082781.686070049181581 ], [ -6607257.82917775772512, 2256799.999266500584781 ], [ -6019946.022139733657241, 2441694.457037730142474 ], [ -6237468.913635298609734, 1887011.083724041003734 ], [ -6542000.961729088798165, 1506346.023606803733855 ], [ -6726895.419500317424536, 1136557.108064344618469 ], [ -7140188.913341889157891, 897281.927419223822653 ], [ -7444720.961435679346323, 929910.361143558751792 ], [ -7771005.29867902584374, 745015.903372329194099 ], [ -7999404.334749368950725, 299093.975806422531605 ], [ -7771005.29867902584374, -70694.939736036583781 ], [ -7455597.106010457500815, -386103.132404604926705 ], [ -7325083.371113119646907, -701511.325073173269629 ], [ -7238074.214514894410968, -1277946.987536418251693 ], [ -7259826.503664450719953, -2104533.975219561718404 ], [ -7118436.624192332848907, -2920244.818327927961946 ], [ -7020551.323019329458475, -3431423.613342504017055 ], [ -6987922.889294994994998, -3920850.119207522831857 ], [ -7031427.467594107612967, -4399400.48049776442349 ], [ -7107560.479617554694414, -4616923.37199332844466 ], [ -7466473.250585235655308, -4790941.68518977984786 ], [ -7809588.134708042256534, -4672590.390699772164226 ] ] ] ] } },
{ "type": "Feature", "properties": { "id": 3 }, "geometry": { "type": "MultiPolygon", "coordinates": [ [ [ [ -7161941.202491447329521, -1375832.288709420245141 ], [ -7205445.780790559947491, -799396.626246175263077 ], [ -7205445.780790559947491, -233837.108357707969844 ], [ -7183693.491641003638506, 255589.397507311310619 ], [ -7183693.491641003638506, 636254.457624548813328 ], [ -7113179.068827346898615, 912919.205822379793972 ], [ -6788632.206962129101157, 1100814.757428558776155 ], [ -6618133.973752537742257, 1354079.999559910502285 ], [ -6453930.717855274677277, 1616433.828449071850628 ], [ -6256568.484595884568989, 1863136.620023308787495 ], [ -6150343.783486125059426, 2109180.165604433976114 ], [ -6150602.283736648969352, 2400561.930238701403141 ], [ -5889432.287242395803332, 2691845.782257630489767 ], [ -5726290.118620723485947, 2854987.950879303738475 ], [ -5065564.335702946409583, 3061634.697800089605153 ], [ -4510880.962389257736504, 3007253.974926198832691 ], [ -4054082.890248572453856, 2985501.685776642058045 ], [ -3445018.794060992076993, 2974625.541201863903552 ], [ -2748945.54127518646419, 3105139.276099202223122 ], [ -2183386.023386720567942, 3366166.745893879793584 ], [ -1552569.638049583882093, 3518432.769940774422139 ], [ -1139276.144208012148738, 3529308.914515553042293 ], [ -736858.794941218569875, 3398795.179618214257061 ], [ -595468.915469100698829, 2941997.107477528974414 ], [ -541088.192595209926367, 2550455.902785513550043 ], [ -519335.903445653617382, 1930515.662023155484349 ], [ -530212.048020431771874, 1016919.517741785850376 ], [ -454079.035996984690428, 255589.397507310844958 ], [ -421450.602272650226951, -81571.084310812875628 ], [ -584592.770894322544336, -418731.566128937527537 ], [ -1193656.8670819029212, -494864.578152385540307 ], [ -1541693.493474805727601, -570997.590175832621753 ], [ -1889730.119867708534002, -777644.337096618488431 ], [ -2085500.72221371717751, -1060424.096040852367878 ], [ -2313899.75828405842185, -1528098.312756315805018 ], [ -2466165.782330954447389, -1810878.071700548753142 ], [ -2651060.240102183073759, -2126286.264369117096066 ], [ -2792450.119574300944805, -2452570.601612463593483 ], [ -2879459.276172526180744, -2811483.372580144554377 ], [ -3053477.589368976652622, -3072510.842374821193516 ], [ -3542904.09523399733007, -3126891.565248711965978 ], [ -3934445.29992601275444, -3105139.276099155656993 ], [ -4249853.492594581097364, -2854987.950879257172346 ], [ -4739279.998459599912167, -2430818.312462907284498 ], [ -5119945.058576837182045, -2082781.686070004478097 ], [ -5478857.829544518142939, -1843506.505424883216619 ], [ -5957408.190834759734571, -1669488.192228431813419 ], [ -6359825.540101553313434, -1354079.999559864401817 ], [ -6696986.021919677965343, -1212690.120087747462094 ], [ -7161941.202491447329521, -1375832.288709420245141 ] ] ] ] } },
{ "type": "Feature", "properties": { "id": 4 }, "geometry": { "type": "MultiPolygon", "coordinates": [ [ [ [ -588608.578121933154762, -419233.542032388853841 ], [ -239275.180645113810897, -538369.156451499322429 ], [ -10876.144574771635234, -462236.144428051775321 ], [ 195770.602346014231443, -309970.120381156681105 ], [ 511178.795014582574368, -179456.385483818361536 ], [ 804834.698533593676984, -266465.542082044063136 ], [ 1011481.445454380474985, -625378.313049724791199 ], [ 1272508.915249057114124, -973414.9394426275976 ], [ 1511784.095894178375602, -1506346.023606759961694 ], [ 1848944.577712303027511, -1680364.336803211364895 ], [ 2360123.372726878151298, -1897887.228298775386065 ], [ 2545017.830498108640313, -2169790.842668230645359 ], [ 2871302.167741453275084, -2572208.191935024689883 ], [ 3143205.782110909000039, -2941997.10747748427093 ], [ 3306347.95073258318007, -3355290.601319056004286 ], [ 3415109.396480364724994, -3779460.239735405892134 ], [ 3284595.661583026871085, -4116620.721553530544043 ], [ 3143205.782110909000039, -4616923.37199332844466 ], [ 3143205.782110909000039, -4943207.709236674942076 ], [ 3273719.517008248716593, -4964959.998386231251061 ], [ 3469490.119354255497456, -4997588.432110565714538 ], [ 3556499.275952480733395, -5128102.167007904499769 ], [ 3393357.107330808416009, -5389129.636802581138909 ], [ 3121453.492961352691054, -5443510.359676471911371 ], [ 2719036.143694559112191, -5574024.094573810696602 ], [ 2403627.951025990769267, -5748042.407770262099802 ], [ 2088219.758357422426343, -5932936.865541491657495 ], [ 1655893.011509988456964, -6019946.022139717824757 ], [ 1438370.120014423504472, -5835051.564368488267064 ], [ 1144714.216495411470532, -5769794.696919818408787 ], [ 655287.71063039265573, -5758918.552345040254295 ], [ 339879.517961824312806, -5758918.552345040254295 ], [ 111480.481891481205821, -5791546.986069374717772 ], [ -182175.421627528965473, -6009069.877564939670265 ], [ -475831.325146540999413, -5998193.732990161515772 ], [ -715106.50579166226089, -5856803.853518044576049 ], [ -987010.120161117985845, -5595776.383723367005587 ], [ -1324170.601979242637753, -4964959.998386231251061 ], [ -1432932.047727024182677, -4323267.46847431641072 ], [ -1693959.517521701753139, -3496680.480791172944009 ], [ -2150757.589662386104465, -2909368.673753149807453 ], [ -2390032.770307506434619, -2561332.047360247001052 ], [ -2466165.782330953516066, -2148038.553518674336374 ], [ -2346528.19200839381665, -1843506.505424885079265 ], [ -2129005.300512828864157, -1506346.023606760427356 ], [ -1835349.39699381776154, -1277946.987536417320371 ], [ -1726587.951246036216617, -962538.794867849908769 ], [ -1650753.346077347407117, -635751.877658591722138 ], [ -1434655.202039896976203, -547582.963924446492456 ], [ -1006252.529793418012559, -471439.035991324752104 ], [ -588608.578121933154762, -419233.542032388853841 ] ] ] ] } },
{ "type": "Feature", "properties": { "id": 5 }, "geometry": { "type": "MultiPolygon", "coordinates": [ [ [ [ -548566.582968983217143, -5955213.807913264259696 ], [ -359475.201731643115636, -6002503.219042564742267 ], [ -159481.464513239247026, -5992259.538961761631072 ], [ 152266.024046901613474, -6052574.455864055082202 ], [ 619940.240762365050614, -5922060.720966717228293 ], [ 957100.722580489702523, -5889432.287242381833494 ], [ 1326889.638122948817909, -6009069.877564942464232 ], [ 1647053.184279401786625, -6012432.168993718922138 ], [ 2055591.324633089825511, -6030822.166714498773217 ], [ 2304260.414220670703799, -5806292.343138897791505 ], [ 2903930.601465789601207, -5726290.118620709516108 ], [ 3317224.095307361334562, -5889432.287242381833494 ], [ 3774022.167448045685887, -6096079.034163168631494 ], [ 4402119.516641488298774, -6085202.889588390477002 ], [ 4728403.85388483479619, -6139583.612462281249464 ], [ 5196078.07060029823333, -6324478.070233510807157 ], [ 5565866.986142757348716, -6367982.648532623425126 ], [ 5848646.745086989365518, -6346230.359383067116141 ], [ 6164054.937755557708442, -6291849.636509176343679 ], [ 6490339.274998904205859, -5824175.419793712906539 ], [ 6816623.612242250703275, -5432634.215101697482169 ], [ 7088527.22661170642823, -5225987.468180911615491 ], [ 7393059.274705493822694, -5204235.179031353443861 ], [ 8110884.816640855744481, -5617528.672872925177217 ], [ 9089737.828370893374085, -6509372.528004737570882 ], [ 9524783.611362023279071, -7270702.648239212110639 ], [ 9655297.346259361132979, -8184298.792520582675934 ], [ 9524783.611362023279071, -9163151.804250622168183 ], [ 8980976.382623111829162, -9598197.587241750210524 ], [ 7762848.190247951075435, -10294270.840027555823326 ], [ 7349554.696406381204724, -10664059.755570014938712 ], [ 7197288.672359487041831, -10903334.936215134337544 ], [ 6740490.600218800827861, -11077353.249411586672068 ], [ 6827499.7568170260638, -10783697.345892574638128 ], [ 6642605.299045797437429, -10620555.177270902320743 ], [ 6196683.371479889377952, -10805449.635042130947113 ], [ 5859522.889661764726043, -11099105.538561142981052 ], [ 5631123.853591423481703, -11349256.863781042397022 ], [ 5467981.684969749301672, -11566779.75527660548687 ], [ 5119945.058576846495271, -11653788.911874830722809 ], [ 4913298.311656061559916, -11838683.369646061211824 ], [ 4728403.8538848310709, -11980073.24911817908287 ], [ 4489128.673239710740745, -11849559.514220839366317 ], [ 4369491.082917150110006, -12132339.273165073245764 ], [ 4434747.950365819968283, -12317233.730936303734779 ], [ 4206348.914295476861298, -12436871.32125886157155 ], [ 3880064.577052131295204, -12447747.465833641588688 ], [ 3738674.697580014355481, -12589137.345305757597089 ], [ 3445018.794061002321541, -12904545.537974325940013 ], [ 3227495.902565438300371, -13100316.140320334583521 ], [ 3053477.589368986897171, -13122068.429469890892506 ], [ 2716317.107550862245262, -12556508.911581423133612 ], [ 1987615.421040722168982, -11653788.911874830722809 ], [ 1367675.180278364568949, -10925087.225364692509174 ], [ 747734.939516006037593, -10522669.876097898930311 ], [ 258308.433650986757129, -10207261.683429330587387 ], [ -655287.710630382876843, -10065871.803957212716341 ], [ -1427493.975439636036754, -9815720.478737313300371 ], [ -2058310.360776772256941, -9489436.1414939686656 ], [ -2417223.131744453217834, -8825991.322432497516274 ], [ -2569489.155791347846389, -8358317.105717034079134 ], [ -2710879.035263464786112, -7749253.009529454633594 ], [ -2525984.577492235228419, -7281578.792813991196454 ], [ -2101814.939075885340571, -6726895.419500302523375 ], [ -1655893.011509978445247, -6487620.238855181261897 ], [ -1025076.626172841992229, -6204840.479910948313773 ], [ -548566.582968983217143, -5955213.807913264259696 ] ] ] ] } },
{ "type": "Feature", "properties": { "id": 6 }, "geometry": { "type": "MultiPolygon", "coordinates": [ [ [ [ 7068842.481777352280915, -10952266.818341661244631 ], [ 7088527.226611703634262, -11175238.550584590062499 ], [ 6805747.46766747161746, -11545027.466127049177885 ], [ 6414206.262975456193089, -11871311.803370395675302 ], [ 6055293.492007775232196, -12317233.730936303734779 ], [ 5565866.986142754554749, -12556508.911581423133612 ], [ 5119945.058576848357916, -12828412.525950878858566 ], [ 4652270.841861383989453, -13078563.851170778274536 ], [ 4260729.637169368565083, -13056811.562021221965551 ], [ 4097587.468547695782036, -12763155.658502209931612 ], [ 3765865.059016960207373, -12561946.983868811279535 ], [ 3771303.131304349284619, -12458623.610408417880535 ], [ 4152752.818943629506975, -12438657.857770590111613 ], [ 4416676.81784157268703, -12266032.188784269616008 ], [ 4418426.910326378419995, -12016672.772015988826752 ], [ 4540946.2282838774845, -11877823.635154021903872 ], [ 4710877.327914011664689, -11970513.325861368328333 ], [ 4977835.680309782736003, -11780939.408219046890736 ], [ 5204395.122333948500454, -11632676.395935555920005 ], [ 5477117.646412563510239, -11554598.47335285320878 ], [ 5796889.751935259439051, -11167703.737023506313562 ], [ 6183516.157397052273154, -10816917.853759439662099 ], [ 6491851.99764534458518, -10683062.643705235794187 ], [ 6671022.929714916273952, -10645629.557273065671325 ], [ 6795844.674552692100406, -10755766.39095345698297 ], [ 6810602.644438556395471, -10840725.100169910117984 ], [ 6763104.366166359744966, -11068738.481431564316154 ], [ 6929541.683540392667055, -11005333.789098599925637 ], [ 7068842.481777352280915, -10952266.818341661244631 ] ] ] ] } },
{ "type": "Feature", "properties": { "id": 7 }, "geometry": { "type": "MultiPolygon", "coordinates": [ [ [ [ 3764456.278407923877239, -6091751.608168827369809 ], [ 3532027.950659229420125, -5900308.431817163713276 ], [ 3401514.215761890634894, -5737166.263195490464568 ], [ 3510275.661509673111141, -5530519.51627470459789 ], [ 3716922.408430458977818, -5400005.781377365812659 ], [ 3716922.408430458977818, -5062845.299559242092073 ], [ 3488523.372360116802156, -4790941.685189786367118 ], [ 3314505.059163665398955, -4540790.359969887882471 ], [ 3434142.649486226029694, -4258010.601025654003024 ], [ 3488523.372360116802156, -3855593.251758860424161 ], [ 3793055.420453906990588, -3529308.914515513926744 ], [ 4010578.311949471011758, -3409671.324192953761667 ], [ 4347738.793767595663667, -3398795.179618175607175 ], [ 4706651.56473527662456, -3485804.336216401308775 ], [ 5000307.468254287727177, -3159519.998973054811358 ], [ 5348344.094647190533578, -2920244.818327934015542 ], [ 5565866.986142754554749, -3105139.276099163573235 ], [ 5924779.757110435515642, -3181272.288122611120343 ], [ 6164054.93775555677712, -3203024.577272167429328 ], [ 6327197.106377230025828, -3246529.155571280512959 ], [ 6468586.985849346034229, -3366166.745893840678036 ], [ 6740490.600218801759183, -3681574.93856240902096 ], [ 6914508.913415253162384, -3931726.263782307971269 ], [ 6958013.491714365780354, -4388524.335922992788255 ], [ 6740490.600218801759183, -4888826.986362790688872 ], [ 6577348.431597128510475, -5334748.913928696885705 ], [ 6316320.961802451871336, -5758918.552345046773553 ], [ 6022665.058283439837396, -6074326.745013615116477 ], [ 5804566.370898623019457, -6349621.15739755704999 ], [ 5501500.997430587187409, -6360410.179272368550301 ], [ 5141697.347726404666901, -6139583.612462284974754 ], [ 4815413.010483058169484, -5965565.299265833571553 ], [ 4271605.781744147650898, -5965565.299265833571553 ], [ 3764456.278407923877239, -6091751.608168827369809 ] ] ] ] } },
{ "type": "Feature", "properties": { "id": 8 }, "geometry": { "type": "MultiPolygon", "coordinates": [ [ [ [ 3814348.448220266029239, -3517597.749244016595185 ], [ 3488523.372360115405172, -3420547.468767732381821 ], [ 3314505.059163664001971, -3061634.697800051420927 ], [ 3144305.452210967428982, -2944782.93839763244614 ], [ 2950346.578937293030322, -2679708.591161367017776 ], [ 2741665.618589902762324, -2412323.114648111630231 ], [ 2368280.481157959904522, -2039277.107770900242031 ], [ 2087243.239819040521979, -1781768.022806078428403 ], [ 1954986.987316388171166, -1549850.601905880495906 ], [ 1672207.228372154291719, -1332327.710410316474736 ], [ 1465560.481451368425041, -1060424.096040861215442 ], [ 1313294.457404473330826, -658006.746774067170918 ], [ 1204533.01165669132024, -255589.397507273592055 ], [ 725982.650366449728608, 766768.192521878052503 ], [ 573716.626319555100054, 1277946.987536454107612 ], [ 269184.578225764911622, 1789125.782551030162722 ], [ -154985.060190584976226, 2148038.553518711123616 ], [ -350755.662536593154073, 2376437.589589053299278 ], [ -426888.67456004046835, 2670093.493108064867556 ], [ -111480.481891472358257, 3300909.878445201553404 ], [ 432326.74684743816033, 3725079.516861551441252 ], [ 900000.963562901131809, 3888221.68548322468996 ], [ 1824473.252419049385935, 4018735.420380563475192 ], [ 2041996.143914613407105, 3877345.540908446535468 ], [ 1998491.565615500789136, 3224776.866421754006296 ], [ 2226890.601685842964798, 2941997.107477520592511 ], [ 2477041.926905741449445, 2898492.52917840750888 ], [ 2868583.131597756408155, 3344414.456744313240051 ], [ 3303628.914588884450495, 3627194.215688546653837 ], [ 3695170.119280901737511, 3866469.396333667449653 ], [ 4043206.745673804543912, 3909973.974632780067623 ], [ 4086711.323972917161882, 3627194.215688546653837 ], [ 3999702.167374690063298, 3366166.745893869549036 ], [ 3586408.673533118329942, 3257405.300146087538451 ], [ 3499399.516934893094003, 2561332.047360281925648 ], [ 3412390.360336667858064, 2213295.420967379119247 ], [ 4064959.034823360852897, 1995772.529471815098077 ], [ 4434747.950365819968283, 2213295.420967379119247 ], [ 5043812.046553398482502, 1712992.770527581684291 ], [ 5326591.805497632361948, 1016919.517741776071489 ], [ 5304839.516348076052964, 407855.421554196625948 ], [ 4608766.263562270440161, -157704.096334271132946 ], [ 4043206.745673804543912, -810272.770820963196456 ], [ 3695170.119280901737511, -1332327.710410317406058 ], [ 3738674.697580014355481, -1767373.493401446379721 ], [ 3803931.565028683282435, -2158914.698093461804092 ], [ 3629913.251832230947912, -2593960.481084589846432 ], [ 3477647.227785336785018, -2789731.08343059848994 ], [ 3434142.649486224167049, -2931120.962902714498341 ], [ 3771303.131304347887635, -3170396.143547834828496 ], [ 3814348.448220266029239, -3517597.749244016595185 ] ] ] ] } },
{ "type": "Feature", "properties": { "id": 9 }, "geometry": { "type": "MultiPolygon", "coordinates": [ [ [ [ 6508649.182782361283898, -3412638.894336138386279 ], [ 6275072.845033372752368, -3232629.352546251844615 ], [ 5925760.393096683546901, -3181361.436848633456975 ], [ 5739646.368219370022416, -3142001.569266930688173 ], [ 5325726.329802026040852, -2935794.531658984720707 ], [ 5163247.692546984180808, -3047498.594771825708449 ], [ 4929462.305526863783598, -3238236.846447971183807 ], [ 4822383.357282361947, -3357213.455608528107405 ], [ 4545405.410909376107156, -3446714.359531334601343 ], [ 4184415.732928458601236, -3404063.665451696142554 ], [ 3882820.145351305603981, -3479938.315821944735944 ], [ 3794548.37534282868728, -3357891.244832024443895 ], [ 3698971.124824333935976, -3119063.751852340996265 ], [ 3434142.649486224167049, -2931120.962902714498341 ], [ 3566664.287997367791831, -2675280.577443700283766 ], [ 3719172.645239032339305, -2370811.997567587532103 ], [ 3791291.721333670429885, -2083075.635923384223133 ], [ 3730813.721798243932426, -1688763.735583739820868 ], [ 3743694.456614527851343, -1259541.204409878468141 ], [ 4046795.321294923312962, -806132.106642748927698 ], [ 4509003.861295143142343, -272814.560488648945466 ], [ 4747571.459264851175249, -44924.87482592422748 ], [ 5116899.738095907494426, 255154.351724309817655 ], [ 5315300.012085601687431, 700749.302204912994057 ], [ 5231423.261309777386487, 1251180.549588802969083 ], [ 4896068.77569601405412, 1834353.314446147764102 ], [ 4543525.962975099682808, 2123942.053466899320483 ], [ 4396248.076125537976623, 2190648.436120154336095 ], [ 4006227.854119556490332, 2015349.589706416474655 ], [ 3601635.275937805417925, 2150213.782433666754514 ], [ 3414309.679967511445284, 2220972.699490753002465 ], [ 3506259.854282061103731, 2616214.746137626003474 ], [ 3565158.360287013463676, 3087402.79417724814266 ], [ 3809116.0484529286623, 3316012.504072353243828 ], [ 4034505.830013981554657, 3470577.733811741694808 ], [ 4067976.69343370385468, 3748969.314193435013294 ], [ 3838400.577065670862794, 3884373.203556763473898 ], [ 3459805.462527834810317, 3722635.439429015852511 ], [ 3053229.101004360243678, 3464434.336858605965972 ], [ 2703259.888635760173202, 3156129.652259817812592 ], [ 2585679.157364459242672, 3022218.263867502566427 ], [ 2444413.493181404657662, 3355290.601319093257189 ], [ 2640184.09552741330117, 3986106.986656228080392 ], [ 3140486.745967210270464, 4638675.661142921075225 ], [ 4032330.601099024526775, 5030216.865834936499596 ], [ 4771908.432183942757547, 5204235.179031388834119 ], [ 5685504.576465311460197, 5465262.648826065473258 ], [ 5881275.178811320103705, 6509372.528004773892462 ], [ 5489733.974119304679334, 7727500.720379933714867 ], [ 4967679.03452994953841, 8554087.708063077181578 ], [ 4641394.697286603040993, 9271913.249998439103365 ], [ 4576137.829837934114039, 9967986.502784244716167 ], [ 5119945.058576845563948, 10054995.659382469952106 ], [ 5990036.624559101648629, 9685206.74384001083672 ], [ 6664357.588195350952446, 8880372.045306423678994 ], [ 7186412.527784704230726, 8336564.816567513160408 ], [ 7925990.358869622461498, 7509977.828884368762374 ], [ 8600311.322505872696638, 6726895.419500337913632 ], [ 9231127.707843009382486, 6270097.347359653562307 ], [ 10122971.562974821776152, 5008464.576685380190611 ], [ 10623274.213414616882801, 3964354.697506671771407 ], [ 10862549.394059740006924, 2767978.79428106918931 ], [ 10906053.972358852624893, 1288823.132111232727766 ], [ 10732035.659162402153015, 201208.674633411690593 ], [ 10231733.008722603321075, -799396.626246184110641 ], [ 9905448.671479254961014, -1299699.276685981079936 ], [ 9535659.755936797708273, -2039277.107770899310708 ], [ 8665568.189954541623592, -2561332.047360254451632 ], [ 7751972.04567317198962, -2931120.962902713567019 ], [ 7534449.154177607037127, -2931120.962902713567019 ], [ 6508649.182782361283898, -3412638.894336138386279 ] ] ] ] } },
{ "type": "Feature", "properties": { "id": 10 }, "geometry": { "type": "MultiPolygon", "coordinates": [ [ [ [ 6088435.391784993000329, 9567763.053925238549709 ], [ 5032935.901978621259332, 10751068.912168277427554 ], [ 4141092.046846808865666, 11816931.080496542155743 ], [ 2922963.854471648111939, 12991554.69457258656621 ], [ 1857101.686143383383751, 13448352.76671327278018 ], [ 617221.204618668183684, 13905150.83885395899415 ], [ -318127.228812257759273, 14296692.043545972555876 ], [ -448640.963709596544504, 14905756.139733552932739 ], [ -209365.783064476214349, 15558324.814220245927572 ], [ 95166.265029313974082, 15971618.308061817660928 ], [ 921753.252712458372116, 16210893.488706938922405 ], [ 1683083.372946932911873, 16297902.645305164158344 ], [ 3096982.167668100446463, 15993370.597211373969913 ], [ 4206348.914295477792621, 15797599.994865365326405 ], [ 5903027.467960879206657, 14992765.296331778168678 ], [ 6968889.636289143934846, 14383701.200144197791815 ], [ 8078256.382916521281004, 13622371.079909723252058 ], [ 9470402.888488132506609, 12425995.176684120669961 ], [ 10840797.104910187423229, 10707564.333869162946939 ], [ 11797897.827490668743849, 9097894.936801988631487 ], [ 12515723.369426030665636, 7183693.491641024127603 ], [ 12776750.839220706373453, 5639280.962022516876459 ], [ 12276448.188780911266804, 4812693.974339373409748 ], [ 11188833.731303088366985, 4921455.420087154954672 ], [ 10536265.056816395372152, 5291244.335629614070058 ], [ 9687925.779983695596457, 6074326.745013644918799 ], [ 9078861.683796115219593, 6618133.973752556368709 ], [ 8491549.876758093014359, 7140188.913341909646988 ], [ 7751972.045673174783587, 8097289.635922392830253 ], [ 6947137.347139587625861, 8880372.045306423678994 ], [ 6088435.391784993000329, 9567763.053925238549709 ] ] ] ] } }
]
}
