{
"type": "FeatureCollection",
"name": "map008",
"crs": { "type": "name", "properties": { "name": "urn:ogc:def:crs:ESRI::102016" } },
"features": [
{ "type": "Feature", "properties": { "id": 1 }, "geometry": { "type": "MultiPolygon", "coordinates": [ [ [ [ 2024322.408980596810579, -10952277.586801666766405 ], [ 2394111.324523055925965, -11071915.177124226465821 ], [ 2883537.830388074740767, -11028410.598825113847852 ], [ 3155441.444757530465722, -10756506.984455658122897 ], [ 3383840.480827872641385, -10332337.346039308235049 ], [ 3938523.854141561314464, -10071309.876244630664587 ], [ 4493207.227455249987543, -9451369.635482273995876 ], [ 4993509.87789504788816, -8951066.985042475163937 ], [ 5363298.793437507003546, -8646534.936948684975505 ], [ 6363904.09431710280478, -8613906.503224350512028 ], [ 6668436.142410892993212, -8396383.61172878742218 ], [ 6994720.479654239490628, -8124479.997359331697226 ], [ 7582032.286692261695862, -8570401.924925237894058 ], [ 7799555.178187826648355, -9320855.900584934279323 ], [ 7788679.033613048493862, -9810282.40644995495677 ], [ 7745174.455313935875893, -10223575.90029152482748 ], [ 7647289.154140930622816, -11061039.032549448311329 ], [ 7440642.407220145687461, -11833245.297358701005578 ], [ 7081729.636252464726567, -12355300.236948054283857 ], [ 6483541.684639662504196, -13062249.634308639913797 ], [ 5896229.877601640298963, -13388533.971551984548569 ], [ 5124023.612792386673391, -13725694.453370109200478 ], [ 4351817.347983133979142, -13801827.465393558144569 ], [ 3699248.673496440984309, -13693066.019645774737 ], [ 2916166.264112410135567, -13399410.116126764565706 ], [ 2252721.445050938986242, -12627203.851317510008812 ], [ 1915560.963232814334333, -11952882.887681260704994 ], [ 1817675.662059810943902, -11387323.369792794808745 ], [ 2024322.408980596810579, -10952277.586801666766405 ] ] ] ] } },
{ "type": "Feature", "properties": { "id": 2 }, "geometry": { "type": "MultiPolygon", "coordinates": [ [ [ [ 2024322.408980596810579, -10952277.586801666766405 ], [ 1203173.493584842886776, -10359527.707476254552603 ], [ 528852.529948594048619, -10065871.803957242518663 ], [ -515257.349230114370584, -10000614.936508573591709 ], [ -1504986.505534931551665, -9967986.502784239128232 ], [ -2244564.336619849782437, -9804844.334162566810846 ], [ -2886256.866531764622778, -9010885.780203755944967 ], [ -2810123.85450831707567, -8053785.057623273693025 ], [ -2385954.216091966722161, -7520853.973459141328931 ], [ -1700757.107880939496681, -7771005.298679040744901 ], [ -928550.843071686336771, -7771005.298679040744901 ], [ -14954.698790316935629, -7792757.587828597053885 ], [ 855136.867191940080374, -7760129.154104262590408 ], [ 1888370.601795870345086, -7618739.274632145650685 ], [ 2453930.119684337172657, -7955899.756450269371271 ], [ 2888975.902675465214998, -8184298.792520612478256 ], [ 3280517.107367481570691, -8728106.021259523928165 ], [ 3498039.998863045591861, -9532940.719793111085892 ], [ 3356949.462819590698928, -10382277.808054689317942 ], [ 3356949.462819583248347, -10382277.808054702356458 ], [ 3144565.30018275231123, -10767383.12903043627739 ], [ 2835458.450463560875505, -11032684.321485070511699 ], [ 2763464.18150134338066, -11039083.812059490010142 ], [ 2443149.894072000402957, -11067556.193164320662618 ], [ 2024322.408980596810579, -10952277.586801666766405 ] ] ] ] } },
{ "type": "Feature", "properties": { "id": 3 }, "geometry": { "type": "MultiPolygon", "coordinates": [ [ [ [ 2018931.736671583727002, -7696573.797346512787044 ], [ 1888370.601795870345086, -7618739.274632145650685 ], [ 1882077.248615772696212, -7619600.470330474898219 ], [ 2714957.589479013811797, -7455597.106010472401977 ], [ 3421906.986839597579092, -7205445.780790572986007 ], [ 3922209.637279395479709, -6737771.564075110480189 ], [ 4204989.396223628893495, -6106955.178737973794341 ], [ 4727044.335812984034419, -6302725.781083982437849 ], [ 5216470.841678002849221, -6367982.648532651364803 ], [ 5814658.793290803208947, -6335354.214808316901326 ], [ 6423722.889478383585811, -6041698.311289304867387 ], [ 6804387.949595620855689, -5334748.913928721100092 ], [ 7239433.732586748898029, -5345625.058503499254584 ], [ 7565718.069830095395446, -5693661.684896402060986 ], [ 7587470.358979651704431, -6248345.058210090734065 ], [ 7456956.624082313850522, -7085808.190468013286591 ], [ 6970650.32362809125334, -8144538.46071445569396 ], [ 6326409.442714451812208, -8615129.154907045885921 ], [ 5363298.793437507003546, -8646534.936948684975505 ], [ 5336803.608251731842756, -8668354.501219322904944 ], [ 4993509.87789504788816, -8951066.985042475163937 ], [ 4498645.299742640927434, -9445931.563194883987308 ], [ 4493207.227455249987543, -9451369.635482273995876 ], [ 4332421.025688735768199, -9631071.860986024141312 ], [ 3936166.842640229035169, -10072419.058127610012889 ], [ 3652286.675040271598846, -10206009.725233472883701 ], [ 3411862.728677053935826, -10319150.40587498806417 ], [ 3476272.855333785060793, -9663974.613513806834817 ], [ 3498039.998863045591861, -9532940.719793111085892 ], [ 3491524.677402320783585, -9508834.030388429760933 ], [ 3362724.907158809248358, -9032274.880487436428666 ], [ 3285181.48523140931502, -8745364.219356056302786 ], [ 3280517.107367481570691, -8728106.021259523928165 ], [ 2888975.902675465214998, -8184298.792520612478256 ], [ 2845492.639701339881867, -8161470.07945919688791 ], [ 2018931.736671583727002, -7696573.797346512787044 ] ] ] ] } },
{ "type": "Feature", "properties": { "id": 4 }, "geometry": { "type": "MultiPolygon", "coordinates": [ [ [ [ 3923609.537076149135828, -6734648.710682352073491 ], [ 3512504.036780524533242, -7120757.234106663614511 ], [ 3097727.414638068526983, -7320155.475569576025009 ], [ 2708610.801741659641266, -7456846.85881466511637 ], [ 2520171.771719052456319, -7493952.591026899404824 ], [ 2151953.284710266627371, -7566458.889604762196541 ], [ 1944773.199276591651142, -7607254.943208346143365 ], [ 1271060.083612338639796, -7703213.345541471615434 ], [ 626651.283552037319168, -7768697.36349075846374 ], [ -176969.199164293240756, -7788900.099724454805255 ], [ -622638.479745743330568, -7778288.926377277821302 ], [ -928550.843071686336771, -7771005.298679040744901 ], [ -1352720.48148803669028, -7771005.298679040744901 ], [ -1657252.529581826645881, -7771005.298679040744901 ], [ -2330961.740310690365732, -7540930.591601512394845 ], [ -2581724.818437974434346, -7227198.069940129294991 ], [ -2375078.071517188567668, -6737771.564075110480189 ], [ -1733385.541605273960158, -6302725.781083982437849 ], [ -1243959.035740254446864, -6074326.745013639330864 ], [ -591390.361253561917692, -5900308.431817188858986 ], [ 148187.46983135631308, -5758918.55234507098794 ], [ 757251.566018936224282, -5628404.817447733134031 ], [ 1224925.78273439919576, -5595776.383723398670554 ], [ 2051512.770417543593794, -5519643.371699950657785 ], [ 2878099.758100687060505, -5541395.66084950696677 ], [ 3519792.288012601900846, -5552271.805424285121262 ], [ 3835200.48068117024377, -5835051.564368519000709 ], [ 4195050.107666677795351, -6129127.437826556153595 ], [ 3923609.537076149135828, -6734648.710682352073491 ] ] ] ] } },
{ "type": "Feature", "properties": { "id": 5 }, "geometry": { "type": "MultiPolygon", "coordinates": [ [ [ [ 3703778.374305950943381, -5717224.848307977430522 ], [ 3519792.288012601900846, -5552271.805424285121262 ], [ 3486804.647905125748366, -5551712.692880090326071 ], [ 3215260.239918811712414, -5225987.468180939555168 ], [ 3030365.782147582154721, -4867074.697213258594275 ], [ 3095622.649596252012998, -4334143.613049127161503 ], [ 3530668.432587380055338, -3920850.119207554496825 ], [ 4020094.938452399801463, -3746831.806011103093624 ], [ 4835805.781560765579343, -3648946.504838099237531 ], [ 5782030.359566470608115, -3757707.950585881248116 ], [ 6391094.455754050984979, -3888221.685483220033348 ], [ 6902273.250768626108766, -4225382.167301344685256 ], [ 6989282.407366851344705, -4573418.793694247491658 ], [ 6868245.388073395937681, -5336345.349890665151179 ], [ 6804387.949595620855689, -5334748.913928721100092 ], [ 6558438.901672982610762, -5791511.43149933591485 ], [ 6370774.497157807461917, -6067227.000443868339062 ], [ 5967358.174715322442353, -6261731.298764351755381 ], [ 5444783.843644919805229, -6355529.212061728350818 ], [ 4873801.046450820751488, -6322293.342502360232174 ], [ 4224059.896299952641129, -6114106.616266595199704 ], [ 3703778.374305950943381, -5717224.848307977430522 ] ] ] ] } },
{ "type": "Feature", "properties": { "id": 6 }, "geometry": { "type": "MultiPolygon", "coordinates": [ [ [ [ 1214102.321314181666821, -5596531.508938762359321 ], [ 1377191.806781294289976, -5084597.588708823546767 ], [ 1235801.927309177815914, -4432028.914222130551934 ], [ 1355439.517631737980992, -3866469.396333663724363 ], [ 1616466.987426415551454, -2963749.396627072244883 ], [ 1475077.10795429861173, -2213295.420967375393957 ], [ 1040031.324963170103729, -1680364.336803243262693 ], [ 1485953.252529076766223, -1636859.758504130411893 ], [ 1855742.168071535881609, -1734745.059677134267986 ], [ 2453930.119684337172657, -2104533.975219593383372 ], [ 2888975.90267546614632, -2604836.625659391283989 ], [ 3182631.806194477248937, -3192148.432697414420545 ], [ 3513803.977136344183236, -3936871.351886038668454 ], [ 3095622.649596252012998, -4334143.613049127161503 ], [ 3092007.681559497490525, -4363665.852015954442322 ], [ 3038050.936418311670423, -4804312.604002300649881 ], [ 3030365.782147582154721, -4867074.697213258594275 ], [ 3182252.956456023734063, -5161914.506164939142764 ], [ 3215260.239918811712414, -5225987.468180939555168 ], [ 3486751.259285105392337, -5551648.651715031825006 ], [ 2713640.409340200945735, -5537067.783250547014177 ], [ 2051512.770417543593794, -5519643.371699950657785 ], [ 1890736.279937714803964, -5534451.732665197923779 ], [ 1214102.321314181666821, -5596531.508938762359321 ] ] ] ] } },
{ "type": "Feature", "properties": { "id": 7 }, "geometry": { "type": "MultiPolygon", "coordinates": [ [ [ [ -1274324.91384136909619, -6088497.488127492368221 ], [ -1428853.493511483771726, -5215111.323606161400676 ], [ -1309215.903188923606649, -4453781.203371686860919 ], [ -1080816.867118581198156, -3822964.818034550640732 ], [ -602266.505828340072185, -3050758.553225297480822 ], [ -80211.566238985862583, -2409066.023313383571804 ], [ 670242.409420710988343, -1745621.204251912422478 ], [ 1042169.188636949984357, -1682983.219803623622283 ], [ 1426947.283306856639683, -2154336.385774258989841 ], [ 1477055.992677133530378, -2223798.732188576366752 ], [ 1493005.032102272845805, -2308451.326060468796641 ], [ 1532350.046961564337835, -2517282.55877516977489 ], [ 1604473.360883940942585, -3005227.35508646350354 ], [ 1355439.517631737980992, -3866469.396333663724363 ], [ 1235801.927309177815914, -4432028.914222130551934 ], [ 1239515.803156282985583, -4449169.87967030890286 ], [ 1376891.695601730141789, -5083212.46018775831908 ], [ 1351737.226000069407746, -5164498.89742789324373 ], [ 1214102.321314181666821, -5596531.508938762359321 ], [ 1218157.850093701621518, -5596159.42250104341656 ], [ 1218129.65579612320289, -5596250.532114441506565 ], [ 757251.566018936224282, -5628404.817447733134031 ], [ 672576.801427005906589, -5646549.409860289655626 ], [ 672576.801427004626021, -5646549.409860289655626 ], [ -14294.369545318595556, -5789981.256931788288057 ], [ -591390.361253561917692, -5900308.431817188858986 ], [ -1243959.035740254446864, -6074326.745013639330864 ], [ -1274324.913841366535053, -6088497.488127491436899 ], [ -1274324.91384136909619, -6088497.488127492368221 ] ] ] ] } },
{ "type": "Feature", "properties": { "id": 8 }, "geometry": { "type": "MultiPolygon", "coordinates": [ [ [ [ -6268737.829287788830698, -1636859.758504129946232 ], [ -6627650.600255469791591, -1212690.120087780058384 ], [ -6823421.202601477503777, -897281.927419212181121 ], [ -7062696.383246597833931, -407855.421554192434996 ], [ -7171457.828994380310178, 331722.409530725795776 ], [ -7019191.804947485215962, 1147433.252639091573656 ], [ -6845173.491751033812761, 1571602.891055441927165 ], [ -6257861.684713010676205, 2148038.553518686909229 ], [ -5822815.901721881702542, 2746226.505131488665938 ], [ -5104990.359786519780755, 3366166.745893846265972 ], [ -4191394.215505150146782, 3822964.818034531548619 ], [ -2897133.011106543242931, 3866469.396333644166589 ], [ -1668128.674156606197357, 3333538.312169511802495 ], [ -819789.397323904559016, 2343809.155864694621414 ], [ -373867.469757998362184, 1245318.553812095429748 ], [ -450000.48178144544363, 266465.54208205640316 ], [ -537009.638379670679569, -647130.602199313230813 ], [ -819789.397323904559016, -1462841.445307679474354 ], [ -1374472.770637594163418, -1887011.083724029362202 ], [ -2277192.770344184711576, -2235047.710116932168603 ], [ -3767224.577088799327612, -2583084.336509834975004 ], [ -4702573.010519726201892, -2593960.481084613129497 ], [ -5181123.371809967793524, -2593960.481084613129497 ], [ -5637921.443950652144849, -2267676.14384126663208 ], [ -6268737.829287788830698, -1636859.758504129946232 ] ] ] ] } },
{ "type": "Feature", "properties": { "id": 9 }, "geometry": { "type": "MultiPolygon", "coordinates": [ [ [ [ -7043336.932600540108979, -447454.297875674907118 ], [ -7465113.732513391412795, -407855.421554192900658 ], [ -7802274.214331516064703, -690635.180498425848782 ], [ -8161186.985299197025597, -1256194.698386892676353 ], [ -8617985.057439882308245, -2028400.963196146301925 ], [ -9205296.864477906376123, -1778249.637976246885955 ], [ -9498952.767996916547418, -1593355.180205017328262 ], [ -9901370.117263711988926, -1212690.120087780058384 ], [ -10031883.852161049842834, -777644.337096652016044 ], [ -9988379.273861937224865, -386103.132404636591673 ], [ -9770856.382366372272372, 342598.554105503484607 ], [ -9379315.177674356848001, 1060424.096040865872055 ], [ -9053030.840431010350585, 1756497.348826671484858 ], [ -8585356.623715547844768, 2561332.047360259108245 ], [ -7813150.358906294219196, 3181272.288122616708279 ], [ -7291095.419316940009594, 3474928.191641628742218 ], [ -6464508.431633796542883, 3659822.649412858299911 ], [ -5975081.925768776796758, 3583689.637389410752803 ], [ -5779311.323422769084573, 3192148.432697394862771 ], [ -5863263.401545922271907, 2690611.192873433232307 ], [ -6351216.050547875463963, 2056412.972236319910735 ], [ -6351216.050547881983221, 2056412.972236312925816 ], [ -6845173.491751033812761, 1571602.891055441927165 ], [ -6860450.282329900190234, 1534365.714019454084337 ], [ -6860450.282329901121557, 1534365.714019453618675 ], [ -6860450.282329902984202, 1534365.714019448962063 ], [ -7019191.804947485215962, 1147433.252639091573656 ], [ -7050947.680775165557861, 977312.489276517764665 ], [ -7050947.680775166489184, 977312.489276515436359 ], [ -7050947.680775170214474, 977312.489276495995 ], [ -7171457.828994380310178, 331722.409530725795776 ], [ -7165840.175996400415897, 293522.36914446100127 ], [ -7165840.175996400415897, 293522.369144459604286 ], [ -7165840.175996396690607, 293522.36914443509886 ], [ -7062696.383246597833931, -407855.421554192434996 ], [ -7043336.932600540108979, -447454.29787567385938 ], [ -7043336.932600540108979, -447454.297875674907118 ] ] ] ] } },
{ "type": "Feature", "properties": { "id": 10 }, "geometry": { "type": "MultiPolygon", "coordinates": [ [ [ [ -8418269.479724114760756, -1690786.534200445050374 ], [ -8243752.985113009810448, -1395770.555215005530044 ], [ -7829526.225414753891528, -733577.743417467456311 ], [ -7829526.225414746440947, -733577.743417455349118 ], [ -7829526.225414746440947, -733577.743417455116287 ], [ -7472322.417219338007271, -413901.415178535215091 ], [ -7063175.937242897227407, -445591.69592284981627 ], [ -6912458.436186083592474, -715160.313268882222474 ], [ -6823421.202601477503777, -897281.927419212181121 ], [ -6694531.887580544687808, -1104936.934952936600894 ], [ -6694531.887580543756485, -1104936.9349529389292 ], [ -6694531.887580542825162, -1104936.934952939860523 ], [ -6627650.600255469791591, -1212690.120087780058384 ], [ -6497286.881145369261503, -1366756.333581534679979 ], [ -6497286.881145369261503, -1366756.33358153514564 ], [ -6497286.88114536460489, -1366756.333581540500745 ], [ -6268737.829287788830698, -1636859.758504129946232 ], [ -6257861.684713009744883, -1647735.903078909032047 ], [ -6366623.130460792221129, -2670093.493108060210943 ], [ -6573269.877381578087807, -3594565.781964207999408 ], [ -6736412.046003251336515, -4073116.143254449591041 ], [ -7051820.238671819679439, -4508161.926245577633381 ], [ -7301971.563891718164086, -4573418.793694247491658 ], [ -7726141.202308068983257, -4258010.601025679148734 ], [ -7954540.238378411158919, -3398795.179618200287223 ], [ -8019797.105827080085874, -2822359.517154955305159 ], [ -8237319.997322645038366, -2354685.300439491868019 ], [ -8617112.408661361783743, -2026925.771213409956545 ], [ -8418269.479724114760756, -1690786.534200445050374 ] ] ] ] } },
{ "type": "Feature", "properties": { "id": 11 }, "geometry": { "type": "MultiPolygon", "coordinates": [ [ [ [ -7051820.238671819679439, -4508161.926245577633381 ], [ -6287771.082293650135398, -5312996.624779166653752 ], [ -5635202.407806957140565, -6531124.817154327407479 ], [ -5134899.75736716017127, -7792757.587828598916531 ], [ -5265413.492264498025179, -9010885.780203759670258 ], [ -5852725.299302522093058, -9815720.478737346827984 ], [ -7375385.539771471172571, -10664059.75557004660368 ], [ -9420100.719829775393009, -10881582.647065611556172 ], [ -11573577.345635861158371, -10250766.261728474870324 ], [ -13618292.525694165378809, -8749858.310409082099795 ], [ -15184457.344462227076292, -7335959.515687914565206 ], [ -15902282.886397588998079, -5508767.22712517529726 ], [ -15837026.018948920071125, -4334143.613049128092825 ], [ -15162705.055312670767307, -2941997.10747751686722 ], [ -14292613.489330414682627, -2158914.698093486018479 ], [ -12530678.068216342478991, -1593355.180205019190907 ], [ -10899256.381999611854553, -1201813.975513003766537 ], [ -9911248.450409611687064, -1179762.342934783315286 ], [ -9901370.117263711988926, -1212690.120087780058384 ], [ -9739255.186660857871175, -1366042.081468857359141 ], [ -9498952.767996916547418, -1593355.180205017328262 ], [ -9419913.752707909792662, -1643120.486127725802362 ], [ -9205296.864477906376123, -1778249.637976246885955 ], [ -9056806.709490932524204, -1841495.444729957729578 ], [ -8658730.346810588613153, -2011046.488093808060512 ], [ -8263108.398459957912564, -2332430.000007170252502 ], [ -8030629.726479593664408, -2799069.382752051576972 ], [ -7965481.3722177837044, -3302148.497370409313589 ], [ -7954540.238378411158919, -3398795.179618200287223 ], [ -7856816.077330055646598, -3766424.166419156361371 ], [ -7728294.620337465777993, -4249909.64748651906848 ], [ -7726141.202308068983257, -4258010.601025679148734 ], [ -7301971.563891718164086, -4573418.793694247491658 ], [ -7051820.238671819679439, -4508161.926245577633381 ] ] ] ] } },
{ "type": "Feature", "properties": { "id": 12 }, "geometry": { "type": "MultiPolygon", "coordinates": [ [ [ [ 5599854.937938936054707, 7999404.33474937081337 ], [ 5686864.094537161290646, 7172817.347066227346659 ], [ 5164809.154947806149721, 6172212.046186631545424 ], [ 3685653.492777969688177, 5824175.419793728739023 ], [ -360272.289039522409439, 5606652.52829816378653 ], [ -3710124.818071212619543, 5737166.263195503503084 ], [ -8800160.479067414999008, 6563753.250878646969795 ], [ -10583848.189331041648984, 8216927.226244933903217 ], [ -10061793.249741688370705, 9522064.575218319892883 ], [ -8713151.322469189763069, 10914211.080789931118488 ], [ -6102876.624522417783737, 12262853.008062429726124 ], [ -2666014.938892506062984, 13524485.778736701235175 ], [ -12235.662646621465683, 14133549.874924281612039 ], [ 770846.746737409383059, 13524485.778736701235175 ], [ 1727947.469317894428968, 13306962.887241138145328 ], [ 3816167.227675307542086, 13393972.043839363381267 ], [ 4294717.588965550065041, 12610889.634455332532525 ], [ 4599249.637059342116117, 11436266.020379284396768 ], [ 4555745.058760229498148, 10131128.671405900269747 ], [ 4642754.215358454734087, 8869495.90073162689805 ], [ 5599854.937938936054707, 7999404.33474937081337 ] ] ] ] } },
{ "type": "Feature", "properties": { "id": 13 }, "geometry": { "type": "MultiPolygon", "coordinates": [ [ [ [ 4636781.989225085824728, 8956093.179665483534336 ], [ 4636781.989225082099438, 8956093.179665526375175 ], [ 4560163.115268962457776, 10263670.366667898371816 ], [ 4599249.637059342116117, 11436266.020379284396768 ], [ 4294717.588965550065041, 12610889.634455332532525 ], [ 3816167.227675307542086, 13393972.043839363381267 ], [ 2794676.713296841364354, 13351409.939073594287038 ], [ 2794676.713296832982451, 13351409.939073594287038 ], [ 1659314.509840118233114, 13322561.287122450768948 ], [ 1549804.825850243447348, 13347449.851665604859591 ], [ 775547.634372874628752, 13523417.395183186978102 ], [ 55531.08431930502411, 14080842.405061895027757 ], [ 335800.963746283203363, 14829623.127710087224841 ], [ 1793204.336766563355923, 15286421.199850771576166 ], [ 4686258.793657567352057, 14764366.260261418297887 ], [ 8123120.479287480935454, 13328715.176390694454312 ], [ 10929165.779580259695649, 11088229.393986381590366 ], [ 12517082.887497877702117, 9021761.924778522923589 ], [ 13343669.875181021168828, 7629615.419206911697984 ], [ 13408926.742629690095782, 6085202.889588406309485 ], [ 12995633.248788120225072, 5193359.034456592053175 ], [ 12430073.730899652466178, 4301515.17932477965951 ], [ 11908018.791310297325253, 3975230.842081433162093 ], [ 11146688.671075822785497, 3692451.083137199282646 ], [ 10450615.418290017172694, 4888826.986362801864743 ], [ 9602276.141457317396998, 5932936.865541510283947 ], [ 8710432.286325505003333, 7107560.479617558419704 ], [ 7688074.696296352893114, 7955899.7564502581954 ], [ 6948496.865211434662342, 8260431.804544048383832 ], [ 6752726.262865426018834, 7629615.419206911697984 ], [ 6078405.299229178577662, 7781881.443253805860877 ], [ 5589028.006688026711345, 8009246.99952292535454 ], [ 5589028.006688022986054, 8009246.999522928148508 ], [ 4636781.989225085824728, 8956093.179665483534336 ] ] ] ] } },
{ "type": "Feature", "properties": { "id": 14 }, "geometry": { "type": "MultiPolygon", "coordinates": [ [ [ [ 7042585.169166024774313, 8221689.561739217489958 ], [ 7042585.169166032224894, 8221689.561739213764668 ], [ 7771672.30084297247231, 7886531.531400935724378 ], [ 8004261.242509374395013, 7693532.196826687082648 ], [ 8556119.331047646701336, 7235607.399954504333436 ], [ 9320773.980527084320784, 6303695.809205720201135 ], [ 9602276.141457317396998, 5932936.865541510283947 ], [ 9955584.499102940782905, 5498095.809977665543556 ], [ 10815929.239522373303771, 4260943.856119688600302 ], [ 11146688.671075822785497, 3692451.083137199282646 ], [ 11287594.8195840716362, 3744787.652583120390773 ], [ 11168440.960225379094481, 1604231.324779782444239 ], [ 10950918.068729816004634, 38066.506011720746756 ], [ 10755147.466383809223771, -897281.927419204264879 ], [ 10646386.020636027678847, -1615107.469354566186666 ], [ 10276597.105093566700816, -2224171.56554214656353 ], [ 9602276.141457317396998, -2767978.794281058013439 ], [ 8579918.551428167149425, -3072510.842374846339226 ], [ 8057863.6118388120085, -3007253.974926177412271 ], [ 7166019.756706999614835, -2680969.637682830914855 ], [ 6752726.262865426018834, -1941391.806597912684083 ], [ 6665717.106267200782895, -396979.276979407295585 ], [ 6643964.81711764447391, 1190937.830938210710883 ], [ 6643964.81711764447391, 2452570.60161248408258 ], [ 6448194.214771637693048, 3409671.324192966334522 ], [ 6469946.503921194002032, 4888826.986362802796066 ], [ 6730973.973715869709849, 6542000.96172909066081 ], [ 6765041.550214741379023, 7669298.011776927858591 ], [ 7042585.169166024774313, 8221689.561739217489958 ] ] ] ] } },
{ "type": "Feature", "properties": { "id": 15 }, "geometry": { "type": "MultiPolygon", "coordinates": [ [ [ [ 1995917.87856965418905, -1821399.135257789166644 ], [ 1995917.87856965395622, -1821399.135257789166644 ], [ 1855742.168071535881609, -1734745.059677134267986 ], [ 1485953.252529076766223, -1636859.758504130411893 ], [ 1363567.78537302557379, -1648799.804080330533907 ], [ 1010121.927382530644536, -244713.252932513132691 ], [ 466314.698643621057272, 821148.915395751595497 ], [ -186253.975843071937561, 2517827.469061153009534 ], [ -12235.662646619603038, 3387919.035043410025537 ], [ 770846.746737411245704, 4258010.60102566704154 ], [ 1597433.734420554712415, 4736560.962315908633173 ], [ 2859066.505094828084111, 5041093.010409697890282 ], [ 3990185.540871761739254, 5258615.901905261911452 ], [ 4903781.685153130441904, 5019340.721260141581297 ], [ 5860882.407733613625169, 4301515.17932477965951 ], [ 6449181.886278969235718, 3476832.986691489815712 ], [ 6448194.214771637693048, 3409671.324192966334522 ], [ 6565443.043544055894017, 2836454.827972251921892 ], [ 6565443.043544059619308, 2836454.827972231898457 ], [ 6643964.81711764447391, 1908763.372873573563993 ], [ 6643964.81711764447391, 1190937.830938210710883 ], [ 6649666.120671477168798, 774742.671508436556906 ], [ 6649666.120671477168798, 774742.671508396975696 ], [ 6649666.120671481825411, 774742.671508076949976 ], [ 6665717.106267200782895, -396979.276979407295585 ], [ 6667420.469230068847537, -427213.969570314977318 ], [ 6667420.469230068847537, -427213.969570317305624 ], [ 6696227.895148332230747, -938545.779619500506669 ], [ 6752726.262865426018834, -1941391.806597912684083 ], [ 7166019.756706999614835, -2680969.637682830914855 ], [ 7232463.527655959129333, -2705278.334371474571526 ], [ 6817983.130314096808434, -3268281.444720854982734 ], [ 6290450.327664516866207, -3866655.086606891360134 ], [ 5782030.359566470608115, -3757707.950585881248116 ], [ 5567929.9293950824067, -3733098.705738595221192 ], [ 5567929.929395079612732, -3733098.70573859475553 ], [ 5567929.929395075887442, -3733098.70573859475553 ], [ 4835805.781560765579343, -3648946.504838099237531 ], [ 4020094.938452399801463, -3746831.806011103093624 ], [ 3657101.82521384768188, -3875896.024051477201283 ], [ 3135320.577294189948589, -3097525.974896839354187 ], [ 2888975.90267546614632, -2604836.625659391283989 ], [ 2595355.121259491890669, -2267172.727031021378934 ], [ 2595355.121259491425008, -2267172.727031020447612 ], [ 2595355.121259490959346, -2267172.727031019981951 ], [ 2453930.119684337172657, -2104533.975219593383372 ], [ 1995917.878569654887542, -1821399.135257789632306 ], [ 1995917.87856965418905, -1821399.135257789166644 ] ] ] ] } }
]
}
