{
"type": "FeatureCollection",
"name": "map053",
"crs": { "type": "name", "properties": { "name": "urn:ogc:def:crs:ESRI::102016" } },
"features": [
{ "type": "Feature", "properties": { "id": 1 }, "geometry": { "type": "MultiPolygon", "coordinates": [ [ [ [ -1258607.750496543943882, -6261513.39208772778511 ], [ -833658.496522082947195, -6142527.600974878296256 ], [ -408709.242547621950507, -6066036.735259475186467 ], [ 254211.593652538023889, -5981046.884464583359659 ], [ 925631.414932186715305, -5913055.003828668966889 ], [ 1690540.072086216881871, -5845063.123192755505443 ], [ 2225976.132094038650393, -5879059.063510712236166 ], [ 2710418.281624924391508, -5955549.929226115345955 ], [ 3473202.192509082145989, -5972547.899385094642639 ], [ 4034135.207755370996892, -5743075.302238885313272 ], [ 4459084.461729833856225, -5785570.227636331692338 ], [ 5342978.909996714442968, -5768572.257477352395654 ], [ 6073891.626832786947489, -5870560.078431223519146 ], [ 6838800.283986818045378, -5768572.257477352395654 ], [ 7450727.209710042923689, -6125529.630815899930894 ], [ 7586710.970981869846582, -6618470.765426275320351 ], [ 7671700.821776762604713, -7247395.661308478564024 ], [ 7960666.314479395747185, -7196401.750831542536616 ], [ 8908303.150842443108559, -7213399.720990520901978 ], [ 9384246.315293841063976, -7893318.527349659241736 ], [ 9622217.897519536316395, -8709221.09498062543571 ], [ 9231264.583863034844398, -9576117.573088526725769 ], [ 8636335.628298789262772, -10324028.260083578526974 ], [ 8330372.165437175892293, -10528003.901991318911314 ], [ 8347370.135596153326333, -11394900.380099220201373 ], [ 8636335.628298789262772, -11853845.574391638860106 ], [ 8874307.21052448451519, -12380782.649319970980287 ], [ 8500351.867026958614588, -13128693.336315022781491 ], [ 7548465.538124167360365, -13587638.530607441440225 ], [ 6256619.806041804142296, -13808612.142674161121249 ], [ 5117755.805390247143805, -13876604.023310074582696 ], [ 3927897.894261755980551, -13859606.053151097148657 ], [ 2517066.371066545136273, -13519646.649971527978778 ], [ 936255.146281548775733, -12941715.66456625983119 ], [ -797537.809934253804386, -11853845.574391638860106 ], [ -2055387.601698658894747, -10578997.812468254938722 ], [ -2854292.199170646257699, -9134170.34895508736372 ], [ -2735306.408057797234505, -8352263.721642077900469 ], [ -2497334.825832098722458, -7298389.571785413660109 ], [ -2055387.601698658894747, -6652466.705744232051075 ], [ -1258607.750496543943882, -6261513.39208772778511 ] ] ] ] } },
{ "type": "Feature", "properties": { "id": 2 }, "geometry": { "type": "MultiPolygon", "coordinates": [ [ [ [ -1291272.431898236973211, -6277540.862428825348616 ], [ -1426462.705816456116736, -5598592.555887567810714 ], [ -1358470.825180542655289, -5020661.570482300594449 ], [ -1188491.12359075807035, -4255752.913328270427883 ], [ -763541.869616297073662, -3609830.047287089284509 ], [ -389586.52611877117306, -3014901.091722843237221 ], [ 205342.42944547533989, -2504961.986953489948064 ], [ 562299.80278402287513, -2232994.464409834705293 ], [ 834267.32532767765224, -2249992.434568813070655 ], [ 1038242.967235418967903, -2436970.106317576020956 ], [ 1242218.609143161214888, -2742933.569179188460112 ], [ 1412198.310732944868505, -3201878.763471606187522 ], [ 2024125.236456169746816, -3541838.166651175357401 ], [ 2585058.25170245859772, -3796807.719035852234811 ], [ 2806031.863769178278744, -4051777.27142052911222 ], [ 2687046.07265632878989, -4425732.614918055012822 ], [ 2466072.460589609108865, -4799687.958415580913424 ], [ 2381082.609794717282057, -5003663.600323322229087 ], [ 2517066.371066545136273, -5275631.122866977006197 ], [ 2551062.311384501866996, -5547598.645410632714629 ], [ 2126113.057410039938986, -5615590.526046547107399 ], [ 1640742.307353565935045, -5849489.591168991290033 ], [ 1282085.96982470434159, -5881370.154504889622331 ], [ 724871.031416333396919, -5933385.16924799606204 ], [ 131736.325968404184096, -5996748.841859985142946 ], [ -565204.502486685523763, -6094205.882048506289721 ], [ -1291272.431898236973211, -6277540.862428825348616 ] ] ] ] } },
{ "type": "Feature", "properties": { "id": 3 }, "geometry": { "type": "MultiPolygon", "coordinates": [ [ [ [ 925863.934335305704735, -2333955.992825805675238 ], [ 1029743.982155930250883, -2080012.732979027554393 ], [ 859764.280566146597266, -1672061.449163544923067 ], [ 502806.907227599993348, -584191.358988923951983 ], [ 230839.384683944284916, 163719.328006127849221 ], [ 179845.474207008257508, 673658.43277548160404 ], [ 128851.563730072230101, 1251589.418180748820305 ], [ -7132.197541754692793, 2084489.955970692913979 ], [ 77857.653253138065338, 2968384.4042375725694 ], [ 553800.817704534158111, 3376335.688053055666387 ], [ 1488689.176448348909616, 3920270.733140366151929 ], [ 2168607.982807487249374, 3971264.643617301248014 ], [ 2729540.998053776100278, 3869276.822663430590183 ], [ 2984510.550438452512026, 3580311.32996079698205 ], [ 3324469.953618021681905, 3070372.225191443227232 ], [ 3579439.506002698093653, 2730412.822011874523014 ], [ 3885402.968864310532808, 1982502.135016822256148 ], [ 4310352.222838772460818, 758648.283570373430848 ], [ 4395342.073633665218949, -363217.746922205202281 ], [ 4378344.103474685922265, -635185.269465860445052 ], [ 4123374.551090009510517, -1349100.016142955515534 ], [ 3783415.147910440340638, -2114008.6732969856821 ], [ 3545443.565684741362929, -2589951.837748382240534 ], [ 3630433.41647963412106, -3082892.972358757629991 ], [ 3851407.028546353802085, -3626828.017446068115532 ], [ 3749419.207592483609915, -3813805.689194831065834 ], [ 3341467.923777000978589, -4153765.092374400235713 ], [ 2762388.857835666276515, -4188941.004354423843324 ], [ 2764809.629030843731016, -4004213.154414758551866 ], [ 2376949.541708117350936, -3702212.850856606382877 ], [ 1978663.684191355947405, -3516581.748726279009134 ], [ 1407072.26424350659363, -3188038.437950123101473 ], [ 1223913.102818107465282, -2715475.309691607952118 ], [ 925863.934335305704735, -2333955.992825805675238 ] ] ] ] } },
{ "type": "Feature", "properties": { "id": 4 }, "geometry": { "type": "MultiPolygon", "coordinates": [ [ [ [ 248705.864267104043392, 114586.509152438607998 ], [ 116103.086110839620233, -669181.209783815778792 ], [ 31113.235315946862102, -1060134.523440320976079 ], [ -274850.227545665577054, -1791047.240276394411922 ], [ -1209738.58628948032856, -2351980.255522683262825 ], [ -2671564.019961627200246, -2742933.569179187528789 ], [ -3861421.9310901183635, -2861919.360292037017643 ], [ -5646208.797782856039703, -2980905.151404885575175 ], [ -7515985.515270485542715, -2708937.628861230798066 ], [ -8297892.142583495005965, -2487964.016794511117041 ], [ -9368764.262599136680365, -1859039.120912307873368 ], [ -9776715.546414621174335, -1196118.284712147898972 ], [ -9725721.635937685146928, -346219.776763225905597 ], [ -9402760.202917095273733, 588668.581980588845909 ], [ -8671847.486081020906568, 1404571.149611555039883 ], [ -6568348.678907437250018, 2781406.732488809619099 ], [ -5242507.006507117301226, 3121366.135668378788978 ], [ -2624819.602024435997009, 3767289.001709559932351 ], [ -1451959.661054923199117, 3648303.210596710443497 ], [ -721046.944218849763274, 3155362.075986335519701 ], [ -398085.511198258958757, 2271467.627719456329942 ], [ 105406.087648722779704, 1395192.959179014898837 ], [ 315829.235478835180402, 1098607.686749942600727 ], [ 366823.145955771207809, 690656.402934459969401 ], [ 248705.864267104043392, 114586.509152438607998 ] ] ] ] } },
{ "type": "Feature", "properties": { "id": 5 }, "geometry": { "type": "MultiPolygon", "coordinates": [ [ [ [ -7808216.701145894825459, -2626350.554592093452811 ], [ -7239768.500187084078789, -2980905.151404886506498 ], [ -6423865.932556118816137, -3813805.689194831065834 ], [ -6083906.529376549646258, -4782689.988256602548063 ], [ -5675955.245561067014933, -6312507.302564663812518 ], [ -5930924.797945743426681, -8505245.453072883188725 ], [ -6525853.753509989008307, -9848085.095632182434201 ], [ -7477740.082412783056498, -10714981.57374008372426 ], [ -9466502.591013262048364, -11020945.036601694300771 ], [ -11013317.875480301678181, -10782973.454375997185707 ], [ -12322161.577721640467644, -10205042.468970729038119 ], [ -14225934.235527228564024, -9117172.378796108067036 ], [ -15092830.713635127991438, -8556239.363549819216132 ], [ -15721755.609517332166433, -7740336.795918853953481 ], [ -16299686.594922598451376, -5921553.988908159546554 ], [ -16248692.684445664286613, -4850681.868892516940832 ], [ -15993723.13206098601222, -4170763.062533378601074 ], [ -15279808.385383892804384, -3269870.644107520580292 ], [ -14548895.668547818437219, -2453968.076476554386318 ], [ -12866096.622808951884508, -1910033.031389244366437 ], [ -11306532.860722679644823, -1519079.717732740100473 ], [ -10116674.949594188481569, -1519079.717732740100473 ], [ -9298148.491477834060788, -1900511.875380374258384 ], [ -8539430.177896127104759, -2346108.3452616953291 ], [ -7808216.701145894825459, -2626350.554592093452811 ] ] ] ] } },
{ "type": "Feature", "properties": { "id": 6 }, "geometry": { "type": "MultiPolygon", "coordinates": [ [ [ [ 2827510.816333879716694, 3758244.361945979297161 ], [ 2874023.744405092671514, 4294226.076637892052531 ], [ 3247979.087902618572116, 4702177.360453374683857 ], [ 3893901.953943799249828, 4940148.942679072730243 ], [ 4420839.028872131370008, 5382096.166812513023615 ], [ 4913780.163482505828142, 5382096.166812513023615 ], [ 5423719.268251860514283, 5178120.524904771707952 ], [ 6052644.164134062826633, 4770169.241089288145304 ], [ 6766558.910811157897115, 3937268.703299344517291 ], [ 7395483.806693360209465, 3002380.344555529300123 ], [ 7888424.941303735598922, 2696416.881693917326629 ], [ 8347370.135596154257655, 2254469.65756047796458 ], [ 8466355.92670900374651, 1744530.552791124209762 ], [ 8279378.254960240796208, 860636.104524244554341 ], [ 8092400.583211477845907, 10737.596575321629643 ], [ 7854429.000985778868198, -448207.597717096097767 ], [ 7480473.657488252967596, -652183.23962483741343 ], [ 6868546.731765028089285, -1196118.284712148830295 ], [ 5661690.850477557629347, -1451087.837096825242043 ], [ 5474713.178728794679046, -1179120.31455316953361 ], [ 4930778.133641485124826, -669181.209783816710114 ], [ 4392266.565414238721132, -412425.878433020960074 ], [ 4353235.14116383716464, 192593.761679516872391 ], [ 4324387.866995381191373, 573377.780703133204952 ], [ 4131308.790388695430011, 1274293.369026594329625 ], [ 3825699.478987331967801, 2128443.999160547275096 ], [ 3592842.330260795541108, 2697650.362714303191751 ], [ 3227712.277328452095389, 3215508.739625797607005 ], [ 2827510.816333879716694, 3758244.361945979297161 ] ] ] ] } },
{ "type": "Feature", "properties": { "id": 7 }, "geometry": { "type": "MultiPolygon", "coordinates": [ [ [ [ 6784521.831241170875728, -5775809.384510105475783 ], [ 6443820.158622344955802, -5821236.274192615412176 ], [ 5962703.710889684967697, -5855045.485508929938078 ], [ 5252792.267585747875273, -5770306.615985255688429 ], [ 4608742.006020491942763, -5782692.197938433848321 ], [ 4266384.701016660779715, -5766300.251565014012158 ], [ 3940149.970982542261481, -5781523.808191406540573 ], [ 3349966.908856488764286, -5734576.31715939566493 ], [ 2959013.595199984498322, -5615590.526046546176076 ], [ 2772035.923451221548021, -5309627.06318493373692 ], [ 2670048.102497350424528, -4833683.898733537644148 ], [ 2663019.845310636796057, -4466392.384272303432226 ], [ 2842900.006041608285159, -4184050.38884218968451 ], [ 3162989.237107725813985, -3830803.659353808499873 ], [ 3570940.520923208445311, -3626828.01744606718421 ], [ 3851407.028546353802085, -3626828.017446068115532 ], [ 4556822.790143959224224, -3881797.569830743595958 ], [ 5389723.32793390378356, -3932791.480307679623365 ], [ 5865666.492385299876332, -4034779.301261549815536 ], [ 6120636.04476997628808, -4255752.913328270427883 ], [ 6698567.030175244435668, -4561716.376189881935716 ], [ 7055524.403513791039586, -5003663.600323322229087 ], [ 7140514.254308683797717, -5411614.88413880392909 ], [ 6784521.831241170875728, -5775809.384510105475783 ] ] ] ] } },
{ "type": "Feature", "properties": { "id": 8 }, "geometry": { "type": "MultiPolygon", "coordinates": [ [ [ [ 6077278.278247709386051, -4218176.182342305779457 ], [ 5542705.059364710003138, -4272750.883487248793244 ], [ 5151751.745708204805851, -4153765.09237439930439 ], [ 4986405.930589146912098, -3908098.578429428860545 ], [ 4556822.790143959224224, -3881797.569830743595958 ], [ 4257412.787853333167732, -3773577.087075096089393 ], [ 3899859.645371968392283, -3644341.011479422915727 ], [ 3615466.958920487202704, -2996087.518515706062317 ], [ 3598137.273177574854344, -2484564.422762715257704 ], [ 3990194.57871038466692, -1648754.953997110947967 ], [ 4218940.062051687389612, -1081516.585450258105993 ], [ 4370075.86007156316191, -658336.350994604057632 ], [ 4390104.286054880358279, -378908.744355903705582 ], [ 5090792.289316858164966, -819194.480729478644207 ], [ 5454923.442161169834435, -1160567.436521021416411 ], [ 5644692.880318580195308, -1621067.538686609826982 ], [ 6120736.108779648318887, -1354106.444497792050242 ], [ 6744331.789179040119052, -1222360.878216230776161 ], [ 7235702.887198963202536, -869757.257659762050025 ], [ 7701988.606184240430593, -531356.903972480911762 ], [ 7960165.563466602936387, -244287.084361221553991 ], [ 8483353.896867981180549, -176240.075173441320658 ], [ 9078282.852432226762176, -737173.090419730171561 ], [ 9384246.315293839201331, -1349100.016142955049872 ], [ 9316254.434657925739884, -2114008.673296985216439 ], [ 9027288.941955292597413, -2844921.390133058652282 ], [ 8194388.404165348038077, -3592832.077128110453486 ], [ 7735443.209872929379344, -3898795.539989722892642 ], [ 7140514.254308683797717, -4034779.301261549815536 ], [ 6077278.278247709386051, -4218176.182342305779457 ] ] ] ] } },
{ "type": "Feature", "properties": { "id": 9 }, "geometry": { "type": "MultiPolygon", "coordinates": [ [ [ [ 11067045.361032705754042, 3495321.479165904223919 ], [ 9061284.882273245602846, 4957146.912838051095605 ], [ 7293495.98573948815465, 6045017.003012672066689 ], [ 5559703.029523685574532, 7608830.257638689130545 ], [ 4471832.939349062740803, 8764692.228449223563075 ], [ 3927897.894261755049229, 9988546.079895671457052 ], [ 4131873.536169495433569, 12096294.379609 ], [ 4777796.402210675179958, 13558119.813281148672104 ], [ 6579581.239062391221523, 14476010.201865984126925 ], [ 9537228.046724643558264, 13694103.574552975594997 ], [ 11746964.1673918440938, 12096294.379609 ], [ 12834834.257566463202238, 10158525.781485456973314 ], [ 13276781.481699902564287, 7880797.780182344838977 ], [ 12630858.615658722817898, 5501081.957925360649824 ], [ 11576984.465802058577538, 4107248.404889127239585 ], [ 11067045.361032705754042, 3495321.479165904223919 ] ] ] ] } }
]
}
