{
"type": "FeatureCollection",
"name": "map024",
"crs": { "type": "name", "properties": { "name": "urn:ogc:def:crs:ESRI::102016" } },
"features": [
{ "type": "Feature", "properties": { "id": 1 }, "geometry": { "type": "MultiPolygon", "coordinates": [ [ [ [ -10320543.414399560540915, 2087962.258985365275294 ], [ -6940989.199883289635181, 3845330.450533825904131 ], [ -1398520.288076605647802, 3811534.908388663548976 ], [ -384654.023721724748611, 3068032.98119508381933 ], [ 20892.482020229101181, 533367.32030788064003 ], [ -1533702.456657256931067, -2170276.05130513664335 ], [ -5521576.429786454886198, -3927644.242853596806526 ], [ -9340472.69218984246254, 398185.151727229356766 ], [ -10320543.414399560540915, 2087962.258985365275294 ] ] ] ] } },
{ "type": "Feature", "properties": { "id": 2 }, "geometry": { "type": "MultiPolygon", "coordinates": [ [ [ [ -10302062.583660496398807, 2056098.757711117388681 ], [ -9306937.980730464681983, 360198.929897137102671 ], [ -5414133.108884249813855, -3880296.338727201335132 ], [ -4947052.213318690657616, -9470113.15466028265655 ], [ -10388134.498689886182547, -10010841.828982885926962 ], [ -15322283.651883641257882, -7070629.662353729829192 ], [ -16200967.747657872736454, -3251733.399950343184173 ], [ -10302062.583660496398807, 2056098.757711117388681 ] ] ] ] } },
{ "type": "Feature", "properties": { "id": 3 }, "geometry": { "type": "MultiPolygon", "coordinates": [ [ [ [ 1271327.541391249746084, -4637350.627902014181018 ], [ -1009871.553407233208418, -5076692.675789129920304 ], [ -1567497.998802417889237, -2795493.58099064650014 ], [ -367756.252649143338203, -1798525.087708346545696 ], [ 595416.698487995192409, -1849218.40092609054409 ], [ 1271327.541391249746084, -4637350.627902014181018 ] ] ] ] } },
{ "type": "Feature", "properties": { "id": 4 }, "geometry": { "type": "MultiPolygon", "coordinates": [ [ [ [ 1261913.567030407255515, -4639163.689630769193172 ], [ 1795158.444641271606088, -6191945.566579499281943 ], [ 984065.433157365769148, -5685012.434402057901025 ], [ -1212644.806278210133314, -6276434.42194240540266 ], [ -922128.484685024712235, -5059794.010701890103519 ], [ 1261913.567030407255515, -4639163.689630769193172 ] ] ] ] } },
{ "type": "Feature", "properties": { "id": 5 }, "geometry": { "type": "MultiPolygon", "coordinates": [ [ [ [ 610775.643920835689642, -1912574.050836557289585 ], [ 5497.320855817664778, 629587.077585451770574 ], [ -384654.023721724748611, 3068032.98119508381933 ], [ 20892.482020230963826, 4774707.859525803476572 ], [ 2656944.769342921674252, 4555036.835582245141268 ], [ 4042561.997294591739774, 3659454.968735433649272 ], [ 4296028.563383312895894, 1868291.235041810199618 ], [ 4059459.768367171287537, -666374.425845392048359 ], [ 3704606.575842963531613, -2727902.496700317133218 ], [ 3180775.67259293794632, -4079724.182506829500198 ], [ 1276453.311361601343378, -4681502.683291804976761 ], [ 610775.643920835689642, -1912574.050836557289585 ] ] ] ] } },
{ "type": "Feature", "properties": { "id": 6 }, "geometry": { "type": "MultiPolygon", "coordinates": [ [ [ [ 1295276.788566966773942, -4736315.688522355630994 ], [ 1331367.775782869430259, -4664149.348192870616913 ], [ 3104756.45840465510264, -4103746.758556136861444 ], [ 3146980.130447778850794, -5279465.928660102188587 ], [ 1793639.543870700523257, -6190996.253597891889513 ], [ 1295276.788566966773942, -4736315.688522355630994 ] ] ] ] } },
{ "type": "Feature", "properties": { "id": 7 }, "geometry": { "type": "MultiPolygon", "coordinates": [ [ [ [ 5069101.58995390497148, -6360923.27730530872941 ], [ 3430017.795913513749838, -6867856.409482749179006 ], [ 1875422.857236029580235, -7172016.28878921456635 ], [ 523601.171429520472884, -7543767.252386003732681 ], [ -2517997.621635123156011, -8067598.155636025592685 ], [ -2433508.766272216103971, -6529900.98803112283349 ], [ -1200828.020162627333775, -6273252.97952667158097 ], [ 940131.228368653450161, -5696840.874152865260839 ], [ 1818621.708976800553501, -6174169.741999352350831 ], [ 3145784.316840803716332, -5246168.469828096218407 ], [ 5069101.58995390497148, -6360923.27730530872941 ] ] ] ] } },
{ "type": "Feature", "properties": { "id": 8 }, "geometry": { "type": "MultiPolygon", "coordinates": [ [ [ [ -2517997.621635123156011, -8067598.155636025592685 ], [ -675496.797048228560016, -7750278.569179393351078 ], [ 712117.850449603633024, -7491925.165655480697751 ], [ 1803943.616440914804116, -7191673.080007870681584 ], [ 3092139.287393487524241, -6933963.074193188920617 ], [ 3801768.759510304778814, -8490042.43245055899024 ], [ 4511475.144558720290661, -9909455.202547393739223 ], [ 1621956.291147308424115, -10805037.069394204765558 ], [ -1250664.7911915211007, -10416388.334724834188819 ], [ -2670077.561288354918361, -9537704.238950604572892 ], [ -2517997.621635123156011, -8067598.155636025592685 ] ] ] ] } },
{ "type": "Feature", "properties": { "id": 9 }, "geometry": { "type": "MultiPolygon", "coordinates": [ [ [ [ 5029142.017621367238462, -6337762.706771707162261 ], [ 6522309.90219590254128, -5921581.229418193921447 ], [ 7384096.226897550746799, -4654248.398974591866136 ], [ 8212087.009454037994146, -5161181.531152032315731 ], [ 8499349.117687920108438, -6310229.964087564498186 ], [ 7772744.961566923186183, -8456246.890305396169424 ], [ 4439169.555777568370104, -9931865.706672545522451 ], [ 4105928.638816768303514, -9098362.191063487902284 ], [ 3678213.686574882827699, -8219110.197872872464359 ], [ 3075510.711581506766379, -6937216.491199880838394 ], [ 4196693.715485030785203, -6630740.145697743631899 ], [ 5029142.017621367238462, -6337762.706771707162261 ] ] ] ] } },
{ "type": "Feature", "properties": { "id": 10 }, "geometry": { "type": "MultiPolygon", "coordinates": [ [ [ [ 1607607.339463465614244, -10803095.740636978298426 ], [ 4398779.401445952244103, -9944384.292518017813563 ], [ 7526521.006495239213109, -8565238.785467907786369 ], [ 8651429.05734115280211, -10281206.166144182905555 ], [ 6877163.094720110297203, -12731382.971668479964137 ], [ 5018408.276736162602901, -13322804.959208827465773 ], [ 2449947.073703795671463, -12613098.574160410091281 ], [ 1607607.339463465614244, -10803095.740636978298426 ] ] ] ] } },
{ "type": "Feature", "properties": { "id": 11 }, "geometry": { "type": "MultiPolygon", "coordinates": [ [ [ [ 4051986.432779100257903, -709790.946880852570757 ], [ 4570617.343312757089734, -683272.19691797439009 ], [ 5719665.776248289272189, -1376080.810893809422851 ], [ 6395576.619151543825865, -1866116.171998669393361 ], [ 6885611.980256402865052, -2626515.870264830067754 ], [ 7122180.775272540748119, -3032062.376006782986224 ], [ 7407298.028589910827577, -4668453.583684200420976 ], [ 6522309.90219590254128, -5921581.229418193921447 ], [ 5036428.030959309078753, -6371028.501736626960337 ], [ 3180240.251421774737537, -5266139.131589006632566 ], [ 3107547.556933244690299, -4181464.964645847212523 ], [ 3301450.343722708057612, -3768305.676365488674492 ], [ 3724988.926428244449198, -2609490.745681065600365 ], [ 3791907.407759074121714, -2220726.235092436429113 ], [ 4051986.432779100257903, -709790.946880852570757 ] ] ] ] } },
{ "type": "Feature", "properties": { "id": 12 }, "geometry": { "type": "MultiPolygon", "coordinates": [ [ [ [ 6964059.663577817380428, -2760997.613101541530341 ], [ 6415410.569566116668284, -1896892.991607488598675 ], [ 5985212.06807304173708, -1568601.872466755565256 ], [ 6615247.643095100298524, -666374.425845394842327 ], [ 7544625.05208707600832, 161616.35671109193936 ], [ 10011699.628683952614665, -159441.29366795392707 ], [ 10501734.989788811653852, -1984400.569506740197539 ], [ 8423309.147861305624247, -2863084.665280970744789 ], [ 6964059.663577817380428, -2760997.613101541530341 ] ] ] ] } },
{ "type": "Feature", "properties": { "id": 13 }, "geometry": { "type": "MultiPolygon", "coordinates": [ [ [ [ 10026159.688519833609462, -213292.550987789698411 ], [ 7632031.670845502987504, 150241.522763077489799 ], [ 6523210.009643353521824, -798174.727787606185302 ], [ 6060925.050204989500344, -1626379.618208112195134 ], [ 4697094.680736590176821, -759530.591541167814285 ], [ 4112120.184774517081678, -706716.17462739138864 ], [ 4196250.858488528989255, 799244.396883419482037 ], [ 4293771.903878509998322, 1844112.740347495302558 ], [ 4022431.085087385028601, 3672466.411991311237216 ], [ 2656944.769342921674252, 4555036.835582245141268 ], [ 3776422.102901432663202, 8678092.977292092517018 ], [ 5263425.957288593053818, 10334074.542405065149069 ], [ 7933273.786756444722414, 7258680.207195258699358 ], [ 10163779.568337183445692, 4757810.088453218340874 ], [ 11887352.21774048358202, 3169419.607630571350455 ], [ 10026159.688519833609462, -213292.550987789698411 ] ] ] ] } },
{ "type": "Feature", "properties": { "id": 14 }, "geometry": { "type": "MultiPolygon", "coordinates": [ [ [ [ 11887352.21774048358202, 3169419.607630571350455 ], [ 9498620.602552527561784, 5503594.383423892781138 ], [ 7820574.65995133575052, 7388498.188704941421747 ], [ 5626159.035896227695048, 9916242.768312726169825 ], [ 4215764.150788545608521, 11314145.264614783227444 ], [ 5195834.872998263686895, 15572383.574905283749104 ], [ 11684578.964869502931833, 11550714.059630921110511 ], [ 14523404.5050631724298, 6481382.737856514751911 ], [ 11887352.21774048358202, 3169419.607630571350455 ] ] ] ] } }
]
}
