{
"type": "FeatureCollection",
"name": "map021",
"crs": { "type": "name", "properties": { "name": "urn:ogc:def:crs:ESRI::102016" } },
"features": [
{ "type": "Feature", "properties": { "id": 1 }, "geometry": { "type": "MultiPolygon", "coordinates": [ [ [ [ -8389625.517121758311987, -1640417.855514909140766 ], [ -8049932.844492442905903, -808170.807573085650802 ], [ -7625317.003705797716975, -621339.837626961991191 ], [ -7132762.628393289633095, -1147863.480202401056886 ], [ -6657192.886712247505784, -2183926.131721815094352 ], [ -6657192.886712247505784, -3338881.218661488965154 ], [ -6810054.589395439252257, -4256051.434760643169284 ], [ -7013870.192973028868437, -4595744.107389958575368 ], [ -7642301.637337263673544, -4476851.671969698742032 ], [ -7965009.676335113123059, -4018266.563920121639967 ], [ -8253748.448070032522082, -3474758.287713216617703 ], [ -8355656.249858827330172, -2795372.94245458394289 ], [ -8389625.517121758311987, -1640417.855514909140766 ] ] ] ] } },
{ "type": "Feature", "properties": { "id": 2 }, "geometry": { "type": "MultiPolygon", "coordinates": [ [ [ [ -9200641.773024247959256, -1912171.99361836258322 ], [ -8657133.496817342936993, -2523618.804351131431758 ], [ -8254028.756815784610808, -3472889.562741538975388 ], [ -7909809.617032846435905, -4680667.275547287426889 ], [ -7349316.707194475457072, -5784668.46159256529063 ], [ -6720885.262830240651965, -6752792.578586116433144 ], [ -6534054.292884116992354, -8060609.368208983913064 ], [ -6618977.461041446775198, -9028733.485202534124255 ], [ -7281378.17266861256212, -9232549.088780123740435 ], [ -8606179.595922945067286, -9351441.524200383573771 ], [ -9829073.217388480901718, -9351441.524200383573771 ], [ -11068951.472485486418009, -9504303.226883575320244 ], [ -12784399.469263531267643, -8892856.416150806471705 ], [ -14529570.574896644800901, -7652978.161053804680705 ], [ -15327848.355575535446405, -6684854.044060252606869 ], [ -15786433.463625114411116, -5750699.194329634308815 ], [ -15786433.463625114411116, -4901467.51275634393096 ], [ -15242925.187418207526207, -3984297.296657191589475 ], [ -14240831.803161725401878, -3084111.714189503341913 ], [ -12966984.280801791697741, -2115987.597195953130722 ], [ -11998860.163808239623904, -1708356.390040773898363 ], [ -11166613.115866415202618, -1351679.083779992070049 ], [ -9824827.058980617672205, -1521525.420094650238752 ], [ -9200641.773024247959256, -1912171.99361836258322 ] ] ] ] } },
{ "type": "Feature", "properties": { "id": 3 }, "geometry": { "type": "MultiPolygon", "coordinates": [ [ [ [ -262478.324465367943048, -6073407.233327485620975 ], [ 824538.227948443964124, -5818637.72885549813509 ], [ 2064416.483045447617769, -5699745.293435238301754 ], [ 2998571.332776065915823, -5665776.026172306388617 ], [ 4170511.053347207605839, -5716729.927066704258323 ], [ 4527188.359607987105846, -6022453.332433087751269 ], [ 4374326.656924795359373, -6548976.975008528679609 ], [ 3389217.906299779191613, -7041531.350321035832167 ], [ 3066509.867301929742098, -7058515.983952501788735 ], [ 2438078.422937694936991, -7279316.221161557361484 ], [ 1673769.909521734341979, -7466147.191107681021094 ], [ 756599.693422580137849, -7534085.725633544847369 ], [ -483278.561674421653152, -7347254.755687421187758 ], [ -1485371.945930905640125, -7551070.359265010803938 ], [ -1943957.053980480879545, -7619008.893790872767568 ], [ -2419526.795661523938179, -7619008.893790872767568 ], [ -2368572.894767126068473, -7041531.350321035832167 ], [ -1842049.252191687002778, -6582946.242271458730102 ], [ -262478.324465367943048, -6073407.233327485620975 ] ] ] ] } },
{ "type": "Feature", "properties": { "id": 4 }, "geometry": { "type": "MultiPolygon", "coordinates": [ [ [ [ -1977926.321243412792683, -7619008.893790872767568 ], [ -1240722.940395184559748, -7501311.239495033398271 ], [ -535802.076987175270915, -7357937.504564591683447 ], [ 372123.68404387641931, -7476150.98449428845197 ], [ 1264609.390197828412056, -7496455.37772426661104 ], [ 1730754.700829540379345, -7452217.575454661622643 ], [ 2183308.918465707451105, -7941716.932788724079728 ], [ 1775677.711310528218746, -9062702.752465466037393 ], [ 1605831.374995870515704, -9725103.464092632755637 ], [ 943430.66336870379746, -9877965.16677582450211 ], [ -143585.889045106247067, -9979872.968564620241523 ], [ -1043771.471512794494629, -9725103.464092632755637 ], [ -1842049.252191687002778, -9487318.59325211122632 ], [ -2283649.726609798148274, -8858887.148887876421213 ], [ -2453496.062924455851316, -8434271.308101231232285 ], [ -1977926.321243412792683, -7619008.893790872767568 ] ] ] ] } },
{ "type": "Feature", "properties": { "id": 5 }, "geometry": { "type": "MultiPolygon", "coordinates": [ [ [ [ 7202268.156563851982355, 2792571.522297661751509 ], [ 7066391.087512124329805, 3421002.966661896556616 ], [ 6505898.177673753350973, 4949619.993493818677962 ], [ 6234144.039570299908519, 6614114.089377466589212 ], [ 6488913.544042287394404, 7853992.344474470242858 ], [ 6947498.652091864496469, 8448454.521575773134828 ], [ 7643868.630981961265206, 8227654.284366717562079 ], [ 8204361.540820334106684, 7735099.909054209478199 ], [ 8866762.252447498962283, 7021745.296532645821571 ], [ 9342331.994128542020917, 6563160.188483068719506 ], [ 9851871.003072516992688, 5849805.575961505994201 ], [ 10276486.843859160318971, 4864696.825336488895118 ], [ 10650148.783751409500837, 3709741.738396815024316 ], [ 10887933.654591929167509, 2333986.414248084649444 ], [ 10378394.645647956058383, 1586662.534463590011001 ], [ 9325347.360497076064348, 1077123.525519615039229 ], [ 8272300.075346196070313, 1077123.525519615039229 ], [ 7932607.402716880664229, 1280939.129097204655409 ], [ 7474022.294667303562164, 1875401.306198508478701 ], [ 7202268.156563851982355, 2792571.522297661751509 ] ] ] ] } },
{ "type": "Feature", "properties": { "id": 6 }, "geometry": { "type": "MultiPolygon", "coordinates": [ [ [ [ 6997938.423535797744989, 8432461.423313062638044 ], [ 6030328.435992710292339, 8516393.056101636961102 ], [ 4569649.943686652928591, 7769069.176317142322659 ], [ -186047.473123770207167, 6206482.882222287356853 ], [ -2971527.388684162870049, 6002667.278644697740674 ], [ -5247468.295300580561161, 6172513.614959357306361 ], [ -7727224.805494587868452, 6987776.029269715771079 ], [ -8338671.61622735671699, 7972884.779894731938839 ], [ -8848210.625171329826117, 10588518.359140465036035 ], [ -8542487.21980494633317, 12354920.256812907755375 ], [ -7149747.262024750933051, 14189260.68901121430099 ], [ -5077621.958985922858119, 15887724.052157793194056 ], [ -2699773.25058071129024, 16940771.337308675050735 ], [ -1273064.025537583976984, 16940771.337308675050735 ], [ 357460.803083132952452, 16736955.733731083571911 ], [ 1716231.493600398302078, 16702986.466468151658773 ], [ 4365834.340109061449766, 15751846.983106069266796 ], [ 6302082.574096161872149, 14800707.499743983149529 ], [ 8408177.144397921860218, 13306059.740174992009997 ], [ 10242517.576596230268478, 11471719.307976685464382 ], [ 11533349.73258763179183, 10078979.350196484476328 ], [ 12892120.423104895278811, 8227654.284366713836789 ], [ 13520551.867469130083919, 6817929.692955052480102 ], [ 13605475.035626458004117, 5662974.606015376746655 ], [ 12858151.155841963365674, 4864696.825336484238505 ], [ 11618272.900744959712029, 4575958.053601566702127 ], [ 10819995.120066067203879, 5306297.299754595384002 ], [ 9699009.300389325246215, 6478237.020325735211372 ], [ 8841960.034021278843284, 7048455.377914729528129 ], [ 8433630.828223710879683, 7488194.5226198034361 ], [ 7597569.437790892086923, 8242334.516354129649699 ], [ 6997938.423535797744989, 8432461.423313062638044 ] ] ] ] } },
{ "type": "Feature", "properties": { "id": 7 }, "geometry": { "type": "MultiPolygon", "coordinates": [ [ [ [ 3346756.322221113368869, -7347254.755687418393791 ], [ 3525094.975351506844163, -6973592.815795172005892 ], [ 4367532.803472209721804, -6552373.901734821498394 ], [ 4507750.571119002066553, -6089405.715006259270012 ], [ 5486820.159785805270076, -6039437.966064551845193 ], [ 6370021.108622027561069, -5733714.560698167420924 ], [ 6896544.751197466626763, -5512914.323489111848176 ], [ 7915622.769085414707661, -5631806.758909372612834 ], [ 8951685.420604828745127, -6379130.6386938681826 ], [ 9495193.69681173376739, -7313285.488424487411976 ], [ 9631070.765863459557295, -8196486.437260707840323 ], [ 8985654.687867760658264, -9266518.356043053790927 ], [ 8255315.441714730113745, -10149719.30487927608192 ], [ 7745776.432770757004619, -10574335.145665921270847 ], [ 7338145.22561557777226, -11015935.620084030553699 ], [ 6743683.04851427488029, -10574335.145665921270847 ], [ 6115251.604150040075183, -9589226.395040905103087 ], [ 5673651.129731928929687, -9130641.286991328001022 ], [ 4433772.874634925276041, -8264424.971786571666598 ], [ 3601525.826693100854754, -7975686.20005165413022 ], [ 3346756.322221113368869, -7347254.755687418393791 ] ] ] ] } },
{ "type": "Feature", "properties": { "id": 9 }, "geometry": { "type": "MultiPolygon", "coordinates": [ [ [ [ -9280032.213578334078193, -1862485.459394036559388 ], [ -9451165.119088364765048, -1266755.915622661821544 ], [ -9281318.782773707062006, -349585.699523508548737 ], [ -9026549.278301721438766, 652507.684732973575592 ], [ -8415102.467568952590227, 1603647.168095058761537 ], [ -7905563.458624977618456, 2333986.414248087909073 ], [ -6886485.440737029537559, 3064325.660401117056608 ], [ -5612637.918377093970776, 3488941.501187762245536 ], [ -3659405.050758527591825, 3930541.975605873391032 ], [ -2249680.459346866235137, 3862603.441080010030419 ], [ -1434418.045036507770419, 3200202.729452843777835 ], [ -738048.066146411001682, 2028263.008881703484803 ], [ -398355.393517095595598, 1094108.159151084721088 ], [ -126601.255413640290499, -196723.996840315870941 ], [ -126601.255413640290499, -1674387.122777841053903 ], [ -466293.928042955696583, -2421711.002562335692346 ], [ -958848.30335546657443, -2914265.377874844707549 ], [ -1791095.351297289133072, -3389835.11955588683486 ], [ -3336697.011760678142309, -3763497.059448134154081 ], [ -5001191.107644325122237, -3067127.080558036454022 ], [ -6342977.164530124515295, -2048049.062670088373125 ], [ -7080824.712098711170256, -1261013.940701304934919 ], [ -7668860.049041152000427, -640498.777574517880566 ], [ -8060605.0884022526443, -834317.805152119137347 ], [ -8371919.294271389953792, -1597037.609531506197527 ], [ -9280032.213578334078193, -1862485.459394036559388 ] ] ] ] } },
{ "type": "Feature", "properties": { "id": 10 }, "geometry": { "type": "MultiPolygon", "coordinates": [ [ [ [ 7457037.661035837605596, 1162046.693676947616041 ], [ 7949592.036348346620798, 1009184.990993755403906 ], [ 8730885.183395773172379, 652507.684732973575592 ], [ 9359316.627760007977486, 92014.77489460259676 ], [ 9834886.369441051036119, -621339.837626961059868 ], [ 9936794.171229843050241, -1708356.390040772035718 ], [ 9444239.795917335897684, -2625526.606139925308526 ], [ 7915622.769085414707661, -3287927.31776709202677 ], [ 6641775.246725479140878, -3406819.753187352791429 ], [ 6200174.772307367995381, -3118080.981452434323728 ], [ 5996359.168729778379202, -2710449.774297255091369 ], [ 5979374.535098312422633, -1912171.993618361651897 ], [ 6064297.703255642205477, -1198817.381096798926592 ], [ 6607805.97946254722774, -94816.195051521062851 ], [ 7032421.820249192416668, 992200.357362289912999 ], [ 7457037.661035837605596, 1162046.693676947616041 ] ] ] ] } },
{ "type": "Feature", "properties": { "id": 11 }, "geometry": { "type": "MultiPolygon", "coordinates": [ [ [ [ 5995974.901000559329987, -2692389.191023977007717 ], [ 5537774.060680203139782, -3236973.416872694157064 ], [ 4807434.814527172595263, -3746512.425816668197513 ], [ 4297895.805583199486136, -3729527.792185202240944 ], [ 3873279.964796554297209, -3542696.822239078581333 ], [ 3448664.124009909108281, -2948234.645137775689363 ], [ 3227863.886800853535533, -2268849.299879143945873 ], [ 2990079.015960332006216, -1385648.351042922586203 ], [ 3482633.391272841021419, -247677.897734713740647 ], [ 4331865.072846131399274, 312815.012103658169508 ], [ 5147127.487156489863992, -162754.729577384889126 ], [ 5401896.991628475487232, -740232.273047221824527 ], [ 5605712.595206065103412, -1470571.519200251437724 ], [ 5980058.531656322069466, -1944319.831844797125086 ], [ 5995974.901000559329987, -2692389.191023977007717 ] ] ] ] } },
{ "type": "Feature", "properties": { "id": 12 }, "geometry": { "type": "MultiPolygon", "coordinates": [ [ [ [ 4421746.019743831828237, -3733656.132657223381102 ], [ 4848614.364601279608905, -3717782.507160314358771 ], [ 5480919.714126273989677, -3276639.240049853920937 ], [ 5877466.733309518545866, -3236973.416872694157064 ], [ 6369493.08892363961786, -3228789.111547688487917 ], [ 6640860.012581608258188, -3406221.330862513743341 ], [ 7168298.889300920069218, -4459867.038338232785463 ], [ 7032421.820249192416668, -5088298.48270246759057 ], [ 6294768.187618147581816, -5759763.648737971670926 ], [ 5503804.793417271226645, -5767683.827961098402739 ], [ 4925189.630400268360972, -6068101.315039111301303 ], [ 4527188.359607987105846, -6022453.332433087751269 ], [ 4187995.235026655253023, -5731716.368506230413914 ], [ 3872366.640157880727202, -5703767.126493255607784 ], [ 3550571.925798702985048, -5461960.422594714909792 ], [ 2905155.847803004086018, -5411006.521700317040086 ], [ 2667370.976962482556701, -4918452.146387808024883 ], [ 2871186.58054007217288, -4408913.137443834915757 ], [ 3720418.262113362550735, -4205097.533866245299578 ], [ 4233008.130181486718357, -3700977.215008448343724 ], [ 4421746.019743831828237, -3733656.132657223381102 ] ] ] ] } },
{ "type": "Feature", "properties": { "id": 13 }, "geometry": { "type": "MultiPolygon", "coordinates": [ [ [ [ 3873279.964796554297209, -3542696.822239078581333 ], [ 3125956.085012059658766, -3848420.227605464868248 ], [ 2344662.93796463124454, -3491742.921344683505595 ], [ 1495431.25639134272933, -2744419.041560187004507 ], [ 1155738.583762025460601, -1776294.924566636793315 ], [ 833030.544764176011086, -995001.777519210241735 ], [ 425399.337608996778727, 346784.27936658822 ], [ -152078.205860840156674, 1875401.306198510341346 ], [ -355893.809438429772854, 2741617.621403265744448 ], [ 136660.565874077379704, 3845618.807448542676866 ], [ 714138.109343914315104, 4864696.825336491689086 ], [ 2004970.265335315838456, 5442174.368806328624487 ], [ 2905155.847803004086018, 5476143.636069259606302 ], [ 4094080.202005609869957, 5272328.032491669990122 ], [ 5198081.388050885871053, 4762789.023547695949674 ], [ 6183190.138675902038813, 4168326.846446393057704 ], [ 7143859.032672808505595, 3062713.720293734222651 ], [ 7522603.214506740681827, 1812426.039739979431033 ], [ 7307690.020483293570578, 1102307.637455930234864 ], [ 7196411.386346104554832, 1057796.183801054721698 ], [ 6951114.317586381919682, 784053.150545495678671 ], [ 6695139.591282888315618, 128757.851208552950993 ], [ 6393156.968874451704323, -530821.997808590531349 ], [ 6064297.703255642205477, -689278.372152824886143 ], [ 5673651.129731928929687, -808170.807573084719479 ], [ 5159487.774484239518642, -190771.38085361814592 ], [ 4257092.932590583339334, 263465.399534996424336 ], [ 3473761.867815054487437, -268174.176068220112938 ], [ 3012545.586515608709306, -1469095.61310537927784 ], [ 3204249.389282898511738, -2181138.309098167344928 ], [ 3522111.188362193759531, -3051060.535230974201113 ], [ 3873279.964796554297209, -3542696.822239078581333 ] ] ] ] } },
{ "type": "Feature", "properties": { "id": 14 }, "geometry": { "type": "MultiPolygon", "coordinates": [ [ [ [ 1154500.906583794392645, -1773298.442977235652506 ], [ 1792662.344941994640976, -1886695.043171165045351 ], [ 2624909.392883819062263, -2404726.368930872064084 ], [ 3091986.81774912821129, -2710449.774297256488353 ], [ 3503749.422274123877287, -3025354.062707676552236 ], [ 3724145.86312274588272, -3603706.22746927337721 ], [ 4077619.223298440221697, -3632606.09597990848124 ], [ 4200059.047045599669218, -3733381.878719686064869 ], [ 3692795.749021341558546, -4211726.937008330598474 ], [ 3123964.694533332716674, -4348246.390085452236235 ], [ 2858887.36308280332014, -4439661.181087006814778 ], [ 2678721.363757668063045, -4941963.661892120726407 ], [ 2531493.907910757232457, -5351560.30399018805474 ], [ 1985108.539617896545678, -5707350.164722811430693 ], [ 1421653.267126807942986, -5761380.122358943335712 ], [ 832953.169620263157412, -5817830.816640391945839 ], [ 292853.552288506645709, -5943251.324713296256959 ], [ -134682.812170477584004, -6043455.160133370198309 ], [ -457801.611227223649621, -6005468.698801621794701 ], [ -1035279.154697061050683, -5996976.381985888816416 ], [ -1315525.609616246540099, -5818637.72885549813509 ], [ -1502356.57956237019971, -5453468.10577898286283 ], [ -1332510.243247712496668, -4859005.92867767997086 ], [ -848448.184750936925411, -3466265.970897484570742 ], [ -491770.878490155097097, -2871803.793796181678772 ], [ -41678.087256311438978, -2260356.983063412830234 ], [ 612230.307555121835321, -1852725.775908233597875 ], [ 1154500.906583794392645, -1773298.442977235652506 ] ] ] ] } },
{ "type": "Feature", "properties": { "id": 15 }, "geometry": { "type": "MultiPolygon", "coordinates": [ [ [ [ 1605831.374995870515704, -9725103.464092632755637 ], [ 1732299.313263478921726, -9231878.504848958924413 ], [ 1942052.735642114421353, -8605171.435553604736924 ], [ 2154794.570033321157098, -8020131.390977785922587 ], [ 2132355.017571308184415, -7652978.161053800024092 ], [ 2438078.422937694936991, -7279316.221161557361484 ], [ 2757605.984376466367394, -7167049.780656042508781 ], [ 2984380.660333651583642, -7087372.19180622138083 ], [ 3159925.352274989243597, -7279316.221161552704871 ], [ 3346756.322221113368869, -7347254.755687418393791 ], [ 3788356.796639224048704, -7720916.695579662919044 ], [ 4091128.411588243208826, -8145548.321341805160046 ], [ 4697034.695922644808888, -8909841.049782268702984 ], [ 5263896.843372816219926, -9410887.741910509765148 ], [ 5781928.169132522307336, -10115750.037616342306137 ], [ 6325436.445339428260922, -10744181.481980575248599 ], [ 6860452.404730601236224, -11032920.253715494647622 ], [ 7089744.958755388855934, -11202766.590030152350664 ], [ 7497376.165910568088293, -11712305.598974127322435 ], [ 7200145.077359916642308, -12255813.875181032344699 ], [ 6240513.277182099409401, -12790829.834572205320001 ], [ 5357312.328345878049731, -13147507.140832986682653 ], [ 4745865.517613109201193, -13113537.873570054769516 ], [ 4091957.122801675461233, -13096553.239938590675592 ], [ 3208756.173965454101562, -12952183.854071130976081 ], [ 2444447.66054949304089, -12705906.666414875537157 ], [ 1994354.86931564938277, -12196367.657470902428031 ], [ 1586723.662160470150411, -11712305.598974127322435 ], [ 1416877.325845811981708, -11100858.788241358473897 ], [ 1416877.325845811981708, -10557350.512034453451633 ], [ 1605831.374995870515704, -9725103.464092632755637 ] ] ] ] } }
]
}
