{
"type": "FeatureCollection",
"name": "map028",
"crs": { "type": "name", "properties": { "name": "urn:ogc:def:crs:ESRI::102016" } },
"features": [
{ "type": "Feature", "properties": { "id": 1 }, "geometry": { "type": "MultiPolygon", "coordinates": [ [ [ [ -1306315.527485438622534, -6663819.742133100517094 ], [ -563641.26735708117485, -7187067.516314443200827 ], [ 153714.55208508297801, -7490888.80454877205193 ], [ 702280.766952619887888, -7710315.290495786815882 ], [ 1065178.416788066737354, -7617481.007979741320014 ], [ 1444955.027080977335572, -7414933.482490189373493 ], [ 2027279.162863439880311, -7305220.23951668292284 ], [ 2288903.049954110756516, -7735633.731181981042027 ], [ 2128552.925608215853572, -7988818.138043920509517 ], [ 2196068.767438066191971, -8334836.827421905472875 ], [ 2061037.08377836458385, -8748371.358629740774632 ], [ 1850050.078060081228614, -8934039.923661829903722 ], [ 1504031.388682096265256, -9339134.974640933796763 ], [ 693841.286723888479173, -9263179.652582352980971 ], [ 246548.834601127542555, -9280058.613039815798402 ], [ -276698.939580215141177, -9263179.652582352980971 ], [ -690233.470788051374257, -9330695.494412204250693 ], [ -1179723.324054468888789, -9330695.494412204250693 ], [ -1441347.211145140230656, -9271619.132811084389687 ], [ -1888639.663267901167274, -9026874.20617787539959 ], [ -2192460.951502229087055, -8689294.997028620913625 ], [ -2454084.838592900894582, -8393913.189023025333881 ], [ -2386568.996763050090522, -7862225.934612950310111 ], [ -2234658.352645886130631, -7271462.318601757287979 ], [ -2048989.787613796535879, -6992959.471053622663021 ], [ -1306315.527485438622534, -6663819.742133100517094 ] ] ] ] } },
{ "type": "Feature", "properties": { "id": 2 }, "geometry": { "type": "MultiPolygon", "coordinates": [ [ [ [ -1335252.970324762631208, -6676644.290664164349437 ], [ -622717.628958200104535, -6081495.606350637972355 ], [ -82590.894319394603372, -6056177.165664443746209 ], [ 263427.795058590359986, -6073056.12612190656364 ], [ 879509.851755977608263, -5946463.922690937295556 ], [ 1284604.902735081501305, -6149011.448180489242077 ], [ 1892247.47920373827219, -6182769.369095414876938 ], [ 2845908.74505037907511, -6005540.28429205622524 ], [ 3132851.072827245108783, -5887387.561089817434549 ], [ 3782691.050439557991922, -5566687.312398026697338 ], [ 3959920.135242915712297, -5786113.798345041461289 ], [ 4280620.383934707380831, -5912706.001776011660695 ], [ 4491607.389652990736067, -6056177.165664443746209 ], [ 4424091.547823139466345, -6309361.572526384145021 ], [ 4238422.982791050337255, -6495030.137558473274112 ], [ 3748933.129524632357061, -6646940.781675638630986 ], [ 3470430.281976497732103, -6967641.030367428436875 ], [ 3335398.598316797055304, -7237704.397686831653118 ], [ 2972500.948481349274516, -7229264.917458100244403 ], [ 2575845.37773097679019, -7170188.555856980383396 ], [ 2031832.975608982145786, -7312711.995969026349485 ], [ 1516771.066544615430757, -7401402.924330373294652 ], [ 1131759.783298473339528, -7581970.945840857923031 ], [ 680454.524981762864627, -7701584.79370744433254 ], [ 371976.971793651464395, -7578193.772432199679315 ], [ -83860.629521041526459, -7390268.727633236907423 ], [ -520705.993572841514833, -7205251.867564238607883 ], [ -796415.940535040572286, -7023067.178393607959151 ], [ -1335252.970324762631208, -6676644.290664164349437 ] ] ] ] } },
{ "type": "Feature", "properties": { "id": 3 }, "geometry": { "type": "MultiPolygon", "coordinates": [ [ [ [ 1495665.437322735087946, -9338350.666700994595885 ], [ 1756707.520699647022411, -9043319.015205752104521 ], [ 2018611.382899035932496, -8785705.975403549149632 ], [ 2178637.127432316541672, -8388221.224939513020217 ], [ 2134279.197580031119287, -8018165.281899473629892 ], [ 2281411.293501766398549, -7723308.583470059558749 ], [ 2043134.159812332363799, -7309751.247935123741627 ], [ 2584101.716006118338555, -7171418.223259661346674 ], [ 2853223.210421340540051, -7211500.147959800437093 ], [ 3318724.922513547353446, -7237316.637784430757165 ], [ 3352277.558774260804057, -7769391.652096903882921 ], [ 3664538.327237320132554, -8149168.262389814481139 ], [ 4379784.276622301898897, -8351715.78787936642766 ], [ 4886153.090346182696521, -8233563.064677127636969 ], [ 5240611.259952899068594, -8005697.098501381464303 ], [ 5510674.627272301353514, -7870665.414841679856181 ], [ 5662585.271389465779066, -8233563.064677127636969 ], [ 5569750.988873421214521, -8528944.872682724148035 ], [ 5291248.141325286589563, -8790568.759773395955563 ], [ 5139337.497208123095334, -8883403.042289439588785 ], [ 5493795.666814839467406, -9448848.217614440247416 ], [ 5569750.988873421214521, -9642956.262875262647867 ], [ 5620387.870245809666812, -9972095.991795783862472 ], [ 6059240.842139839194715, -9887701.189508469775319 ], [ 5873572.277107749134302, -10225280.398657724261284 ], [ 5595069.429559615440667, -10503783.246205858886242 ], [ 5139337.497208123095334, -10832922.975126380100846 ], [ 4565452.84165439195931, -11102986.342445783317089 ], [ 3856536.502440959215164, -11347731.269078992307186 ], [ 3274212.366658496670425, -11482762.95273869484663 ], [ 2869117.315679392777383, -11558718.274797275662422 ], [ 2379627.462412974797189, -11449005.031823769211769 ], [ 2548417.066987602040172, -10976394.139014814049006 ], [ 2624372.389046183787286, -10731649.212381605058908 ], [ 2303672.140354393050075, -10275917.280030112713575 ], [ 1856379.688231631414965, -9972095.991795783862472 ], [ 1645392.682513348059729, -9777987.946534963324666 ], [ 1495665.437322735087946, -9338350.666700994595885 ] ] ] ] } },
{ "type": "Feature", "properties": { "id": 4 }, "geometry": { "type": "MultiPolygon", "coordinates": [ [ [ [ 2385928.431814516428858, -11431362.31749945320189 ], [ 2864683.781769252382219, -11557724.55167948640883 ], [ 3629155.003139017149806, -11400457.413844659924507 ], [ 4370651.213682610541582, -11170239.285436041653156 ], [ 4873529.731817088089883, -10958008.982369219884276 ], [ 5225923.483003098517656, -10770388.652052231132984 ], [ 5932648.638708868995309, -10655693.890323022380471 ], [ 6785036.141810734756291, -10621935.969408098608255 ], [ 7055099.509130136109889, -10621935.969408098608255 ], [ 7055099.509130136109889, -11018591.540158469229937 ], [ 6683762.379065957851708, -11769705.280515559017658 ], [ 6101438.243283495306969, -12115723.969893544912338 ], [ 5645706.310932002961636, -12495500.580186454579234 ], [ 5375642.943612600676715, -12706487.58590473793447 ], [ 4962108.412404764443636, -12748684.987048394978046 ], [ 4632968.683484242297709, -12841519.269564438611269 ], [ 4101281.429074168205261, -12774003.427734589204192 ], [ 3459880.931690585799515, -12579895.382473768666387 ], [ 3172938.603913720697165, -12411105.777899142354727 ], [ 3021027.959796556271613, -12031329.167606230825186 ], [ 2734085.632019691169262, -11862539.563031604513526 ], [ 2472461.744929019361734, -11786584.240973021835089 ], [ 2385928.431814516428858, -11431362.31749945320189 ] ] ] ] } },
{ "type": "Feature", "properties": { "id": 5 }, "geometry": { "type": "MultiPolygon", "coordinates": [ [ [ [ 7042440.288787041790783, -10621935.969408098608255 ], [ 6579260.104187093675137, -10630085.515452599152923 ], [ 6113813.311605582013726, -10648519.051792459562421 ], [ 5861419.457809819839895, -10667253.707976922392845 ], [ 5297139.916449372656643, -10758830.903188506141305 ], [ 5504785.821595459245145, -10568988.074179971590638 ], [ 5757529.423962693661451, -10341323.251802779734135 ], [ 5921593.081595415249467, -10137969.845043785870075 ], [ 6038125.942949528805912, -9926091.91530903428793 ], [ 5810077.528568051755428, -9935617.211349198594689 ], [ 5620387.870245809666812, -9972095.991795783862472 ], [ 5559976.41054293140769, -9617976.784919567406178 ], [ 5402304.304949298501015, -9302897.711781315505505 ], [ 5247437.885732035152614, -9055848.90017282217741 ], [ 5139337.497208123095334, -8883403.042289439588785 ], [ 5384376.776444431394339, -8703084.284358441829681 ], [ 5582200.162717511877418, -8489333.864996982738376 ], [ 5655943.986902061849833, -8217697.773957218043506 ], [ 5522069.673287534154952, -7897886.913655846379697 ], [ 5189852.508829915896058, -8038327.724223298951983 ], [ 4936485.297342082485557, -8201206.645894049666822 ], [ 4507577.038357676938176, -8321897.476807778701186 ], [ 4309986.477168074809015, -8331950.039361354894936 ], [ 3792535.530050242319703, -8185415.257876659743488 ], [ 3635948.158174300566316, -8114396.435151007026434 ], [ 3350199.000816541258246, -7736430.046740191057324 ], [ 3319816.992457190528512, -7254634.595347563736141 ], [ 3453973.295530472416431, -7000555.00325947906822 ], [ 3748933.129524632357061, -6646940.781675638630986 ], [ 4201857.241311959922314, -6506378.126293363980949 ], [ 4428013.629921139217913, -6294653.764658884145319 ], [ 4586551.54222622141242, -6098374.566808100789785 ], [ 5126678.276865027844906, -6402195.855042429640889 ], [ 5751199.813791146501899, -6334680.013212578371167 ], [ 6088779.022940400056541, -6115253.527265563607216 ], [ 6375721.350717266090214, -5963342.883148400112987 ], [ 6780816.401696369983256, -5786113.798345041461289 ], [ 6907408.605127340182662, -5743916.397201385349035 ], [ 6780816.401696369983256, -6621622.34098944440484 ], [ 6789255.881925101391971, -7288341.27905922010541 ], [ 6780816.401696369983256, -7879104.895070413127542 ], [ 6839892.763297489844263, -8191365.663533473387361 ], [ 7244987.814276593737304, -8427671.109937950968742 ], [ 7396898.458393758162856, -9026874.20617787539959 ], [ 7388458.978165026754141, -9491045.618758101016283 ], [ 7244987.814276593737304, -9963656.511567054316401 ], [ 7042440.288787041790783, -10621935.969408098608255 ] ] ] ] } },
{ "type": "Feature", "properties": { "id": 6 }, "geometry": { "type": "MultiPolygon", "coordinates": [ [ [ [ -8570598.134365938603878, -367967.491499519906938 ], [ -8435566.450706236064434, 1961329.051630330272019 ], [ -7979834.518354744650424, 2906550.837248240597546 ], [ -7321555.06051370035857, 3598588.216004210524261 ], [ -6697033.523587581701577, 3818014.701951225288212 ], [ -5515506.291565192863345, 3936167.425153464078903 ], [ -3304362.471637582406402, 4054320.148355702869594 ], [ -1633345.386348778381944, 4071199.108813165687025 ], [ -941308.007592808455229, 3733619.899663912132382 ], [ -283028.54975176230073, 2704003.311758687719703 ], [ -80481.024262210354209, 2163876.57711988221854 ], [ 240219.22442957945168, 1218654.791501971893013 ], [ 527161.552206445485353, 526617.412746001966298 ], [ 679072.196323608979583, -519878.13561668433249 ], [ 105187.540769878774881, -1920831.853586086072028 ], [ -1143855.53308236040175, -2798537.797374146059155 ], [ -2308503.804647285491228, -3338664.532012951560318 ], [ -4030157.771308477967978, -3558091.01795996632427 ], [ -5566143.172937581315637, -2899811.560118922032416 ], [ -6612638.721300267614424, -2494716.509139817208052 ], [ -7524102.58600325230509, -1802679.130383847281337 ], [ -8317413.727503998205066, -908094.226138325408101 ], [ -8570598.134365938603878, -367967.491499519906938 ] ] ] ] } },
{ "type": "Feature", "properties": { "id": 7 }, "geometry": { "type": "MultiPolygon", "coordinates": [ [ [ [ -8937715.524315748363733, -1650768.486266683321446 ], [ -8498862.552421718835831, -2241532.102277876809239 ], [ -7418609.08314410597086, -3490575.176130115054548 ], [ -6557782.099813509732485, -4250128.396715936250985 ], [ -5730713.037397839128971, -5431655.628738323226571 ], [ -5325617.986418735235929, -6613182.86076071113348 ], [ -5291860.065503809601068, -7305220.239516681060195 ], [ -5646318.235110525041819, -8368594.74833682924509 ], [ -6102050.167462017387152, -9043753.166635336354375 ], [ -6726571.704388136044145, -9634516.782646531239152 ], [ -7654914.529548583552241, -9870822.229051008820534 ], [ -8802683.840656045824289, -10140885.596370410174131 ], [ -9697268.744901567697525, -10140885.596370410174131 ], [ -11418922.71156276203692, -9600758.861731605604291 ], [ -12634207.86450007557869, -8874963.562060710042715 ], [ -14001403.661554552614689, -8149168.262389814481139 ], [ -14642804.158938132226467, -7558404.646378621459007 ], [ -15672420.746843356639147, -6241845.730696531943977 ], [ -16280063.323312014341354, -5279744.984621159732342 ], [ -16550126.690631415694952, -4317644.238545786589384 ], [ -16043757.876907534897327, -3152995.966980861499906 ], [ -15250446.735406789928675, -2224653.14182041445747 ], [ -13917008.859267238527536, -1414463.039862205740064 ], [ -12701723.706329924985766, -823699.423851011903025 ], [ -11334527.909275447949767, -553636.056531608919613 ], [ -9815421.468103807419538, -1060004.870255489367992 ], [ -8937715.524315748363733, -1650768.486266683321446 ] ] ] ] } },
{ "type": "Feature", "properties": { "id": 8 }, "geometry": { "type": "MultiPolygon", "coordinates": [ [ [ [ 3797460.140839841216803, -3895670.227109218016267 ], [ 3544275.73397790081799, -3963186.068939069285989 ], [ 2970391.078424170613289, -3676243.741162203252316 ], [ 2312111.620583126321435, -3507454.136587576940656 ], [ 1771984.885944319888949, -3220511.808810710906982 ], [ 1721348.004571931436658, -2646627.153256979770958 ], [ 1822621.767316708341241, -2106500.418618174269795 ], [ 2143322.016008500009775, -1178157.593457726761699 ], [ 1907016.569604022428393, -401725.412414443679154 ], [ 1569437.360454767942429, 189038.203596750274301 ], [ 1569437.360454767942429, 762922.859150481410325 ], [ 1501921.518624916672707, 1303049.593789286911488 ], [ 995552.704901037737727, 1708144.64476839127019 ], [ 539820.772549545392394, 2096360.735290032811463 ], [ 252878.444772679358721, 2180755.537577345967293 ], [ -144123.953932300908491, 2333591.056240123696625 ], [ -270369.329408664256334, 2670245.390843763947487 ], [ 269757.405230142176151, 2788398.114046002738178 ], [ 759247.258496560156345, 3277887.967312420252711 ], [ 1214979.190848052501678, 3784256.781036300584674 ], [ 1400647.755880141630769, 3767377.820578837767243 ], [ 1586316.320912230759859, 2872792.916333315894008 ], [ 2582174.987902529537678, 3092219.402280330657959 ], [ 2953512.117966707795858, 3514193.413716897834092 ], [ 3189817.56437118537724, 3716740.939206449780613 ], [ 3443001.971233125776052, 3682983.018291524611413 ], [ 3527396.773520439863205, 2974066.679078091867268 ], [ 3713065.338552528992295, 2096360.735290032811463 ], [ 4388223.75685103610158, 1505597.119278838858008 ], [ 4557013.361425662413239, 492859.491831078194082 ], [ 4658287.124170439317822, -216056.847382354550064 ], [ 4000007.666329393163323, -1060004.870255487971008 ], [ 3611791.575807752087712, -1414463.039862204343081 ], [ 3544275.73397790081799, -2106500.418618174269795 ], [ 3544275.73397790081799, -2511595.46959727909416 ], [ 3510517.813062977045774, -3001085.322863696143031 ], [ 3797460.140839841216803, -3895670.227109218016267 ] ] ] ] } }
]
}
