{
"type": "FeatureCollection",
"name": "map052",
"crs": { "type": "name", "properties": { "name": "urn:ogc:def:crs:ESRI::102016" } },
"features": [
{ "type": "Feature", "properties": { "id": 1 }, "geometry": { "type": "MultiPolygon", "coordinates": [ [ [ [ -9158414.381881784647703, -1548826.165510933380574 ], [ -8274519.933614905923605, -2058765.270280286669731 ], [ -7968556.470753293484449, -2483714.524254747666419 ], [ -7543607.216778831556439, -3163633.330613885074854 ], [ -6863688.410419693216681, -4744444.555398880504072 ], [ -6285757.425014426931739, -5968298.406845329329371 ], [ -5928800.051675880327821, -7583105.57194828055799 ], [ -6098779.753265663981438, -9061928.97577940672636 ], [ -6897684.35073765181005, -10047811.245000155642629 ], [ -8138536.172343077138066, -10659738.17072338052094 ], [ -9192410.322199741378427, -10931705.693267034366727 ], [ -10620239.815553929656744, -10744728.021518271416426 ], [ -12099063.219385053962469, -10149799.065954025834799 ], [ -13390908.951467417180538, -9367892.438641017302871 ], [ -14852734.385139564052224, -7685093.392902152612805 ], [ -15447663.340703809633851, -6410245.630978768691421 ], [ -16042592.296268055215478, -5271381.630327212624252 ], [ -15753626.803565420210361, -3996533.86840382963419 ], [ -15379671.460067894309759, -2993653.629024101421237 ], [ -14376791.220688167959452, -2415722.643618833739311 ], [ -12931963.757174998521805, -1888785.568690502084792 ], [ -11402146.442866940051317, -1378846.463921148795635 ], [ -10416264.173646189272404, -1208866.762331364210695 ], [ -9158414.381881784647703, -1548826.165510933380574 ] ] ] ] } },
{ "type": "Feature", "properties": { "id": 2 }, "geometry": { "type": "MultiPolygon", "coordinates": [ [ [ [ -7627642.125429960899055, -3029177.476772077847272 ], [ -8427501.665045710280538, -2585702.345208618789911 ], [ -8852450.919020172208548, -2109759.180757221765816 ], [ -9238903.068352753296494, -1527072.466464725555852 ], [ -9396385.964107481762767, 14987.089115083217621 ], [ -9005432.650450978428125, 1357826.731674380600452 ], [ -8189530.082820013165474, 3142613.598367115482688 ], [ -7118657.962804371491075, 3856528.345044209621847 ], [ -5894804.111357923597097, 4366467.449813563376665 ], [ -4449976.647844754159451, 4604439.032039262354374 ], [ -2733181.661787932738662, 4689428.88283415324986 ], [ -1407339.989387612789869, 4281477.599018670618534 ], [ -710423.212869495153427, 3465575.031387706287205 ], [ -574439.451597668230534, 2717664.344392654486001 ], [ -608435.391915626823902, 1782775.985648839734495 ], [ -506447.570961754769087, 626914.014838305301964 ], [ -370463.809689927846193, -205986.522951638326049 ], [ -370463.809689927846193, -834911.418833840638399 ], [ -642431.33223358169198, -1650813.986464805901051 ], [ -1169368.40716191381216, -2534708.434731684625149 ], [ -1730301.422408202663064, -3588582.584588348865509 ], [ -2427218.198926320299506, -4183511.540152594447136 ], [ -3056143.094808522611856, -4455479.062696250155568 ], [ -3634074.080213788896799, -4523470.943332163617015 ], [ -5452856.887224482372403, -4132517.629675658419728 ], [ -6353749.305650340393186, -3843552.136973025277257 ], [ -7627642.125429960899055, -3029177.476772077847272 ] ] ] ] } },
{ "type": "Feature", "properties": { "id": 3 }, "geometry": { "type": "MultiPolygon", "coordinates": [ [ [ [ -765666.615886176005006, -5815316.675414527766407 ], [ 203217.683175596408546, -5543349.152870872989297 ], [ 1257091.833032258786261, -5390367.421440066769719 ], [ 2429951.774001772515476, -5203389.749691303819418 ], [ 3755793.446402090601623, -5288379.600486196577549 ], [ 4724677.745463862083852, -5747324.79477861430496 ], [ 5676564.074366654269397, -6104282.1681171618402 ], [ 6407476.791202728636563, -5815316.675414527766407 ], [ 7002405.74676697421819, -5390367.421440066769719 ], [ 8090275.836941595189273, -5339373.510963131673634 ], [ 9263135.777911104261875, -5968298.406845333985984 ], [ 9977050.524588201195002, -7736087.303379092365503 ], [ 9994048.494747180491686, -9452882.289435915648937 ], [ 9586097.210931695997715, -10625742.230405427515507 ], [ 8753196.673141751438379, -12002577.813282681629062 ], [ 7631330.64264917653054, -12903470.231708539649844 ], [ 6152507.238818052224815, -13515397.157431764528155 ], [ 4503704.133397142402828, -13753368.739657461643219 ], [ 2990884.789248061366379, -13651380.918703591451049 ], [ 1478065.445098978467286, -13073449.933298323303461 ], [ -153739.690162952058017, -11832598.111692897975445 ], [ -1003638.198111874051392, -10914707.723108060657978 ], [ -2244490.019717300310731, -9775843.722456505522132 ], [ -2686437.24385073967278, -8738967.542758820578456 ], [ -2890412.885758480988443, -7668095.422743178904057 ], [ -2652441.303532782942057, -6954180.676066083833575 ], [ -1955524.52701466716826, -6274261.869706945493817 ], [ -765666.615886176005006, -5815316.675414527766407 ] ] ] ] } },
{ "type": "Feature", "properties": { "id": 4 }, "geometry": { "type": "MultiPolygon", "coordinates": [ [ [ [ -698217.894353772513568, -5796383.700949291698635 ], [ -1190615.869860637001693, -4965418.167465605773032 ], [ -1122623.989224723540246, -4523470.943332166410983 ], [ -969642.257793917320669, -3690570.405542222317308 ], [ -170737.660321930423379, -3129637.390295933932066 ], [ 407193.325083336792886, -2959657.688706149347126 ], [ 1121108.071760431863368, -3163633.330613890662789 ], [ 1767030.937801613472402, -3452598.823316524270922 ], [ 2344961.923206879757345, -4013531.838562812656164 ], [ 2514941.624796663410962, -4795438.465875821188092 ], [ 2623760.35371260670945, -5215813.376595844514668 ], [ 2429951.774001772515476, -5594343.063347808085382 ], [ 1960519.507583411876112, -5278226.777671042829752 ], [ 1869018.758755483664572, -5050408.018260498531163 ], [ 1648045.146688763983548, -5050408.018260498531163 ], [ 1242861.175722093321383, -5392433.162017349153757 ], [ 798146.638739841990173, -5713328.854460657574236 ], [ -757.958732145838439, -5968298.406845333985984 ], [ -698217.894353772513568, -5796383.700949291698635 ] ] ] ] } },
{ "type": "Feature", "properties": { "id": 5 }, "geometry": { "type": "MultiPolygon", "coordinates": [ [ [ [ 2437343.801468487363309, -5579905.612510428763926 ], [ 2255536.305516752880067, -5231195.114232393912971 ], [ 2454650.99056851817295, -4518101.548426352441311 ], [ 2786909.147340319119394, -3826554.166814049705863 ], [ 2854901.027976232580841, -3724566.345860179513693 ], [ 3262852.311791715212166, -3095641.449977976735681 ], [ 4112750.819740637205541, -2738684.076639429666102 ], [ 5098633.088961387984455, -2500712.494413731154054 ], [ 6118511.298500095494092, -2313734.822664968669415 ], [ 6951411.836290038190782, -2194749.03155211918056 ], [ 7206381.38867471460253, -2432720.613777817692608 ], [ 7393359.060423477552831, -3078643.47981899837032 ], [ 7937294.105510788969696, -4047527.77888077031821 ], [ 7818308.314397939480841, -5016412.077942540869117 ], [ 7653272.723982287570834, -5359858.031883099116385 ], [ 6985407.776607994921505, -6019292.317322269082069 ], [ 5812547.835638483054936, -6359251.720501838251948 ], [ 4469708.193079185672104, -6410245.630978773348033 ], [ 3619809.68513026367873, -6087284.197958183474839 ], [ 2786909.147340319119394, -5730326.824619635939598 ], [ 2437343.801468487363309, -5579905.612510428763926 ] ] ] ] } },
{ "type": "Feature", "properties": { "id": 6 }, "geometry": { "type": "MultiPolygon", "coordinates": [ [ [ [ 5349353.148806313052773, -2245742.942029052879661 ], [ 4879163.510771088302135, -2553687.909838975872844 ], [ 4142497.267518844455481, -3350611.002362651750445 ], [ 3411584.550682770088315, -3690570.405542219989002 ], [ 2864129.745964860077947, -3710338.738961045630276 ], [ 2058828.16361758671701, -3735813.777784969191998 ], [ 1388826.101764336228371, -3673572.43538324162364 ], [ 691909.325246220454574, -3333613.032203673385084 ], [ 407193.325083336792886, -2959657.688706149347126 ], [ 130976.30999993160367, -2075763.240439268760383 ], [ -157989.182702701538801, -1055885.030900562182069 ], [ -370463.809689927846193, -273978.403587554115802 ], [ -565123.396707962732762, 1291906.706628652755171 ], [ -174987.15286167897284, 2785656.225028562359512 ], [ 555925.56397439353168, 4145493.837746838573366 ], [ 1320834.221128422766924, 4621437.002198234200478 ], [ 2731665.744323633611202, 4876406.554582910612226 ], [ 3904525.685293145477772, 4944398.435218825004995 ], [ 4737426.223083088174462, 4825412.644105976447463 ], [ 5502334.880237119272351, 4740422.793311083689332 ], [ 5859292.253575665876269, 4638434.972357213497162 ], [ 6641198.880888674408197, 4264479.62885968759656 ], [ 7338115.657406788319349, 3652552.703136463649571 ], [ 7610083.179950445890427, 3261599.389479959383607 ], [ 7542091.29931453242898, 2156731.329146360978484 ], [ 7304119.717088833451271, 949875.447858892381191 ], [ 6692192.79136560857296, -562943.896290188655257 ], [ 6029271.955165449529886, -1735803.837259700521827 ], [ 5349353.148806313052773, -2245742.942029052879661 ] ] ] ] } },
{ "type": "Feature", "properties": { "id": 7 }, "geometry": { "type": "MultiPolygon", "coordinates": [ [ [ [ 5390148.277187859639525, -2215146.595742892473936 ], [ 5523412.363234248943627, -2115198.531208101194352 ], [ 5871530.792090126313269, -1854109.70956619293429 ], [ 6364214.765432766638696, -1143212.711402139626443 ], [ 6692192.791365610435605, -562943.896290196105838 ], [ 7014189.708991476334631, 233104.038951538153924 ], [ 7317706.408531544730067, 1018779.383032640907913 ], [ 7544496.105279018171132, 2195809.426069258246571 ], [ 7604023.068919939920306, 3163122.585234232246876 ], [ 7489170.230437409132719, 3435411.754404948558658 ], [ 7050874.513709203340113, 3904764.439066051505506 ], [ 6340465.562691367231309, 4408308.607127965427935 ], [ 5821126.999822489917278, 4649339.330572406761348 ], [ 5434342.999601205810905, 5692309.122213874012232 ], [ 4040509.44656497426331, 6678191.3914346229285 ], [ 2918643.416072396561503, 7188130.496203975751996 ], [ 130976.309999933466315, 8309996.526696553453803 ], [ -1534824.765579953789711, 10213769.184502139687538 ], [ -2384723.273528877645731, 12423505.305169336497784 ], [ -2588698.915436618030071, 14191294.20170309394598 ], [ -1738800.407487696036696, 14701233.306472446769476 ], [ 130976.309999933466315, 15109184.590287931263447 ], [ 1762781.445261862128973, 14837217.067744273692369 ], [ 3224606.878934009000659, 14055310.440431267023087 ], [ 5332355.178647333756089, 11641598.677856329828501 ], [ 5604322.701190989464521, 10842694.080384343862534 ], [ 7117142.04534007050097, 8785939.691147951409221 ], [ 7593085.209791466593742, 8411984.347650425508618 ], [ 8154018.225037755444646, 7885047.272722094319761 ], [ 8578967.479012215510011, 7341112.227634783834219 ], [ 9275884.255530331283808, 6525209.66000381950289 ], [ 10108784.793320275843143, 5301355.808557371608913 ], [ 10482740.136817801743746, 4706426.852993126027286 ], [ 10584727.957771671935916, 4281477.599018665030599 ], [ 11451624.43587957136333, 2309713.060577166266739 ], [ 11264646.764130810275674, 1425818.612310287542641 ], [ 10584727.957771671935916, -375966.224541426636279 ], [ 9734829.449822749942541, -1735803.837259702384472 ], [ 8171016.195196732878685, -2415722.643618839792907 ], [ 7213221.306698750704527, -2456349.421497214119881 ], [ 6998156.254227221012115, -2500712.494413731619716 ], [ 6182253.686596255749464, -2653694.225844537839293 ], [ 5390148.277187859639525, -2215146.595742892473936 ] ] ] ] } },
{ "type": "Feature", "properties": { "id": 8 }, "geometry": { "type": "MultiPolygon", "coordinates": [ [ [ [ 10105929.761813022196293, 5305550.956894560717046 ], [ 9275884.255530338734388, 5998272.585075486451387 ], [ 8442983.717740394175053, 6967156.884137257933617 ], [ 7661077.090427385643125, 7919043.213040051050484 ], [ 7162183.98519351799041, 8750549.595548814162612 ], [ 5536330.820555080659688, 10179773.24418418481946 ], [ 4635438.402129222638905, 11114661.602927997708321 ], [ 4142497.267518848180771, 11845574.319764072075486 ], [ 4397466.819903524592519, 12389509.364851381629705 ], [ 4498270.426616716198623, 12596760.248730102553964 ], [ 5485336.910078145563602, 13358393.663913153111935 ], [ 6726188.731683571822941, 13681355.096933742985129 ], [ 7355113.627565774135292, 13647359.156615786254406 ], [ 8833937.031396899372339, 12984438.320415627211332 ], [ 9802821.330458670854568, 12270523.573738532140851 ], [ 10584727.957771679386497, 11063667.692451063543558 ], [ 11451624.43587957881391, 9720828.049891766160727 ], [ 12505498.585736243054271, 7953039.153358007781208 ], [ 12879453.929233768954873, 6695189.361593602225184 ], [ 12981441.750187639147043, 5624317.241577960550785 ], [ 12998439.720346618443727, 4842410.614264952018857 ], [ 12777466.108279898762703, 4621437.002198232337832 ], [ 12267527.003510544076562, 4400463.390131512656808 ], [ 11094667.062541032209992, 4689428.882834145799279 ], [ 10105929.761813022196293, 5305550.956894560717046 ] ] ] ] } }
]
}
