{
"type": "FeatureCollection",
"name": "map013",
"crs": { "type": "name", "properties": { "name": "urn:ogc:def:crs:ESRI::102016" } },
"features": [
{ "type": "Feature", "properties": { "id": 1 }, "geometry": { "type": "MultiPolygon", "coordinates": [ [ [ [ -1919639.517448354512453, -6569191.323166038841009 ], [ -1832630.360850129276514, -6047136.383576684631407 ], [ 1321451.565835552290082, -4785503.612902412191033 ], [ 1821754.216275349259377, -5699099.757183781825006 ], [ 81571.08431083522737, -6090640.961875797249377 ], [ -1919639.517448354512453, -6569191.323166038841009 ] ] ] ] } },
{ "type": "Feature", "properties": { "id": 2 }, "geometry": { "type": "MultiPolygon", "coordinates": [ [ [ [ -1840860.956744555849582, -6096519.958943245001137 ], [ -1180061.686363436281681, -3697889.155424590688199 ], [ -462236.144428074359894, -3415109.396480357274413 ], [ 103323.373460391536355, -3088825.059237010776997 ], [ 1234442.409237327054143, -3828402.89032192947343 ], [ 3083386.986949622631073, -5111787.95014575868845 ], [ 1821754.216275349259377, -5699099.757183781825006 ], [ 1339779.268686377676204, -4818971.592021310701966 ], [ -1840860.956744555849582, -6096519.958943245001137 ] ] ] ] } },
{ "type": "Feature", "properties": { "id": 3 }, "geometry": { "type": "MultiPolygon", "coordinates": [ [ [ [ 115923.922304538631579, -3097063.879635106772184 ], [ 777644.337096638977528, -2131724.336656530853361 ], [ 1027795.662316537462175, -1446527.228445503860712 ], [ 1723868.915102343074977, -1696678.553665402811021 ], [ 2354685.300439479760826, -2077343.613782640080899 ], [ 1832630.360850125551224, -2903930.601465784013271 ], [ 1273991.102334292139858, -3855854.336118646431714 ], [ 115923.922304538631579, -3097063.879635106772184 ] ] ] ] } },
{ "type": "Feature", "properties": { "id": 4 }, "geometry": { "type": "MultiPolygon", "coordinates": [ [ [ [ 1012779.90913526318036, -1487657.334985516034067 ], [ 1299699.276685994118452, 348036.626392900012434 ], [ 1560726.746480669826269, 2479760.963049429468811 ], [ 1495469.879032000899315, 4676742.167154628783464 ], [ 4149249.155277883633971, 3871907.468621040694416 ], [ 4040487.709530102089047, 2501513.252198985777795 ], [ 4040487.709530102089047, 1261632.770674270577729 ], [ 3975230.842081433162093, -1218128.19237516168505 ], [ 4127496.866128327324986, -3523870.842228142544627 ], [ 3213900.721846958622336, -3980668.914368826895952 ], [ 3561937.348239861428738, -4872512.769500641152263 ], [ 3083386.986949622631073, -5111787.95014575868845 ], [ 1309900.99519210588187, -3794663.721962722018361 ], [ 2319795.49012038949877, -2132585.81345453299582 ], [ 1891573.423734137788415, -1797879.550253554712981 ], [ 1012779.90913526318036, -1487657.334985516034067 ] ] ] ] } },
{ "type": "Feature", "properties": { "id": 5 }, "geometry": { "type": "MultiPolygon", "coordinates": [ [ [ [ 4127496.866128327324986, -3523870.842228142544627 ], [ 3982019.96485406300053, -960141.527015232713893 ], [ 4040487.709530102089047, 1587917.107917616143823 ], [ 4138138.822312161326408, 3731917.273252938874066 ], [ 5497891.082550382241607, 4654989.87800507247448 ], [ 7259826.503664452582598, 2414504.095600760541856 ], [ 8673725.298385620117188, 826586.987683141604066 ], [ 9870101.20161122456193, 43504.578299110755324 ], [ 9478559.996919207274914, -2153476.625806087628007 ], [ 8151670.358796264976263, -2349247.228152096271515 ], [ 8173422.647945821285248, -1587917.107917621731758 ], [ 7194569.636215783655643, -1435651.08387072570622 ], [ 6172212.04618663340807, -1848944.577712297439575 ], [ 4932331.564661916345358, -2588522.408797215670347 ], [ 4127496.866128327324986, -3523870.842228142544627 ] ] ] ] } },
{ "type": "Feature", "properties": { "id": 6 }, "geometry": { "type": "MultiPolygon", "coordinates": [ [ [ [ -1190234.80176290217787, -3734816.47822692245245 ], [ -2267676.143841259181499, -3589127.709676811471581 ], [ -2811483.372580170631409, -2871302.167741449549794 ], [ -2898492.529178395867348, -1740183.131964515894651 ], [ -3137767.709823517128825, 65256.867448667064309 ], [ -3029006.264075734652579, 1827192.2885627374053 ], [ -2767978.794281058013439, 3871907.468621040694416 ], [ -2419942.167888155207038, 4198191.805864387191832 ], [ -788520.481671422719955, 4676742.167154628783464 ], [ 1147433.252639098092914, 4850760.480351079255342 ], [ 1500672.532323207240552, 4501586.173017347231507 ], [ 1539539.036824221489951, 3193080.521483193617314 ], [ 1461649.844732588157058, 1670632.932106758700684 ], [ 1226685.46046461770311, -119101.659456959518138 ], [ 1017494.561817848356441, -1457493.252535111736506 ], [ 713588.709105098270811, -2225170.797228533774614 ], [ 143217.73856500495458, -3114947.373491589911282 ], [ -586058.197369233588688, -3463887.780972328968346 ], [ -1190234.80176290217787, -3734816.47822692245245 ] ] ] ] } },
{ "type": "Feature", "properties": { "id": 7 }, "geometry": { "type": "MultiPolygon", "coordinates": [ [ [ [ -2311180.722140373662114, -7069493.973605839535594 ], [ -1549850.601905897259712, -7526292.045746523886919 ], [ 342598.554105510935187, -7548044.334896080195904 ], [ 2409066.02331337146461, -7221759.997652733698487 ], [ 3648946.504838086664677, -8570401.924925232306123 ], [ 4671304.094867238774896, -9962548.430496843531728 ], [ 3257405.300146071240306, -10528107.948385309427977 ], [ 1691240.481378009542823, -11093667.466273777186871 ], [ -157704.096334287896752, -11963759.032256033271551 ], [ -1897887.228298800066113, -10180071.321992406621575 ], [ -3181272.288122629746795, -8178860.720233216881752 ], [ -2311180.722140373662114, -7069493.973605839535594 ] ] ] ] } },
{ "type": "Feature", "properties": { "id": 8 }, "geometry": { "type": "MultiPolygon", "coordinates": [ [ [ [ 2296248.0695890490897, -7239573.358767100609839 ], [ 2800607.228005386888981, -7112998.551904952153563 ], [ 3018130.119500949978828, -6634448.190614711493254 ], [ 2713598.071407159790397, -5807861.202931566163898 ], [ 3148643.854398289695382, -5481576.865688219666481 ], [ 3550078.588641548063606, -4842124.698029963299632 ], [ 4171001.444427441805601, -5329310.841641325503588 ], [ 4801817.829764576628804, -5481576.865688219666481 ], [ 5606652.528298165649176, -5459824.576538663357496 ], [ 6650762.407476872205734, -4916017.347799753770232 ], [ 7194569.636215783655643, -5329310.841641325503588 ], [ 7955899.7564502581954, -6373420.720820033922791 ], [ 7912395.178151145577431, -9288227.46686059422791 ], [ 6324478.070233527570963, -9505750.358356159180403 ], [ 4641300.937419574707747, -9974549.693475909531116 ], [ 3523262.863753034733236, -8433693.403043245896697 ], [ 2296248.0695890490897, -7239573.358767100609839 ] ] ] ] } },
{ "type": "Feature", "properties": { "id": 9 }, "geometry": { "type": "MultiPolygon", "coordinates": [ [ [ [ -2189623.812186969444156, -7142428.119577881880105 ], [ -1801105.585962844081223, -6540846.252593416720629 ], [ -189044.117759867629502, -6155353.292805748060346 ], [ 1831309.705132151488215, -5694651.512371132150292 ], [ 2741441.001518593169749, -5786979.005347991362214 ], [ 3004017.658735627308488, -6596142.939965979196131 ], [ 2853498.06806081533432, -6996638.703783009201288 ], [ 2411722.690498001873493, -7210593.657308075577021 ], [ 1784657.74477975256741, -7320350.7784738317132 ], [ 741370.925190486945212, -7485080.276303716003895 ], [ -505878.650056010344997, -7538291.723353994078934 ], [ -1601032.458728384226561, -7495582.931653032079339 ], [ -2189623.812186969444156, -7142428.119577881880105 ] ] ] ] } },
{ "type": "Feature", "properties": { "id": 10 }, "geometry": { "type": "MultiPolygon", "coordinates": [ [ [ [ 7879344.039231512695551, -9292755.020137256011367 ], [ 7346835.660262677818537, -12224786.502050710842013 ], [ 5563147.949999051168561, -13094878.068032966926694 ], [ 3474928.191641636192799, -13225391.802930304780602 ], [ 2256799.999266475439072, -12050768.188854260370135 ], [ 132470.208496480481699, -11827206.418218024075031 ], [ 1691240.481378009542823, -11093667.466273777186871 ], [ 3188985.813182825222611, -10552814.98534425906837 ], [ 4626299.358695742674172, -9980550.324965441599488 ], [ 7879344.039231512695551, -9292755.020137256011367 ] ] ] ] } },
{ "type": "Feature", "properties": { "id": 11 }, "geometry": { "type": "MultiPolygon", "coordinates": [ [ [ [ 5497891.082550382241607, 4654989.87800507247448 ], [ 3540185.059090301394463, 6917227.94955894164741 ], [ 995167.22859220020473, 9201218.310262365266681 ], [ 342598.554105507209897, 10919649.153077322989702 ], [ 864653.493694860488176, 11702731.562461353838444 ], [ 2213295.420967359095812, 12203034.212901152670383 ], [ 3692451.083137195557356, 11724483.851610910147429 ], [ 5236863.612755702808499, 10680373.97243220359087 ], [ 7042303.61216888576746, 8787924.816420793533325 ], [ 8325688.671992715448141, 6873723.371259829029441 ], [ 9761339.755863439291716, 4676742.167154629714787 ], [ 11001220.237388152629137, 2392751.806451205164194 ], [ 11066477.104836821556091, 1022357.590029152110219 ], [ 10587926.743546582758427, 108761.445747781544924 ], [ 9809188.751088280230761, 83374.54591412935406 ], [ 9485245.264216268435121, 295410.282775809173472 ], [ 8572795.951724551618099, 939938.407779419561848 ], [ 7628618.192637148313224, 2000322.660292963963002 ], [ 6667725.899131649173796, 3167422.148278275504708 ], [ 5497891.082550382241607, 4654989.87800507247448 ] ] ] ] } },
{ "type": "Feature", "properties": { "id": 12 }, "geometry": { "type": "MultiPolygon", "coordinates": [ [ [ [ -7564358.551758252084255, -424169.638416349887848 ], [ -6911789.877271559089422, -1772811.565688848495483 ], [ -6759523.853224664926529, -3273719.517008241266012 ], [ -6911789.877271559089422, -3817526.745747151784599 ], [ -7694872.286655590869486, -4252572.528738280758262 ], [ -8260431.804544057697058, -3382480.962756023742259 ], [ -8456202.406890064477921, -2468884.818474654108286 ], [ -8477954.696039620786905, -1685802.409090622328222 ], [ -8151670.358796275220811, -1185499.758650825358927 ], [ -7564358.551758252084255, -424169.638416349887848 ] ] ] ] } },
{ "type": "Feature", "properties": { "id": 13 }, "geometry": { "type": "MultiPolygon", "coordinates": [ [ [ [ -9364360.478884046897292, -2447132.529325098730624 ], [ -8537773.491200901567936, -3512994.697653363458812 ], [ -7972213.973312435671687, -5057407.227271869778633 ], [ -7711186.503517758101225, -6558315.178591262549162 ], [ -7754691.081816870719194, -7754691.081816866062582 ], [ -7928709.395013323053718, -8777048.671846017241478 ], [ -8385507.467154007405043, -9581883.370379604399204 ], [ -9429617.346332715824246, -10234452.044866297394037 ], [ -11082791.321699002757668, -9973424.57507162168622 ], [ -12192158.068326380103827, -9516626.50293093547225 ], [ -13627809.152197103947401, -8298498.310555776581168 ], [ -14541405.296478474512696, -7123874.696479729376733 ], [ -15150469.39266605488956, -6101517.106450578197837 ], [ -15237478.549264280125499, -5383691.56451521627605 ], [ -14889441.922871377319098, -4404838.5527851767838 ], [ -14041102.646038677543402, -3382480.962756025139242 ], [ -12170405.779176823794842, -2751664.577418888919055 ], [ -10887020.719352995976806, -2468884.81847465550527 ], [ -9364360.478884046897292, -2447132.529325098730624 ] ] ] ] } },
{ "type": "Feature", "properties": { "id": 14 }, "geometry": { "type": "MultiPolygon", "coordinates": [ [ [ [ -4883388.914075423032045, 2621150.842521547339857 ], [ -4078554.215541835874319, 619940.240762356203049 ], [ -3795774.456597601994872, -1729306.987389737740159 ], [ -4013297.348093166947365, -3338976.384456912986934 ], [ -4535352.287682520225644, -3969792.76979404874146 ], [ -5535957.588562116026878, -3295471.806157799437642 ], [ -6449553.732843486592174, -1990334.457184414379299 ], [ -6928104.094133727252483, -793958.553958810865879 ], [ -7145626.985629292204976, 989729.156304815318435 ], [ -6862847.226685058325529, 2186105.059530418831855 ], [ -6427801.443693930283189, 3186710.360410014167428 ], [ -5818737.347506349906325, 3621756.143401142209768 ], [ -4948645.781524091959, 3556499.275952473282814 ], [ -4557104.576832076534629, 3447737.830204690806568 ], [ -4883388.914075423032045, 2621150.842521547339857 ] ] ] ] } },
{ "type": "Feature", "properties": { "id": 15 }, "geometry": { "type": "MultiPolygon", "coordinates": [ [ [ [ 6539364.545666237361729, -4974037.067492792382836 ], [ 5759401.276412904262543, -5380267.936895569786429 ], [ 4924746.049230379983783, -5478254.481378332711756 ], [ 4321440.520593513734639, -5365623.722095204517245 ], [ 3688430.527056317776442, -4950677.872887953184545 ], [ 3465360.328783905133605, -4625034.157144752331078 ], [ 3250824.586959885433316, -4075286.318720701616257 ], [ 4075291.372169392183423, -3549973.589207610115409 ], [ 4846358.311827571131289, -2688437.270199292339385 ], [ 5906995.841029612347484, -2007143.717630520230159 ], [ 6553607.119898866862059, -1694763.590466926340014 ], [ 7152302.907056016847491, -1452737.633956589037552 ], [ 8047054.328808538615704, -1568259.813829599879682 ], [ 8166418.801174379885197, -1833051.744918074458838 ], [ 8288215.748305892571807, -2329101.187076905276626 ], [ 7993966.262461978942156, -2882178.312316225841641 ], [ 7406654.455423954874277, -4056801.926392272114754 ], [ 6539364.545666237361729, -4974037.067492792382836 ] ] ] ] } }
]
}
