{
"type": "FeatureCollection",
"name": "map060",
"crs": { "type": "name", "properties": { "name": "urn:ogc:def:crs:ESRI::102016" } },
"features": [
{ "type": "Feature", "properties": { "id": null }, "geometry": { "type": "MultiPolygon", "coordinates": [ [ [ [ 7845727.867641272954643, 62154.332249082624912 ], [ 7524643.629953698255122, 366339.399532048031688 ], [ 7169761.051456903107464, 636726.126005796715617 ], [ 6916273.495387765578926, 1008507.874907199293375 ], [ 7102164.369838467799127, 1430987.135022430680692 ], [ 7338752.75550299603492, 1633777.179877741262317 ], [ 7152861.881052293814719, 2512534.04091742169112 ], [ 6916273.495387765578926, 3104005.00507874507457 ], [ 6510693.405677143484354, 3425089.242766320705414 ], [ 6291004.190417223609984, 3661677.62843084987253 ], [ 6003718.293538866564631, 4101056.058950690086931 ], [ 5750230.73746972810477, 5115006.283227244392037 ], [ 5310852.306949887424707, 6517637.426809811033309 ], [ 5141860.602903795428574, 7328797.606231054291129 ], [ 4617986.320360909216106, 8072361.104033860377967 ], [ 4550389.638742472045124, 9170807.180333461612463 ], [ 5023566.410071530379355, 9863673.166922438889742 ], [ 5260154.795736060477793, 10319950.767846889793873 ], [ 5851625.759897382929921, 9897471.507731657475233 ], [ 6612088.428104798309505, 9306000.543570335954428 ], [ 7271156.073884558863938, 8241352.808079953305423 ], [ 8842778.921513218432665, 6906318.346115822903812 ], [ 9755334.123362116515636, 5689578.076983958482742 ], [ 10600292.643592577427626, 4219350.251782953739166 ], [ 11022771.903707809746265, 3340593.390743274241686 ], [ 11225561.948563121259212, 2259046.484848283231258 ], [ 11242461.118967730551958, 1430987.13502242974937 ], [ 10819981.858852498233318, 839516.170861106365919 ], [ 10042620.020240474492311, 214246.865890564396977 ], [ 9366653.204056106507778, -89938.201392401009798 ], [ 8961073.114345483481884, -225131.564629275351763 ], [ 7845727.867641272954643, 62154.332249082624912 ] ] ] ] } },
{ "type": "Feature", "properties": { "id": 2 }, "geometry": { "type": "MultiPolygon", "coordinates": [ [ [ [ 988889.475971075240523, -1822103.167864847462624 ], [ 1217028.276433299761266, -1915048.605090198572725 ], [ 1369120.810074782930315, -2388225.376419256906956 ], [ 1605709.195739312563092, -2852952.562546011060476 ], [ 1800049.655392318498343, -3326129.333875069860369 ], [ 2129583.47828219877556, -3461322.697111943736672 ], [ 2459117.301172079052776, -3419074.771100420504808 ], [ 2881596.561287309508771, -3613415.230753426905721 ], [ 2999890.75411957455799, -3833104.446013346780092 ], [ 2822449.464871176984161, -4204886.194914749823511 ], [ 2729504.027645826805383, -4500621.676995411515236 ], [ 2619659.420015866402537, -4703411.721850723028183 ], [ 2501365.22718360228464, -5252634.76000052317977 ], [ 2357722.278744423296303, -5506122.316069661639631 ], [ 1884545.507415364962071, -5734261.116531886160374 ], [ 1614158.780941617209464, -5894803.235375674441457 ], [ 1242377.032040213700384, -5818756.968554932624102 ], [ 963540.720364161301404, -5801857.798150323331356 ], [ 752301.090306545607746, -5784958.62774571403861 ], [ 405868.097012056503445, -5911702.405780283734202 ], [ 101683.029729090165347, -5945500.746589501388371 ], [ -236300.378363094758242, -6004647.843005633912981 ], [ -439090.423218405805528, -5979299.087398719973862 ], [ -641880.468073716387153, -6004647.843005633912981 ], [ -878468.853738245787099, -5903252.82057797908783 ], [ -1098158.0689981658943, -5708912.360924972221255 ], [ -1148855.580211993539706, -5404727.293642005883157 ], [ -1030561.387379728956148, -4602016.699423067271709 ], [ -870019.268535941140726, -3850003.616417956072837 ], [ -819321.75732211349532, -3621864.815955731552094 ], [ -1123506.824605079833418, -3317679.748672765213996 ], [ -1672729.862754879985005, -3072641.777805931400508 ], [ -2196604.145297766197473, -2734658.369713746476918 ], [ -2543037.138592255767435, -2388225.376419256906956 ], [ -2652881.74622221570462, -1999544.457113244570792 ], [ -2221952.900904680136591, -1441871.833761139772832 ], [ -1791024.055587144568563, -816602.528790598036721 ], [ -1512187.743911092169583, -470169.535496108583175 ], [ -1241801.017437344416976, -343425.757461539353244 ], [ -1022111.802177424309775, -301177.831450016237795 ], [ -701027.564489848911762, -385673.683473062352277 ], [ -286997.889576922636479, -503967.876305327052251 ], [ -177153.281946962233633, -503967.876305327052251 ], [ 203078.052156745456159, -1213733.033298915019259 ], [ 524162.289844321087003, -1703808.975032582879066 ], [ 828347.357127287425101, -1813653.582662543049082 ], [ 988889.475971075240523, -1822103.167864847462624 ] ] ] ] } },
{ "type": "Feature", "properties": { "id": 3 }, "geometry": { "type": "MultiPolygon", "coordinates": [ [ [ [ 7765456.808219377882779, -56139.860583181958646 ], [ 7427473.400127192959189, -149085.297808533068746 ], [ 7081040.40683270432055, -613812.483935286756605 ], [ 6633212.391110558994114, -875749.625206729862839 ], [ 5991043.915735407732427, -1298228.885321961250156 ], [ 5619262.166834005154669, -1501018.930177271831781 ], [ 5391123.366371779702604, -1264430.544512742664665 ], [ 5222131.66232568770647, -884199.210409034509212 ], [ 4664459.038973582908511, -242030.735033884644508 ], [ 4647559.868568973615766, 222696.451092869974673 ], [ 4427870.653309052810073, 814167.415254193358123 ], [ 4258878.949262961745262, 1439436.720224734861404 ], [ 4191282.267644524108618, 1937962.247160707600415 ], [ 3946244.29677769029513, 1971760.587969925720245 ], [ 3642059.229494723957032, 2064706.025195276830345 ], [ 3532214.621864764019847, 2326643.166466719936579 ], [ 3498416.281055545434356, 2630828.233749686274678 ], [ 3557563.377471677493304, 2977261.227044175378978 ], [ 3549113.792269373312593, 3340593.390743274241686 ], [ 3768803.007529293186963, 3357492.561147883534431 ], [ 4157483.926835305523127, 3256097.538720227777958 ], [ 4546164.846141317859292, 3137803.3458879631944 ], [ 4825001.157817371189594, 3154702.516292572487146 ], [ 4799652.402210457250476, 3365942.146350188180804 ], [ 4537715.260939013212919, 3551833.020800889469683 ], [ 4318026.045679093338549, 3729274.310049286577851 ], [ 4030740.148800736293197, 3830669.332476941868663 ], [ 3616710.473887810017914, 3771522.236060809809715 ], [ 3219579.969379493035376, 3771522.236060809809715 ], [ 3042138.680131095927209, 3923614.769702292978764 ], [ 3025239.509726486634463, 4025009.792129948269576 ], [ 3261827.89539101626724, 4253148.59259217325598 ], [ 3304075.821402539033443, 4531984.90426822565496 ], [ 3447718.769841717556119, 4675627.852707403711975 ], [ 3937794.711575385648757, 4785472.460337364114821 ], [ 4385622.727297530509531, 4844619.556753496639431 ], [ 4934845.765447330661118, 4836169.971551191993058 ], [ 5458720.047990216873586, 4658728.682302794419229 ], [ 5779804.28567779250443, 4354543.615019828081131 ], [ 6033116.72081009671092, 4056093.758418220095336 ], [ 6265178.23025743290782, 3701176.155734058935195 ], [ 6291004.190417223609984, 3661677.62843084987253 ], [ 6434705.012727650813758, 3506922.896711928769946 ], [ 6510693.405677143484354, 3425089.242766320705414 ], [ 6656130.876480524428189, 3309951.245046977419406 ], [ 6937834.50590399093926, 3050102.478788181673735 ], [ 6973116.159475996159017, 2961898.344858168624341 ], [ 7133631.790591876022518, 2560609.2670684652403 ], [ 7214008.463382670655847, 2223477.469901095610112 ], [ 7222131.279258243739605, 2185078.70394383976236 ], [ 7332353.503276330418885, 1664028.19040379836224 ], [ 7227069.120505475439131, 1538048.349879866000265 ], [ 7102164.369838467799127, 1430987.135022430680692 ], [ 7040304.571470656432211, 1290396.684186497004703 ], [ 6916273.495387765578926, 1008507.874907199293375 ], [ 6950506.828947172500193, 958298.985686736064963 ], [ 7029606.840361113660038, 842285.63561295485124 ], [ 7131416.142587487585843, 692965.325680939131416 ], [ 7169761.051456903107464, 636726.126005796715617 ], [ 7399263.66588650085032, 461866.991202293895185 ], [ 7644288.522902242839336, 252991.606212374405004 ], [ 7765456.808219377882779, -56139.860583181958646 ] ] ] ] } },
{ "type": "Feature", "properties": { "id": 4 }, "geometry": { "type": "MultiPolygon", "coordinates": [ [ [ [ 7439649.44388182181865, -145736.885776010225527 ], [ 7765456.808219377882779, -56139.860583181958646 ], [ 7758474.450409114360809, -38326.069574018067215 ], [ 8069641.875502344220877, -233581.149831578426529 ], [ 8171036.89793, -377224.098270757007413 ], [ 8534369.061629097908735, -841951.284397511044517 ], [ 8948398.736542023718357, -1103888.425668954150751 ], [ 9277932.559431904926896, -1433422.248558834427968 ], [ 9387777.167061865329742, -1762956.071448714472353 ], [ 9337079.655848037451506, -1999544.457113243639469 ], [ 9117390.440588116645813, -2531868.324858434963971 ], [ 8686461.595270581543446, -2844502.977343705948442 ], [ 8128788.971918476745486, -3013494.681389797944576 ], [ 7342977.548104147426784, -3106440.118615149054676 ], [ 6751506.583942824043334, -3182486.38543589040637 ], [ 6405073.590648334473372, -3478221.867516552098095 ], [ 6016392.671342321671546, -3993646.564857133664191 ], [ 5830501.796891620382667, -4145739.098498617298901 ], [ 5391123.366371779702604, -4356978.728556232526898 ], [ 4909497.009840416722, -4483722.50659080222249 ], [ 4444769.823713662102818, -4509071.262197716161609 ], [ 4115236.000823782756925, -4449924.165781583636999 ], [ 3853298.859552339185029, -4644264.625434589572251 ], [ 3439269.184639412909746, -4999147.203931383788586 ], [ 3092836.191344923339784, -5134340.567168257199228 ], [ 2957642.828108049929142, -5159689.322775171138346 ], [ 2712604.857241216115654, -4948449.692717555910349 ], [ 2771751.953657348174602, -4703411.72185072209686 ], [ 3059037.850535705219954, -4331629.97294931858778 ], [ 3430819.599437108263373, -3959848.2240479150787 ], [ 4047639.319205345585942, -3596516.060348817147315 ], [ 3870198.029956948477775, -3376826.845088897272944 ], [ 3506865.866257850080729, -2979696.340580579824746 ], [ 3506865.866257850080729, -2582565.836072262376547 ], [ 3726555.081517769955099, -1948846.945899416459724 ], [ 3887097.20036155777052, -1424972.663356530247256 ], [ 4292677.290072179399431, -833501.699195206863806 ], [ 4663571.958057658746839, -217636.00984598181094 ], [ 4664459.038973582908511, -242030.735033884644508 ], [ 4760229.900070371106267, -352312.332660489133559 ], [ 5020352.365325211547315, -651847.292650911142118 ], [ 5212664.657665545120835, -873297.811103416257538 ], [ 5377534.342747454531491, -1233855.241358011029661 ], [ 5391123.366371779702604, -1264430.544512742664665 ], [ 5602524.951466320082545, -1483661.817944117123261 ], [ 5619262.166834005154669, -1501018.930177271831781 ], [ 5978611.723495074547827, -1305010.081089415820315 ], [ 5991043.915735407732427, -1298228.885321961250156 ], [ 6496026.085593006573617, -966003.773573540733196 ], [ 6999671.125461438670754, -661405.837190177640878 ], [ 7081040.40683270432055, -613812.483935286756605 ], [ 7170998.145422985777259, -493137.468753201595973 ], [ 7439649.44388182181865, -145736.885776010225527 ] ] ] ] } },
{ "type": "Feature", "properties": { "id": 5 }, "geometry": { "type": "MultiPolygon", "coordinates": [ [ [ [ 1233072.720011086203158, -1964964.651776645565405 ], [ 1217028.276433299761266, -1915048.605090198572725 ], [ 1069543.251899191644043, -1854962.113613339606673 ], [ 993114.26857222802937, -934896.72162286285311 ], [ 824122.564526135101914, -225131.564629275351763 ], [ 384744.134006295353174, 924012.022884152829647 ], [ -392617.704605730250478, 1870365.565542270429432 ], [ -612306.919865650124848, 2647727.404154295101762 ], [ -257424.341368855908513, 3104005.005078744608909 ], [ 97458.237127938307822, 3543383.43559858482331 ], [ 469239.98602934088558, 3881366.8436907697469 ], [ 1297299.335855193436146, 3965862.695713816210628 ], [ 2429543.75296401232481, 4067257.718141471035779 ], [ 3040882.660709131974727, 3931150.886234077624977 ], [ 3042138.680131095927209, 3923614.769702292978764 ], [ 3163564.189832451287657, 3819535.76138684572652 ], [ 3219579.969379493035376, 3771522.236060809809715 ], [ 3350548.540015217382461, 3771522.236060809809715 ], [ 3616710.473887810017914, 3771522.236060809809715 ], [ 3617301.944851974025369, 3771606.731912833172828 ], [ 3720217.892616041470319, 3786309.010164842940867 ], [ 3885829.7625812147744, 3809967.848731296136975 ], [ 4031845.094557962846011, 3830279.351621450390667 ], [ 4163067.438586581964046, 3783965.583140761125833 ], [ 4208194.437410986050963, 3768038.40708508901298 ], [ 4388436.734186749905348, 3672404.138562332838774 ], [ 4537715.260939013212919, 3551833.020800889469683 ], [ 4613396.061271768063307, 3498124.065726031549275 ], [ 4791223.283131482079625, 3371924.101825590245426 ], [ 4820463.170812032185495, 3192519.07467039488256 ], [ 4694511.886616731993854, 3146794.075613745953888 ], [ 4399064.584725765511394, 3182572.99066660925746 ], [ 4157483.926835305523127, 3256097.538720227777958 ], [ 4085767.137742118909955, 3274806.266309754922986 ], [ 3768803.007529293186963, 3357492.561147883534431 ], [ 3733588.118612631689757, 3354783.723538909573108 ], [ 3573344.220423043239862, 3342457.269832018297166 ], [ 3549113.792269373312593, 3340593.390743274241686 ], [ 3553007.452477462124079, 3173166.001795446500182 ], [ 3529408.675796137191355, 2812355.117230296134949 ], [ 3498416.281055545434356, 2630828.233749686274678 ], [ 3532214.621864764019847, 2326643.166466719936579 ], [ 3541886.779793242923915, 2303578.78986803907901 ], [ 3579767.576808544807136, 2213247.658523857593536 ], [ 3623346.763150682672858, 2109328.060323375742882 ], [ 3642059.229494723957032, 2064706.025195276830345 ], [ 3796191.112564005888999, 2017610.172035218216479 ], [ 3946244.29677769029513, 1971760.587969925720245 ], [ 4171696.385492393746972, 1940663.748147208243608 ], [ 4211761.487971238791943, 1786927.997251191176474 ], [ 4258878.949262961745262, 1439436.720224734861404 ], [ 4289134.101178633980453, 1327492.658136748243123 ], [ 4427870.653309052810073, 814167.415254193358123 ], [ 4491736.546052297577262, 642220.780945457518101 ], [ 4643265.36992060020566, 234258.562838490586728 ], [ 4662394.762628351338208, -185263.135540024843067 ], [ 4524048.991758455522358, -449312.049533000041265 ], [ 4243359.111478828825057, -905424.04297717649024 ], [ 3925605.915153627749532, -1368814.120951428310946 ], [ 3887097.20036155777052, -1424972.663356530247256 ], [ 3808467.832047936040908, -1681552.707327296491712 ], [ 3721673.873751322273165, -1962927.352918016025797 ], [ 3576318.479620452970266, -2382221.759064754005522 ], [ 3506865.866257850080729, -2582565.836072262376547 ], [ 3506865.866257850080729, -2650162.517690700013191 ], [ 3506865.866257850080729, -2945897.999771361704916 ], [ 3506865.866257850080729, -2979696.340580579824746 ], [ 3708811.577254232950509, -3200427.699111510068178 ], [ 3906814.159922711085528, -3422161.10123698413372 ], [ 4047639.319205345585942, -3596516.060348817147315 ], [ 3776480.970678087323904, -3756239.471125147305429 ], [ 3470477.206106522120535, -3936488.263954972848296 ], [ 3198456.006373733747751, -3976747.394452525302768 ], [ 2974522.618730086833239, -3785992.194575726985931 ], [ 2958506.09842283744365, -3756247.228290835395455 ], [ 2903166.259292275644839, -3653473.241334077902138 ], [ 2881596.561287309508771, -3613415.230753426905721 ], [ 2833058.171548089012504, -3591087.571473385207355 ], [ 2600966.560841009952128, -3484325.430548128671944 ], [ 2459117.301172079052776, -3419074.771100420504808 ], [ 2220066.73042757762596, -3449722.280170228332281 ], [ 2123282.953827554825693, -3458737.866566448938102 ], [ 1820226.227566190296784, -3334406.901946401689202 ], [ 1774994.848520273575559, -3265126.325838786549866 ], [ 1605709.195739312563092, -2852952.562546011060476 ], [ 1575646.507721031550318, -2793900.853938673622906 ], [ 1355010.491202264092863, -2344326.606593642383814 ], [ 1287989.501119181746617, -2135816.859668497461826 ], [ 1233072.720011086203158, -1964964.651776645565405 ] ] ] ] } },
{ "type": "Feature", "properties": { "id": 6 }, "geometry": { "type": "MultiPolygon", "coordinates": [ [ [ [ 3681076.431752426084131, -4791883.849263086915016 ], [ 4059596.332895991392434, -4491205.209728009067476 ], [ 4084032.079632052220404, -4473075.462149641476572 ], [ 4350282.682386556640267, -4492112.031703107059002 ], [ 4444769.823713662102818, -4509071.262197716161609 ], [ 4525721.807190258987248, -4504655.699462628923357 ], [ 4909497.009840416722, -4483722.50659080222249 ], [ 4947137.06620146241039, -4473817.228601053357124 ], [ 5379685.780184724368155, -4359988.619658089242876 ], [ 5391123.366371779702604, -4356978.728556232526898 ], [ 5830501.796891620382667, -4145739.098498617298901 ], [ 5938171.26377643365413, -4057645.898320132866502 ], [ 6016392.671342321671546, -3993646.564857133664191 ], [ 6163954.247011695057154, -3797967.084078182466328 ], [ 6239998.904623800888658, -3697125.255505606532097 ], [ 6384763.89724618755281, -3505154.287028094287962 ], [ 6810653.680358958430588, -3621864.81595573015511 ], [ 7097939.577237315475941, -4297831.632140100002289 ], [ 7199334.599664971232414, -4821705.914682986214757 ], [ 7165536.258855752646923, -5159689.322775171138346 ], [ 7081040.406832706183195, -5506122.316069660708308 ], [ 6565615.7094921246171, -5725811.531329580582678 ], [ 6160035.619781503453851, -6097593.280230984091759 ], [ 5813602.626487012952566, -6384879.177109341137111 ], [ 5365774.610764868557453, -6528522.125548519194126 ], [ 5053139.958279597572982, -6629917.1479761749506 ], [ 4951744.935851942747831, -6596118.807166956365108 ], [ 4841900.328221982344985, -6266584.984277076087892 ], [ 4698257.379782803356647, -6224337.058265552856028 ], [ 4419421.068106750957668, -6190538.717456334270537 ], [ 4225080.608453745022416, -6173639.547051724977791 ], [ 3895546.7855638647452, -6063794.939421765506268 ], [ 3819500.518743123393506, -5793408.212948016822338 ], [ 3751903.837124686688185, -5624416.508901924826205 ], [ 3827950.103945428039879, -5421626.46404661424458 ], [ 3701206.325910858809948, -5303332.271214349195361 ], [ 3320974.991807150654495, -5244185.174798216670752 ], [ 3101285.776547230780125, -5269533.93040513060987 ], [ 3107054.788643279578537, -5128791.846271337941289 ], [ 3439269.184639412909746, -4999147.203931383788586 ], [ 3444488.046087897382677, -4994673.894118397496641 ], [ 3681076.431752426084131, -4791883.849263086915016 ] ] ] ] } },
{ "type": "Feature", "properties": { "id": 7 }, "geometry": { "type": "MultiPolygon", "coordinates": [ [ [ [ -338215.375264737929683, -5991908.468392928130925 ], [ -236300.378363094758242, -6004647.843005633912981 ], [ -20064.783737712146831, -5966806.613946191966534 ], [ 352542.970887756207958, -5917627.419794094748795 ], [ 405868.097012056503445, -5911702.405780283734202 ], [ 679506.539511980256066, -5811590.780475432984531 ], [ 948260.270177163765766, -5800635.362135363742709 ], [ 963540.720364161301404, -5801857.798150323331356 ], [ 972485.298218221054412, -5802399.893777841702104 ], [ 1267445.112283441703767, -5823884.530422865413129 ], [ 1562916.675738548161462, -5884321.895675046369433 ], [ 1614158.780941617209464, -5894803.235375674441457 ], [ 1785566.395269379718229, -5793029.964368565008044 ], [ 2160983.579772678203881, -5600978.474502467550337 ], [ 2357722.278744423296303, -5506122.316069661639631 ], [ 2377837.12392114661634, -5470625.530463679693639 ], [ 2501365.22718360228464, -5252634.76000052317977 ], [ 2527908.506823866162449, -5129398.104527868330479 ], [ 2743610.685069182422012, -4975178.854638217017055 ], [ 2923294.053883539047092, -5130078.310512661933899 ], [ 2957642.828108049929142, -5159689.322775171138346 ], [ 3092836.191344923339784, -5134340.567168257199228 ], [ 3107054.788643279578537, -5128791.846271337941289 ], [ 3101285.776547230780125, -5269533.93040513060987 ], [ 3123094.340981791261584, -5267017.557585758157074 ], [ 3476165.842491233721375, -5268325.973793518729508 ], [ 3742902.319397290237248, -5342248.53180168569088 ], [ 3821873.34746431838721, -5437831.147996239364147 ], [ 3751903.837124686688185, -5624416.508901924826205 ], [ 3760644.787333967164159, -5646268.88442512601614 ], [ 3837152.887466670945287, -5856172.190631742589176 ], [ 3895546.7855638647452, -6063794.939421765506268 ], [ 4225080.608453745022416, -6173639.547051724977791 ], [ 4390798.692716955207288, -6188049.815248525701463 ], [ 4254654.156661810353398, -6435576.688323169015348 ], [ 3857523.652153493836522, -6536971.710750823840499 ], [ 3468842.732847481034696, -6621467.562773870304227 ], [ 3291401.44359908439219, -7103093.919305233284831 ], [ 2953418.035506899468601, -7229837.697339802980423 ], [ 2361947.07134557608515, -7103093.919305233284831 ], [ 1838072.788802689639851, -7103093.919305233284831 ], [ 1432492.699092068010941, -7212938.526935193687677 ], [ 1035362.194583751028404, -7432627.742195113562047 ], [ 790324.223716916749254, -7728363.224275775253773 ], [ 629782.104873129399493, -7829758.246703431010246 ], [ 595983.764063910814002, -8057897.047165655530989 ], [ 141818.559440037235618, -8438128.381269363686442 ], [ -52521.900212968699634, -8328283.773639403283596 ], [ -584845.767958160024136, -8657817.59652928262949 ], [ -965077.102061867713928, -8801460.544968461617827 ], [ -1294610.924951747991145, -8539523.403697017580271 ], [ -1539648.895818581804633, -8471926.722078582271934 ], [ -1733989.355471588205546, -8412779.625662449747324 ], [ -1818485.207494634203613, -8108594.558379482477903 ], [ -1970577.741136117372662, -7872006.172714953310788 ], [ -2156468.615586819127202, -7872006.172714953310788 ], [ -2308561.149228302296251, -7694564.883466556668282 ], [ -2384607.416049043647945, -7331232.719767457805574 ], [ -2359258.660442129708827, -7035497.237686796113849 ], [ -2156468.615586819127202, -6782009.681617657653987 ], [ -1784686.866685416083783, -6486274.199536995962262 ], [ -1328409.265760966576636, -6198988.30265863891691 ], [ -713774.783545049838722, -5973835.993517919443548 ], [ -641880.468073716387153, -6004647.843005633912981 ], [ -483886.275629321928136, -5984898.568950084969401 ], [ -338215.375264737929683, -5991908.468392928130925 ] ] ] ] } },
{ "type": "Feature", "properties": { "id": 8 }, "geometry": { "type": "MultiPolygon", "coordinates": [ [ [ [ -2156468.615586819127202, -7872006.172714953310788 ], [ -2006488.478245912119746, -7872006.172714953310788 ], [ -1818485.207494634203613, -8108594.558379482477903 ], [ -1741040.764325946336612, -8387394.55378676019609 ], [ -1733989.355471588205546, -8412779.625662449747324 ], [ -1539648.895818581804633, -8471926.722078582271934 ], [ -1436015.433554182527587, -8500515.263392899185419 ], [ -1171898.742918719770387, -8637063.856082245707512 ], [ -965077.102061867713928, -8801460.544968461617827 ], [ -943756.870601214235649, -8793406.235305547714233 ], [ -584845.767958160024136, -8657817.59652928262949 ], [ -531395.215664074989036, -8624729.159394849091768 ], [ -495100.007415604719426, -8602260.697145795449615 ], [ -140733.491958177066408, -8382890.94948167540133 ], [ -18484.477300962083973, -8347522.317024450749159 ], [ 50613.511511566874105, -8386577.702005445025861 ], [ 123790.558347585058073, -8427938.641521455720067 ], [ 141818.559440037235618, -8438128.381269363686442 ], [ 391039.007815197110176, -8229478.703559927642345 ], [ 587665.825817061820999, -8064860.902442087419331 ], [ 595983.764063910814002, -8057897.047165655530989 ], [ 600981.324456737143919, -8024163.514514078386128 ], [ 673653.020517569500953, -7802050.299980626441538 ], [ 790324.223716916749254, -7728363.224275775253773 ], [ 842866.247479745419696, -7664950.436975809745491 ], [ 1102124.168478562030941, -7395695.586423516273499 ], [ 1432492.699092067778111, -7212938.526935196481645 ], [ 1863421.544409602880478, -7103093.919305233284831 ], [ 2226753.708108701743186, -7103093.919305233284831 ], [ 2484280.578079430386424, -7129308.242176773957908 ], [ 2953418.035506899468601, -7229837.697339802980423 ], [ 2990457.313106042332947, -7215947.968240124173462 ], [ 3291401.44359908439219, -7103093.919305233284831 ], [ 3299335.810191491618752, -7081557.781411556527019 ], [ 3526811.615442533046007, -6608865.631774946115911 ], [ 3857523.652153493836522, -6536971.710750823840499 ], [ 3923051.029278590343893, -6520241.316591224633157 ], [ 4050844.077748619485646, -6487613.304215898737311 ], [ 4238662.607447121292353, -6439659.637058834545314 ], [ 4254654.156661810353398, -6435576.688323169015348 ], [ 4288966.751835535280406, -6373192.330959108658135 ], [ 4426549.688744623214006, -6191402.792685166932642 ], [ 4800385.686276583001018, -6254374.795469605363905 ], [ 4932522.129516700282693, -6538450.388161228969693 ], [ 4951744.935851942747831, -6596118.807166956365108 ], [ 5053139.958279597572982, -6629917.1479761749506 ], [ 5154234.805423296056688, -6597129.629983623512089 ], [ 5518170.571247459389269, -6479640.402374858036637 ], [ 5572130.346841553226113, -6462332.54982580896467 ], [ 5790076.477500963024795, -6392425.300369017757475 ], [ 5813602.626487012952566, -6384879.177109341137111 ], [ 6160035.619781503453851, -6097593.280230984091759 ], [ 6323415.523844175972044, -5947828.368173534050584 ], [ 6585807.181886235252023, -5717205.32998127117753 ], [ 6685815.968882381916046, -5674578.63388455286622 ], [ 7029726.519804994575679, -5527993.808901144191623 ], [ 7294392.433190898038447, -5463874.390058141201735 ], [ 7699972.522901520133018, -6165189.961849424988031 ], [ 7936560.908566050231457, -6908753.459652232006192 ], [ 8004157.590184487402439, -7466426.083004336804152 ], [ 7733770.86371073871851, -8040997.876761050894856 ], [ 7243694.921977069228888, -8581771.32970854640007 ], [ 6905711.513884887099266, -8801460.544968465343118 ], [ 6635324.787411138415337, -9021149.76022838614881 ], [ 6609976.031804223544896, -9274637.316297525539994 ], [ 6855014.002671058289707, -9435179.435141313821077 ], [ 6931060.269491798244417, -9612620.724389709532261 ], [ 6762068.565445707179606, -9739364.502424281090498 ], [ 6618425.617006528191268, -9671767.820805843919516 ], [ 6348038.890532779507339, -9553473.627973578870296 ], [ 6111450.504868251271546, -9730914.91722197458148 ], [ 5798815.852382980287075, -10178742.932944118976593 ], [ 5519979.540706927888095, -10558974.267047828063369 ], [ 5232693.643828570842743, -10795562.652712356299162 ], [ 4894710.235736385919154, -10939205.601151535287499 ], [ 4556726.827644200995564, -10930756.015949230641127 ], [ 4032852.545101314783096, -10939205.601151535287499 ], [ 3424482.4105353821069, -11175793.986816065385938 ], [ 2511927.208686483092606, -11378584.03167137503624 ], [ 2368284.260247305035591, -11387033.616873681545258 ], [ 1618383.573542770929635, -11277189.009243719279766 ], [ 714277.956896176561713, -10964554.356758449226618 ], [ -3936.785299716517329, -10727965.97109391912818 ], [ -654554.845877171959728, -10440680.07421556301415 ], [ -891143.231541701126844, -10094247.080921072512865 ], [ -1119282.032003925647587, -9908356.206470372155309 ], [ -2074085.159864347893745, -9452078.605545923113823 ], [ -2640207.368418757338077, -8987351.419419169425964 ], [ -2834547.82807176373899, -8640918.42612467892468 ], [ -2952842.020904027856886, -8167741.654795620590448 ], [ -2724703.220441803336143, -7829758.246703435666859 ], [ -2296334.102406142279506, -7708829.771425743587315 ], [ -2156468.615586819127202, -7872006.172714953310788 ] ] ] ] } },
{ "type": "Feature", "properties": { "id": 9 }, "geometry": { "type": "MultiPolygon", "coordinates": [ [ [ [ 2405804.789020646829158, -11384826.52694583684206 ], [ 2511927.208686483092606, -11378584.03167137503624 ], [ 2980361.728723578155041, -11274487.471663132309914 ], [ 3319583.295420887414366, -11199104.901285953819752 ], [ 3319583.295420893933624, -11199104.901285951957107 ], [ 3424482.4105353821069, -11175793.986816065385938 ], [ 3886264.701015218161047, -10996211.984962794929743 ], [ 3886264.701015219092369, -10996211.984962794929743 ], [ 4090144.908120632171631, -10938281.530780255794525 ], [ 4090144.908120632637292, -10938281.530780255794525 ], [ 4254627.278020288795233, -10935628.589330261573195 ], [ 4452973.832545004785061, -10932429.451354056596756 ], [ 4894710.235736385919154, -10939205.601151535287499 ], [ 5232693.643828570842743, -10795562.652712356299162 ], [ 5407811.959339528344572, -10651347.569350391626358 ], [ 5510428.025063290260732, -10566840.221107294782996 ], [ 5510428.025063291192055, -10566840.221107292920351 ], [ 5519979.540706927888095, -10558974.267047828063369 ], [ 5798815.852382980287075, -10178742.932944118976593 ], [ 6085515.788479248061776, -9768064.646103519946337 ], [ 6102826.487707185558975, -9743268.239101339131594 ], [ 6360450.084534852765501, -9558903.525349486619234 ], [ 6618425.617006528191268, -9671767.820805843919516 ], [ 6762068.565445707179606, -9739364.502424281090498 ], [ 6931060.269491798244417, -9612620.724389709532261 ], [ 6927673.151285702362657, -9604717.448575485497713 ], [ 6919737.681129836477339, -9586201.351545130833983 ], [ 6855014.002671058289707, -9435179.435141313821077 ], [ 6671286.489157135598361, -9314806.236632192507386 ], [ 6623005.961460253223777, -9144338.019737236201763 ], [ 6649484.212178917601705, -9009645.227604564279318 ], [ 6905711.513884887099266, -8801460.544968465343118 ], [ 7023619.609678024426103, -8724820.282702926546335 ], [ 7023619.60967802722007, -8724820.28270292468369 ], [ 7023619.609678051434457, -8724820.282702907919884 ], [ 7243694.921977069228888, -8581771.32970854640007 ], [ 7541918.983238631859422, -8252696.503488892689347 ], [ 7633620.626019991002977, -8151508.483868082985282 ], [ 7733770.86371073871851, -8040997.876761050894856 ], [ 7755983.937557023018599, -7993795.094837698154151 ], [ 7912959.790126216597855, -7660221.408128161914647 ], [ 7969689.02731956075877, -7539671.779092305339873 ], [ 8618864.913652144372463, -6934102.215259147807956 ], [ 9370877.996657256036997, -7103093.919305239804089 ], [ 9556768.871107958257198, -7542472.349825080484152 ], [ 9768008.501165572553873, -8395880.455257846042514 ], [ 9751109.330760965123773, -9130994.367858348414302 ], [ 9641264.723131004720926, -9823860.354447327554226 ], [ 9565218.456310262903571, -10119595.836527988314629 ], [ 9024445.003362767398357, -10820911.408319272100925 ], [ 8525919.476426795125008, -11336336.105659853667021 ], [ 7968246.853074689395726, -11750365.780572779476643 ], [ 7537318.007757154293358, -12079899.603462660685182 ], [ 6582514.8798967320472, -12595324.300803242251277 ], [ 6109338.108567673712969, -12874160.612479295581579 ], [ 5433371.29238330386579, -13245942.361380696296692 ], [ 4774303.646603543311357, -13440282.821033705025911 ], [ 4284227.704869875684381, -13490980.332247532904148 ], [ 3920895.541170776821673, -13381135.724617570638657 ], [ 3422370.014234804548323, -12967106.049704644829035 ], [ 2932294.072501136455685, -12586874.715600937604904 ], [ 2526713.982790514826775, -12181294.62589031457901 ], [ 2408419.789958250243217, -11758815.365775084123015 ], [ 2405804.789020639844239, -11384826.526945838704705 ], [ 2405804.789020646829158, -11384826.52694583684206 ] ] ] ] } },
{ "type": "Feature", "properties": { "id": 10 }, "geometry": { "type": "MultiPolygon", "coordinates": [ [ [ [ -2285412.237116811331362, -1523995.680623897816986 ], [ -2652881.74622221570462, -1999544.457113244570792 ], [ -2550608.484632394276559, -2361434.459661843255162 ], [ -2792299.902060238644481, -2768456.710522966459394 ], [ -3316174.184603124856949, -2920549.244164450094104 ], [ -4127334.364024369046092, -2886750.903355231508613 ], [ -5022990.395468657836318, -2548767.495263047516346 ], [ -5546864.678011544048786, -1940397.36069711484015 ], [ -6003142.278935994021595, -1501018.930177274160087 ], [ -6780504.117548018693924, -1399623.907749619334936 ], [ -7236781.71847246773541, -1129237.181275871582329 ], [ -7270580.059281686320901, -960245.477229778654873 ], [ -7219882.548067858442664, -503967.876305329613388 ], [ -7152285.866449421271682, -13891.934571661986411 ], [ -7067790.014426375739276, 459284.836757397279143 ], [ -6814302.458357237279415, 1169049.99375098478049 ], [ -6374924.027837396599352, 1726722.61710308957845 ], [ -6020041.44934060331434, 2453386.944501286372542 ], [ -5682058.041248418390751, 3078656.249471828341484 ], [ -5225780.440323969349265, 3602530.532014714553952 ], [ -3873846.807955229654908, 3889816.428893071599305 ], [ -2352921.471540398895741, 4210900.666580647230148 ], [ -1592458.803332984447479, 4160203.155366819351912 ], [ -899592.816744005307555, 4092606.473748382180929 ], [ -257424.341368854045868, 3889816.428893071599305 ], [ 8817.020117547270274, 3433637.166919053066522 ], [ -257424.341368855908513, 3104005.005078744608909 ], [ -612306.919865650124848, 2647727.404154295101762 ], [ -598173.740590722416528, 2597717.69287378154695 ], [ -598173.740590721950866, 2597717.692873780149966 ], [ -392617.704605730250478, 1870365.565542270429432 ], [ 372311.080989653768484, 939147.913513107807375 ], [ 517055.072706232429482, 577968.029361240100116 ], [ 743728.399475800804794, -14869.902189939053642 ], [ 813511.160921128466725, -197378.662893104134127 ], [ 1011004.746018562931567, -1150265.400205714162439 ], [ 1065517.273067507892847, -1853321.900015245890245 ], [ 988889.475971075240523, -1822103.167864847462624 ], [ 927713.498379500349984, -1818883.37957055401057 ], [ 652065.362503918586299, -1749996.195715215289965 ], [ 652065.362503918353468, -1749996.195715215289965 ], [ 422454.449994452414103, -1548570.693156467750669 ], [ 422454.449994452297688, -1548570.693156467517838 ], [ 422454.449994451017119, -1548570.693156465422362 ], [ 142092.815054880338721, -1099893.924042100086808 ], [ -143300.508725636056624, -567159.719651802559383 ], [ -143300.508725636085728, -567159.719651802559383 ], [ -177153.281946962233633, -503967.876305327052251 ], [ -286997.889576922636479, -503967.876305327052251 ], [ -701027.564489848911762, -385673.683473062352277 ], [ -732013.025251146405935, -377519.614851668302435 ], [ -732013.025251146871597, -377519.614851668127812 ], [ -732013.025251146988012, -377519.614851668127812 ], [ -1022111.802177424309775, -301177.831450016237795 ], [ -1241801.017437344416976, -343425.757461539353244 ], [ -1512187.743911092169583, -470169.535496108583175 ], [ -1743662.147773576667532, -757758.946355559048243 ], [ -1743662.147773576900363, -757758.946355559281074 ], [ -1743662.147773577598855, -757758.946355560212396 ], [ -1791024.055587144568563, -816602.528790598036721 ], [ -2013488.378608228871599, -1139393.899448642041534 ], [ -2285412.237116811331362, -1523995.680623897816986 ] ] ] ] } },
{ "type": "Feature", "properties": { "id": 11 }, "geometry": { "type": "MultiPolygon", "coordinates": [ [ [ [ -6507235.436234729364514, 1558788.906444936757907 ], [ -6507235.436234729364514, 1558788.906444936292246 ], [ -6814302.458357237279415, 1169049.99375098478049 ], [ -7067790.014426375739276, 459284.836757397279143 ], [ -7092935.102652021683753, 318472.342693776707165 ], [ -7092935.102652022615075, 318472.34269377484452 ], [ -7092935.10265202447772, 318472.342693764425348 ], [ -7152285.866449421271682, -13891.934571661986411 ], [ -7219882.548067858442664, -503967.876305329613388 ], [ -7264139.826657964847982, -902283.383616288308986 ], [ -7264139.826657978817821, -902283.383616407867521 ], [ -7264139.826657978817821, -902283.383616408682428 ], [ -7270580.059281686320901, -960245.477229778654873 ], [ -7236781.71847246773541, -1129237.181275871582329 ], [ -7164171.044416720978916, -1172265.728864462347701 ], [ -6691783.472923815250397, -3495121.037921164184809 ], [ -6421396.746450068429112, -4847054.670289902947843 ], [ -6218606.701594756916165, -6131391.621040204539895 ], [ -6083413.338357882574201, -6874955.118843011558056 ], [ -5982018.315930226817727, -7922703.683928783982992 ], [ -5863724.123097963631153, -8885956.396991509944201 ], [ -6167909.190380929037929, -9511225.701962051913142 ], [ -7012867.710611389949918, -9866108.280458845198154 ], [ -8702784.751072313636541, -9866108.280458845198154 ], [ -10798281.881243858486414, -9545024.042771270498633 ], [ -12674089.796155484393239, -9156343.12346525862813 ], [ -13924628.406096566468477, -8598670.500113153830171 ], [ -14820284.437540857121348, -7736812.809478081762791 ], [ -15344158.720083743333817, -7179140.186125976964831 ], [ -15580747.105748273432255, -6198988.302658641710877 ], [ -15749738.809794364497066, -5117441.39676365070045 ], [ -15715940.46898514777422, -4306281.217342407442629 ], [ -15580747.105748273432255, -3883801.957227176986635 ], [ -13992225.08771500363946, -3140238.459424370899796 ], [ -12538896.432918610051274, -2193884.916766253300011 ], [ -11406652.015809793025255, -1382724.737345010042191 ], [ -10798281.881243858486414, -419472.024282284080982 ], [ -9885726.679394960403442, 763469.904040362685919 ], [ -8702784.751072313636541, 1659125.935484652407467 ], [ -7874725.401246462017298, 1743621.787507698871195 ], [ -7283254.437085138633847, 2233697.729241366498172 ], [ -6995968.540206782519817, 2892765.375021126586944 ], [ -6607287.620900768786669, 3247647.953517920337617 ], [ -5982018.315930226817727, 3332143.805540966801345 ], [ -5576830.706952378153801, 3199472.818478392902762 ], [ -5682058.041248418390751, 3078656.249471828341484 ], [ -6020041.44934060331434, 2453386.944501286372542 ], [ -6088964.605142545886338, 2312258.577859213110059 ], [ -6507235.436234729364514, 1558788.906444936757907 ] ] ] ] } }
]
}
