{
"type": "FeatureCollection",
"name": "map006",
"crs": { "type": "name", "properties": { "name": "urn:ogc:def:crs:ESRI::102016" } },
"features": [
{ "type": "Feature", "properties": { "id": 1 }, "geometry": { "type": "MultiPolygon", "coordinates": [ [ [ [ -633535.421480821445584, -6030822.166714520193636 ], [ -872810.6021259422414, -5976441.443840629421175 ], [ -1025076.626172837335616, -5943813.010116294026375 ], [ -1090333.493621506262571, -5835051.564368512481451 ], [ -1112085.782771063037217, -5682785.540321617387235 ], [ -1068581.204471949953586, -5400005.781377383507788 ], [ -1035952.770747615490109, -5062845.299559258855879 ], [ -894562.891275498550385, -4660427.950292464345694 ], [ -829306.02382682915777, -4083992.287829218897969 ], [ -927191.324999833013862, -3453175.90249208221212 ], [ -1188218.794794510584325, -3116015.42067395709455 ], [ -1296980.24054229259491, -2637465.059383715502918 ], [ -1133838.071920619346201, -2441694.457037707790732 ], [ -959819.758724167943001, -2409066.023313372861594 ], [ -687916.144354712218046, -2496075.179911598563194 ], [ -524773.975733038969338, -2702721.926832384895533 ], [ -339879.517961809411645, -2952873.252052283845842 ], [ 40785.542155428323895, -3007253.974926175083965 ], [ 214803.855351879727095, -2767978.794281054288149 ], [ 421450.602272666059434, -2332933.011289925314486 ], [ 671601.927492565009743, -1941391.806597909424454 ], [ 954381.686436798423529, -1865258.794574461877346 ], [ 1422055.903152262791991, -1800001.92712579248473 ], [ 1791844.818694721907377, -1712992.77052756678313 ], [ 2237766.746260629035532, -1712992.77052756678313 ], [ 2825078.553298653103411, -1984896.384897022508085 ], [ 3336257.348313229158521, -2191543.131817808374763 ], [ 3575532.528958349488676, -2409066.023313372861594 ], [ 3347133.492888007313013, -2670093.493108049966395 ], [ 3358009.637462785467505, -2909368.673753171227872 ], [ 3401514.215761898085475, -3181272.288122626487166 ], [ 3542904.095234015025198, -3203024.577272183261812 ], [ 3749550.842154801823199, -3300909.878445186652243 ], [ 3825683.854178248904645, -3453175.90249208221212 ], [ 3793055.420453914441168, -3659822.649412868078798 ], [ 3673417.83013135381043, -3909973.974632767494768 ], [ 3216619.757990668527782, -3942602.408357101958245 ], [ 2988220.721920326352119, -4073116.143254440743476 ], [ 2596679.517228309996426, -4345019.757623896002769 ], [ 2531422.649779641069472, -4812693.974339359439909 ], [ 2596679.517228309996426, -5204235.179031375795603 ], [ 2542298.794354419223964, -5541395.660849500447512 ], [ 2346528.192008410580456, -5835051.564368512481451 ], [ 2139881.445087624713778, -5932936.865541515871882 ], [ 1683083.372946939431131, -5976441.443840629421175 ], [ 1324170.601979258470237, -5813299.275218956172466 ], [ 921753.252712463960052, -5845927.708943290635943 ], [ 508459.758870891761035, -5900308.431817181408405 ], [ -220241.927639248780906, -5867679.998092846944928 ], [ -633535.421480821445584, -6030822.166714520193636 ] ] ] ] } },
{ "type": "Feature", "properties": { "id": 2 }, "geometry": { "type": "MultiPolygon", "coordinates": [ [ [ [ 204051.028556845820276, -5886678.19016132876277 ], [ 508459.758870891761035, -5900308.431817181408405 ], [ 618183.69528905430343, -5885871.071762160398066 ], [ 964097.603687561000697, -5842494.383188553154469 ], [ 1335046.746554034762084, -6172212.046186635270715 ], [ 1704835.662096494808793, -6215716.624485747888684 ], [ 2107253.011363288387656, -6237468.913635304197669 ], [ 2422661.20403185673058, -5965565.299265849404037 ], [ 2814202.408723873086274, -5704537.829471171833575 ], [ 3129610.601392441429198, -5693661.684896393679082 ], [ 3455894.938635787926614, -5617528.672872945666313 ], [ 3869188.43247735965997, -5661033.251172059215605 ], [ 3988826.022799921222031, -5813299.275218954309821 ], [ 4206348.914295484311879, -6030822.166714518330991 ], [ 4858917.588782179169357, -6204840.479910969734192 ], [ 5565866.986142762936652, -6324478.070233530364931 ], [ 6131426.504031230695546, -6465867.949705647304654 ], [ 6359825.540101571939886, -6313601.925658752210438 ], [ 6566472.287022358737886, -5922060.720966735854745 ], [ 6751366.744793589226902, -5639280.962022501975298 ], [ 6849252.045966592617333, -5552271.805424276739359 ], [ 7208164.816934273578227, -6030822.166714518330991 ], [ 7262545.539808164350688, -6454991.805130869150162 ], [ 6947137.347139596007764, -6955294.455570667050779 ], [ 6871004.335116148926318, -7466473.250585243105888 ], [ 6696986.021919696591794, -7781881.443253811448812 ], [ 6729614.455644032917917, -8053785.057623267173767 ], [ 6827499.756817036308348, -8151670.358796271495521 ], [ 7496382.64816589653492, -8369193.250291833654046 ], [ 7822666.985409241169691, -8238679.515394495800138 ], [ 8235960.479250814765692, -8303936.382843164727092 ], [ 8388226.503297708928585, -8129918.069646714255214 ], [ 8409978.79244726523757, -7433844.816860906779766 ], [ 8823272.28628883883357, -7259826.503664456307888 ], [ 9323574.93672863766551, -7673119.997506028041244 ], [ 9475840.960775531828403, -8282184.093693608418107 ], [ 9388831.804177306592464, -8804239.033282963559031 ], [ 9171308.912681743502617, -9043514.213928084820509 ], [ 8823272.28628883883357, -9239284.816274091601372 ], [ 8431731.081596821546555, -9065266.503077641129494 ], [ 7822666.985409241169691, -8869495.900731632485986 ], [ 7670400.961362347006798, -9043514.213928084820509 ], [ 7333240.479544223286211, -9326293.972872314974666 ], [ 7224479.033796439878643, -9815720.478737335652113 ], [ 7224479.033796439878643, -10261642.406303241848946 ], [ 7202726.744646883569658, -10761945.056743040680885 ], [ 6952575.419426984153688, -11218743.12888372503221 ], [ 6593662.648459303192794, -11664665.056449633091688 ], [ 6082483.853444727137685, -11958320.959968645125628 ], [ 5745323.371626602485776, -12273729.152637213468552 ], [ 5484295.901831924915314, -12545632.767006669193506 ], [ 4896984.094793900847435, -12861040.95967523753643 ], [ 4385805.299779324792325, -13024183.128296909853816 ], [ 4026892.528811643831432, -13002430.839147353544831 ], [ 3548342.167521402239799, -12621765.779030116274953 ], [ 3222057.83027805481106, -12251976.863487657159567 ], [ 2743507.468987813219428, -11936568.670819088816643 ], [ 2547736.866641805507243, -11577655.899851407855749 ], [ 2678250.601539144292474, -10968591.803663827478886 ], [ 2602117.589515697211027, -10696688.189294371753931 ], [ 2341090.119721019640565, -10348651.562901467084885 ], [ 1993053.493328116601333, -10076747.94853201135993 ], [ 1851663.61385599966161, -10076747.94853201135993 ], [ 1634140.722360435174778, -9804844.334162555634975 ], [ 1514503.132037875009701, -9511188.430643545463681 ], [ 1386708.433284230530262, -9413303.12947054207325 ], [ 527493.011876750737429, -9326293.972872314974666 ], [ -179456.385483833029866, -9380674.695746205747128 ], [ -908158.071993974037468, -9391550.84032098390162 ], [ -1669488.192228449508548, -9250160.960848867893219 ], [ -2039277.107770909089595, -9021761.924778524786234 ], [ -2398189.878738590050489, -8717229.876684734597802 ], [ -2441694.45703770313412, -8097289.635922376066446 ], [ -2441694.45703770313412, -7694872.286655582487583 ], [ -2245923.854691694956273, -7390340.238561792299151 ], [ -1919639.517448348458856, -7096684.335042780265212 ], [ -1625983.613929336424917, -6737771.564075099304318 ], [ -1321451.565835546702147, -6389734.937682195566595 ], [ -656569.770894597284496, -6025587.087302298285067 ], [ -633535.421480821445584, -6030822.166714520193636 ], [ -244757.239736501884181, -5877357.094973341561854 ], [ 204051.028556845820276, -5886678.19016132876277 ] ] ] ] } },
{ "type": "Feature", "properties": { "id": 3 }, "geometry": { "type": "MultiPolygon", "coordinates": [ [ [ [ 3105917.527536992914975, -5694478.687443133443594 ], [ 2814202.408723873086274, -5704537.829471171833575 ], [ 2792240.962947878055274, -5719178.793321834877133 ], [ 2546200.859408504329622, -5517202.857514171861112 ], [ 2596679.517228309996426, -5204235.179031375795603 ], [ 2594842.33064473234117, -5193212.059529908932745 ], [ 2556272.575042267329991, -4961793.525915117934346 ], [ 2549868.003078757785261, -4923366.094134060665965 ], [ 2549441.853762151673436, -4683556.345798032358289 ], [ 2595138.970490131992847, -4356060.342580837197602 ], [ 2823125.26340885553509, -4187765.767220739740878 ], [ 3095099.758030164986849, -4012042.408334532752633 ], [ 3236329.319478970486671, -3941194.582536508794874 ], [ 3673417.83013135381043, -3909973.974632767494768 ], [ 3676960.943383214529604, -3902565.646924331318587 ], [ 3701024.348278562538326, -3852251.254870421718806 ], [ 3767333.338534564245492, -3713605.184335146099329 ], [ 3793055.420453914441168, -3659822.649412868078798 ], [ 3825683.854178248904645, -3453175.90249208221212 ], [ 3796862.071055085863918, -3395532.336245755199343 ], [ 4073116.143254451919347, -3518432.769940749742091 ], [ 4475533.492521245032549, -3485804.336216415278614 ], [ 4834446.263488927856088, -3355290.601319076493382 ], [ 5171606.745307050645351, -3105139.276099177543074 ], [ 5465262.648826062679291, -3061634.697800064459443 ], [ 5835051.564368521794677, -3148643.854398290626705 ], [ 6193964.335336204618216, -3257405.30014607263729 ], [ 6400611.082256989553571, -3333538.312169520184398 ], [ 6563753.250878663733602, -3855593.251758874859661 ], [ 6737771.56407511420548, -4529914.21539512462914 ], [ 6672514.696626445278525, -4964959.99838625267148 ], [ 6672514.696626445278525, -5323872.769353934563696 ], [ 6802503.376268450170755, -5593826.178489292040467 ], [ 6751366.744793589226902, -5639280.962022501975298 ], [ 6573705.204929988831282, -5910998.611225654371083 ], [ 6566472.287022358737886, -5922060.720966735854745 ], [ 6359825.540101571939886, -6313601.925658752210438 ], [ 6131426.504031230695546, -6465867.949705647304654 ], [ 5819217.177414065226912, -6387815.618051355704665 ], [ 5565866.986142762936652, -6324478.070233530364931 ], [ 5307674.296092005446553, -6280783.922686479054391 ], [ 4937444.929227604530752, -6218129.722140195779502 ], [ 4315505.24081102386117, -6059930.520451995544136 ], [ 4085351.80590107711032, -5909825.058320110663772 ], [ 3930799.904465240426362, -5739447.85188390687108 ], [ 3869188.43247735965997, -5661033.251172059215605 ], [ 3455894.938635787926614, -5617528.672872945666313 ], [ 3444720.817497316282243, -5620135.967805256135762 ], [ 3105917.527536992914975, -5694478.687443133443594 ] ] ] ] } },
{ "type": "Feature", "properties": { "id": 4 }, "geometry": { "type": "MultiPolygon", "coordinates": [ [ [ [ 4636214.635728187859058, -3427374.829595708753914 ], [ 4388216.520510526373982, -3492884.090703770983964 ], [ 4304753.125343379564583, -3499651.3930146205239 ], [ 4191096.265971276443452, -3508866.814044790808111 ], [ 3970206.720486517995596, -3472650.231465251185 ], [ 3796862.071055085863918, -3395532.336245755199343 ], [ 3749550.842154801823199, -3300909.878445186652243 ], [ 3642136.611147897318006, -3250029.453231390099972 ], [ 3542904.095234015025198, -3203024.577272183261812 ], [ 3404543.63898483524099, -3181738.353233847767115 ], [ 3401446.345904957037419, -3180848.101516745053232 ], [ 3350132.842036206275225, -2736079.174368430860341 ], [ 3383010.33262471947819, -2629091.390551807358861 ], [ 3575532.528958349488676, -2409066.023313372861594 ], [ 3546435.151221526786685, -2382613.861734443344176 ], [ 3434450.464898724574596, -2280809.601440986152738 ], [ 3387279.261833143420517, -2237926.689563184976578 ], [ 3336257.348313229158521, -2191543.131817808374763 ], [ 2993200.684227082878351, -2052860.650591494049877 ], [ 2609874.636430016253144, -1885264.94190228311345 ], [ 2237766.746260629035532, -1712992.77052756678313 ], [ 2202419.276392597705126, -1712992.77052756678313 ], [ 1843506.505424916278571, -1712992.77052756678313 ], [ 1930515.662023142445832, -1223566.264662547037005 ], [ 1865258.794574472587556, -614502.168474966660142 ], [ 1647735.903078908566386, -135951.80718472506851 ], [ 1538974.457331126090139, 38066.506011726334691 ], [ 1299699.276686005759984, 59818.795161282643676 ], [ 1103928.674339997116476, -157704.096334281377494 ], [ 929910.361143545713276, 212084.819208177737892 ], [ 1103928.674339997116476, 560121.445601081009954 ], [ 1234442.409237335901707, 1038671.806891323067248 ], [ 712387.469647981226444, 1625983.613929346669465 ], [ 451359.999853304121643, 1821754.216275354847312 ], [ 38066.506011731922626, 2104533.975219588261098 ], [ -418731.566128953360021, 2539579.758210717234761 ], [ -244713.25293250195682, 2952873.252052289433777 ], [ 125075.662609957624227, 2931120.962902733124793 ], [ 647130.60219931229949, 3148643.854398297611624 ], [ 929910.361143545713276, 3496680.480791200883687 ], [ 1364956.144134674686939, 3692451.083137208595872 ], [ 1647735.903078908566386, 3735955.661436321213841 ], [ 1647735.903078908566386, 3431423.61334253102541 ], [ 1430213.011583343613893, 3170396.143547853920609 ], [ 1865258.794574472587556, 2931120.962902733124793 ], [ 2430818.31246294034645, 2844111.806304507423192 ], [ 2561332.047360279131681, 3279157.589295635931194 ], [ 2887616.384603625629097, 3735955.661436321213841 ], [ 3061634.697800077032298, 4279762.890175231732428 ], [ 3779460.239735439885408, 4410276.625072570517659 ], [ 4345019.75762390717864, 4540790.35996990930289 ], [ 4780065.540615035220981, 4410276.625072570517659 ], [ 5019340.721260156482458, 4127496.866128336638212 ], [ 4975836.142961043864489, 3648946.50483809504658 ], [ 4867074.697213262319565, 3366166.745893862098455 ], [ 4910579.275512374937534, 2996377.830351402051747 ], [ 5193359.034456606954336, 2974625.541201845742762 ], [ 5454386.504251284524798, 3192148.432697409763932 ], [ 5715413.974045962095261, 3322662.167594748549163 ], [ 5998193.732990195974708, 3387919.03504341840744 ], [ 6629010.118327332660556, 3387919.03504341840744 ], [ 6955294.455570679157972, 2778854.938855838030577 ], [ 7238074.214514913037419, 2148038.553518701344728 ], [ 7564358.551758259534836, 2148038.553518701344728 ], [ 7955899.756450274959207, 2561332.047360273078084 ], [ 8325688.671992734074593, 2583084.336509830318391 ], [ 8521459.274338742718101, 2409066.023313377983868 ], [ 8412697.828590961173177, 1843506.505424911156297 ], [ 8434450.117740517482162, 1582479.035630233585835 ], [ 8847743.611582089215517, 1582479.035630233585835 ], [ 9152275.659675879403949, 1974020.240322249941528 ], [ 9630826.020966121926904, 2343809.155864709056914 ], [ 10065871.803957249969244, 2735350.360556725412607 ], [ 10283394.695452814921737, 2735350.360556725412607 ], [ 10065871.803957249969244, 1995772.529471806250513 ], [ 9848348.912461685016751, 1408460.722433782182634 ], [ 9587321.442667009308934, 1038671.806891323067248 ], [ 9369798.551171444356441, 951662.650293096899986 ], [ 9261037.105423660948873, 1386708.433284225873649 ], [ 8760734.454983863979578, 1234442.409237330779433 ], [ 8282184.093693621456623, 908158.071993984282017 ], [ 8108165.780497170984745, 473112.289002854377031 ], [ 7781881.443253824487329, 277341.686656847596169 ], [ 7629615.41920692846179, -92447.228885611519217 ], [ 7912395.178151162341237, -875529.638269644230604 ], [ 8238679.515394508838654, -1484593.734457224607468 ], [ 8782486.744133420288563, -1571602.891055449843407 ], [ 9152275.659675879403949, -1332327.710410328581929 ], [ 9456807.707769669592381, -1549850.601905893534422 ], [ 9391550.840321000665426, -1854382.649999683722854 ], [ 8978257.346479428932071, -1897887.228298796340823 ], [ 9065266.50307765416801, -2224171.56554214283824 ], [ 9870101.201611241325736, -2485199.035336820408702 ], [ 10740192.767593499273062, -2985501.685776619240642 ], [ 10892458.7916403952986, -3355290.601319078356028 ], [ 10370403.852051040157676, -3572813.49281464330852 ], [ 9696082.888414790853858, -3333538.312169522047043 ], [ 9239284.816274104639888, -3094263.131524400785565 ], [ 8804239.033282976597548, -2963749.396627062931657 ], [ 8651973.009236082434654, -2724474.215981941670179 ], [ 8325688.671992734074593, -2398189.878738595172763 ], [ 7890642.889001606032252, -2354685.300439482554793 ], [ 7586110.840907815843821, -2441694.457037707790732 ], [ 7259826.503664469346404, -2506951.324486376717687 ], [ 6824780.720673341304064, -2941997.107477506622672 ], [ 6411642.04739511013031, -3368837.400611505843699 ], [ 6400611.082256989553571, -3333538.312169520184398 ], [ 6193964.335336204618216, -3257405.30014607263729 ], [ 6038505.902158445678651, -3210296.684031600598246 ], [ 5835051.564368521794677, -3148643.854398290626705 ], [ 5493754.581662941724062, -3068338.681996976956725 ], [ 5465262.648826062679291, -3061634.697800064459443 ], [ 5177913.449275244958699, -3104204.949585371185094 ], [ 5171606.745307050645351, -3105139.276099177543074 ], [ 4878118.728583488613367, -3322888.44979730527848 ], [ 4636214.635728187859058, -3427374.829595708753914 ] ] ] ] } },
{ "type": "Feature", "properties": { "id": 5 }, "geometry": { "type": "MultiPolygon", "coordinates": [ [ [ [ 9236161.266344478353858, 2038840.936384349362925 ], [ 9152275.659675879403949, 1974020.240322249941528 ], [ 8853599.99712235480547, 1590008.674182003131136 ], [ 8434450.117740517482162, 1582479.035630233585835 ], [ 8440935.465004792436957, 1990342.214776838663965 ], [ 8505013.178405411541462, 2323546.324460058007389 ], [ 8521459.274338742718101, 2409066.023313377983868 ], [ 8341890.377014473080635, 2568682.820934950839728 ], [ 8325688.671992734074593, 2583084.336509830318391 ], [ 8117841.79877404216677, 2570858.049849906936288 ], [ 8066211.787674597464502, 2567820.990373468957841 ], [ 8009455.392494356259704, 2564482.378892277833074 ], [ 7955899.756450274959207, 2561332.047360273078084 ], [ 7754413.224108763039112, 2348651.818777566310018 ], [ 7595224.573733979836106, 2180619.354493073187768 ], [ 7542606.262608703225851, 2148038.553518701344728 ], [ 7281578.792814025655389, 2148038.553518701344728 ], [ 7115582.982298970222473, 2421288.225385035388172 ], [ 6955294.455570679157972, 2778854.938855838030577 ], [ 6858605.638092224486172, 2959340.731482286471874 ], [ 6629010.118327332660556, 3387919.03504341840744 ], [ 6596381.684602998197079, 3387919.03504341840744 ], [ 6280973.491934429854155, 3387919.03504341840744 ], [ 5998193.732990195974708, 3387919.03504341840744 ], [ 5992633.456831180490553, 3386635.894391337875277 ], [ 5845927.708943303674459, 4040487.709530107676983 ], [ 5889432.287242416292429, 4649551.805717688053846 ], [ 6063450.600438868626952, 5432634.215101718902588 ], [ 5410881.925952175632119, 5911184.576391961425543 ], [ 4279762.890175240114331, 6650762.407476879656315 ], [ 3105139.276099191978574, 6998799.033869782462716 ], [ 1756497.348826693370938, 7868890.599852040410042 ], [ 320846.264955967664719, 8564963.852637846022844 ], [ -766768.192521853372455, 9043514.213928088545799 ], [ -1375832.288709433749318, 9478559.996919218450785 ], [ -2245923.854691691696644, 10479165.297798812389374 ], [ -2941997.107477497309446, 11131733.972285505384207 ], [ -3203024.577272174879909, 11827807.225071312859654 ], [ -2941997.107477497309446, 12610889.634455345571041 ], [ -1810878.071700563654304, 13480981.200437601655722 ], [ -766768.192521853372455, 14133549.874924294650555 ], [ 146827.951759517192841, 14655604.814513649791479 ], [ 1190937.830938225612044, 15090650.597504779696465 ], [ 2583084.336509838700294, 15264668.910701230168343 ], [ 4279762.890175240114331, 15003641.44090655259788 ], [ 6367982.648532656952739, 13872522.405129618942738 ], [ 9021761.924778545275331, 12480375.899558005854487 ], [ 10805449.635042173787951, 10522669.876097925007343 ], [ 11936568.670819105580449, 8869495.900731636211276 ], [ 13154696.863194266334176, 7259826.503664460033178 ], [ 13546238.067886283621192, 5998193.732990186661482 ], [ 13372219.754689833149314, 4780065.540615025907755 ], [ 12937173.971698703244328, 4214506.022726558148861 ], [ 12371614.453810235485435, 3822964.81803454272449 ], [ 11632036.622725317254663, 3779460.239735430106521 ], [ 11153486.261435074731708, 3344414.456744300201535 ], [ 10979467.94823862425983, 2996377.830351397395134 ], [ 10273696.222583586350083, 2702375.552801345940679 ], [ 10283394.695452814921737, 2735350.360556725412607 ], [ 10076747.948532028123736, 2735350.360556725412607 ], [ 10065871.803957249969244, 2735350.360556725412607 ], [ 9717354.463991980999708, 2421684.754587982781231 ], [ 9236161.266344478353858, 2038840.936384349362925 ] ] ] ] } },
{ "type": "Feature", "properties": { "id": 6 }, "geometry": { "type": "MultiPolygon", "coordinates": [ [ [ [ -7031427.467594103887677, 951662.650293093640357 ], [ -6716019.274925535544753, 1375832.288709444459528 ], [ -6476744.094280414283276, 1658612.047653677873313 ], [ -6161335.901611845940351, 2050153.252345693763345 ], [ -6052574.455864064395428, 2387313.734163818880916 ], [ -5867679.998092833906412, 2735350.360556721687317 ], [ -5530519.516274709254503, 2931120.962902729865164 ], [ -4856198.552638459950686, 2985501.685776621103287 ], [ -4268886.745600435882807, 2680969.637682830914855 ], [ -3833840.962609306909144, 2376437.589589040726423 ], [ -3105139.276099165901542, 2463446.746187266428024 ], [ -2517827.469061141833663, 2550455.902785492129624 ], [ -2050153.252345679327846, 2844111.806304504163563 ], [ -1723868.915102332830429, 3148643.854398294351995 ], [ -1169185.541788643226027, 3224776.866421741433442 ], [ -766768.192521849647164, 3170396.14354785066098 ], [ -603626.023900175467134, 2822359.517154947854578 ], [ -658006.746774066239595, 2278552.288416036404669 ], [ -973414.93944263458252, 1810878.071700572967529 ], [ -1375832.288709430024028, 1723868.915102347265929 ], [ -1756497.348826667293906, 1419336.867008557077497 ], [ -1669488.192228442057967, 1027795.662316541187465 ], [ -1201813.975512977689505, 440483.855278517119586 ], [ -788520.481671405956149, -59818.795161280781031 ], [ -527493.011876728385687, -625378.313049748539925 ], [ -462236.144428059458733, -1125680.963489546440542 ], [ -560121.445601062849164, -1680364.336803235113621 ], [ -886405.782844409346581, -2115410.119794364087284 ], [ -1125680.963489530608058, -2278552.288416037335992 ], [ -1625983.613929327577353, -2376437.589589041657746 ], [ -2343809.155864691361785, -2670093.493108053691685 ], [ -2670093.493108037859201, -2583084.336509827524424 ], [ -3126891.565248723141849, -2637465.059383719228208 ], [ -3464052.047066847793758, -2887616.384603617712855 ], [ -3779460.239735416136682, -2952873.252052287571132 ], [ -4127496.866128318943083, -2778854.938855836167932 ], [ -4334143.613049104809761, -2430818.312462932430208 ], [ -4725684.817741121165454, -2126286.264369142241776 ], [ -5215111.323606140911579, -1767373.493401461280882 ], [ -5650157.106597269885242, -1560726.746480675414205 ], [ -6009069.877564950846136, -1419336.867008558474481 ], [ -6400611.082256967201829, -1299699.276685997843742 ], [ -6618133.973752531222999, -1234442.409237328916788 ], [ -6803028.431523760780692, -1397584.577859002165496 ], [ -7020551.323019325733185, -1375832.288709444925189 ], [ -7238074.214514889754355, -1245318.55381210707128 ], [ -7303331.081963559612632, -1114804.818914768286049 ], [ -7020551.323019325733185, -962538.794867873191833 ], [ -6824780.720673318020999, -581873.734750634990633 ], [ -6705143.130350757390261, -212084.819208175875247 ], [ -6846533.009822874329984, 429607.710703738965094 ], [ -6977046.744720213115215, 658006.746774082072079 ], [ -7031427.467594103887677, 951662.650293093640357 ] ] ] ] } },
{ "type": "Feature", "properties": { "id": 7 }, "geometry": { "type": "MultiPolygon", "coordinates": [ [ [ [ -6639286.199753134511411, 1466516.83209500904195 ], [ -6716019.274925535544753, 1375832.288709444459528 ], [ -7031427.467594103887677, 951662.650293093640357 ], [ -7029840.762152159586549, 943094.440906596602872 ], [ -7140188.913341885432601, 777644.337096641771495 ], [ -7107560.479617550037801, 473112.289002851583064 ], [ -7466473.250585231930017, 581873.734750633826479 ], [ -7716624.575805130414665, 429607.710703738732263 ], [ -7868890.599852025508881, 190332.530058618169278 ], [ -7705748.431230352260172, 5438.072287388145924 ], [ -7531730.118033900856972, -244713.252932510804385 ], [ -7477349.39516001008451, -690635.18049841793254 ], [ -7455597.106010453775525, -1234442.409237328916788 ], [ -7357711.804837448522449, -1919639.517448356375098 ], [ -7172817.347066219896078, -2409066.023313377052546 ], [ -7118436.624192328192294, -3083386.986949626356363 ], [ -7031427.467594102956355, -3888221.685483214445412 ], [ -7161941.202491441741586, -4312391.323899565264583 ], [ -7586110.840907791629434, -4432028.914222125895321 ], [ -7749253.009529464878142, -4247134.456450895406306 ], [ -7836262.166127691045403, -4094868.43240400031209 ], [ -7966775.901025028899312, -3746831.806011097505689 ], [ -7966775.901025028899312, -3507556.625365977175534 ], [ -8032032.768473698757589, -3018130.119500956498086 ], [ -8260431.804544040933251, -2604836.625659384764731 ], [ -8608468.430936943739653, -2267676.143841260112822 ], [ -8978257.346479404717684, -2071905.541495251469314 ], [ -9293665.539147973060608, -1658612.047653679735959 ], [ -9391550.840320976451039, -1201813.975512994453311 ], [ -9239284.816274080425501, -538369.156451523303986 ], [ -9087018.792227186262608, -114199.518035172484815 ], [ -9021761.924778517335653, 266465.542082065716386 ], [ -8738982.165834283456206, 864653.493694867473096 ], [ -8564963.852637831121683, 1158309.397213879507035 ], [ -8260431.804544040933251, 1560726.746480673551559 ], [ -7716624.575805130414665, 2093657.830644806381315 ], [ -7281578.792814001441002, 2496075.179911600425839 ], [ -7031427.467594102956355, 2789731.083430612459779 ], [ -6444115.660556078888476, 2854987.950879281852394 ], [ -5867679.998092833906412, 2735350.360556721687317 ], [ -5951466.900129301473498, 2577633.839076313190162 ], [ -6052574.455864064395428, 2387313.734163818880916 ], [ -6127610.627671204507351, 2154701.601561681833118 ], [ -6282805.692237129434943, 1899363.167431548237801 ], [ -6639286.199753134511411, 1466516.83209500904195 ] ] ] ] } },
{ "type": "Feature", "properties": { "id": 8 }, "geometry": { "type": "MultiPolygon", "coordinates": [ [ [ [ -7627372.478886037133634, -4385265.724513447843492 ], [ -7504539.756596956402063, -4888826.986362811177969 ], [ -7482787.467447400093079, -5650157.106597286649048 ], [ -7439282.889148287475109, -6346230.359383092261851 ], [ -7243512.286802278831601, -7064055.901318455114961 ], [ -6917227.949558932334185, -7564358.551758253015578 ], [ -6569191.323166029527783, -8064661.202198050916195 ], [ -6308163.853371351957321, -8564963.852637849748135 ], [ -6177650.118474014103413, -8869495.900731639936566 ], [ -6503934.455717360600829, -8869495.900731639936566 ], [ -6938980.238708488643169, -8934752.768180308863521 ], [ -7548044.334896069020033, -9217532.527124542742968 ], [ -8244117.587681874632835, -9369798.551171436905861 ], [ -8700915.659822560846806, -9239284.816274099051952 ], [ -9092456.864514576271176, -8891248.189881196245551 ], [ -9201218.3102623578161, -8630220.720086518675089 ], [ -9875539.273898608982563, -8456202.406890066340566 ], [ -10658621.683282639831305, -8282184.093693615868688 ], [ -11028410.598825098946691, -7999404.334749381989241 ], [ -11680979.273311791941524, -7999404.334749381989241 ], [ -12203034.212901147082448, -7412092.527711357921362 ], [ -12464061.68269582465291, -7716624.575805148109794 ], [ -12986116.622285179793835, -8499706.98518918082118 ], [ -13529923.851024091243744, -8477954.69603962264955 ], [ -14117235.658062115311623, -8064661.202198050916195 ], [ -14617538.308501912280917, -7194569.636215793900192 ], [ -15204850.115539936348796, -6585505.540028213523328 ], [ -15596391.320231951773167, -5911184.576391963288188 ], [ -15792161.922577958554029, -5323872.769353940151632 ], [ -15922675.657475298270583, -4562542.649119464680552 ], [ -15813914.211727516725659, -4018735.420380553230643 ], [ -15096088.669792152941227, -3735955.661436319351196 ], [ -14269501.682109009474516, -3735955.661436319351196 ], [ -13399410.11612675152719, -3844717.107184101827443 ], [ -12529318.550144493579865, -4083992.28782922308892 ], [ -11920254.453956913203001, -3996983.131230996921659 ], [ -11593970.116713566705585, -3279157.58929563453421 ], [ -11224181.201171107590199, -2365561.445014263968915 ], [ -10615117.104983527213335, -1756497.348826683592051 ], [ -9940796.141347277909517, -1800001.927125796675682 ], [ -9598197.587241765111685, -1974020.240322247613221 ], [ -9097894.936801966279745, -2050153.252345695160329 ], [ -8951772.464690554887056, -2085926.949501113267615 ], [ -8858546.284207006916404, -2135281.986227697692811 ], [ -8702414.804074760526419, -2217939.828650651499629 ], [ -8442603.116797054186463, -2428358.166914279107004 ], [ -8236925.484651391394436, -2647371.871179417241365 ], [ -8068867.414078677073121, -2951476.951263376977295 ], [ -8003536.31980615761131, -3231853.484507515095174 ], [ -7966775.901025028899312, -3714203.37228676257655 ], [ -7966775.901025028899312, -3746831.806011097505689 ], [ -7840731.81458308454603, -4082949.369856283068657 ], [ -7840731.814583079889417, -4082949.369856297969818 ], [ -7840731.814583078958094, -4082949.369856299366802 ], [ -7836262.166127691045403, -4094868.43240400031209 ], [ -7749253.009529464878142, -4247134.456450895406306 ], [ -7627372.478886038064957, -4385265.724513445980847 ], [ -7627372.478886037133634, -4385265.724513447843492 ] ] ] ] } }
]
}
