{
"type": "FeatureCollection",
"name": "map027",
"crs": { "type": "name", "properties": { "name": "urn:ogc:def:crs:ESRI::102016" } },
"features": [
{ "type": "Feature", "properties": { "id": 1 }, "geometry": { "type": "MultiPolygon", "coordinates": [ [ [ [ -9164885.522002210840583, -1742516.475463856942952 ], [ -8776996.212333267554641, -2113541.032538497820497 ], [ -8237324.129315609112382, -2552024.599990345537663 ], [ -8034947.098183985799551, -2973643.414847891777754 ], [ -7512139.767760628834367, -3850610.549751588143408 ], [ -7225438.973657498136163, -4390282.63276924751699 ], [ -6584578.375074027106166, -6194811.160359545610845 ], [ -6230418.570593688637018, -7172966.810829052701592 ], [ -6415930.849131008610129, -8387228.997618786990643 ], [ -6938738.179554365575314, -9213601.874739577993751 ], [ -8136135.613749798387289, -9584626.431814217939973 ], [ -9333533.047945229336619, -9652085.442191425710917 ], [ -10615254.245112169533968, -9415978.905871199443936 ], [ -12082487.720816429704428, -9095548.606579463928938 ], [ -13583450.701709296554327, -8437823.255401691421866 ], [ -14342364.568452879786491, -7695774.141252409666777 ], [ -15118143.18779076449573, -6161081.655170941725373 ], [ -15303655.466328084468842, -4997413.726164114661515 ], [ -15168737.445573668926954, -4322823.622392039746046 ], [ -14679659.620338916778564, -3428991.734894041903317 ], [ -13954475.258783936500549, -2737536.878527666442096 ], [ -12942590.10312582552433, -2214729.548104308545589 ], [ -11863245.937090506777167, -1793110.733246762305498 ], [ -10514065.729546358808875, -1489545.186549329198897 ], [ -9670828.099831266328692, -1455815.681360725313425 ], [ -9164885.522002210840583, -1742516.475463856942952 ] ] ] ] } },
{ "type": "Feature", "properties": { "id": 2 }, "geometry": { "type": "MultiPolygon", "coordinates": [ [ [ [ -9072129.38273354806006, -2012352.516972686164081 ], [ -9083325.3808773458004, -1820530.523496335605159 ], [ -9316668.295350924134254, -1008899.737611726857722 ], [ -9333533.047945225611329, -519821.912376972846687 ], [ -9282938.790162321180105, 374009.975121024996042 ], [ -8861319.975304773077369, 1352165.62559053208679 ], [ -8524024.923418736085296, 1858108.203419587574899 ], [ -7967488.087806776165962, 2330321.27606004010886 ], [ -7124250.45809168368578, 2836263.853889095596969 ], [ -6213553.817999383434653, 3291612.173935245722532 ], [ -5623287.477198818698525, 3325341.679123848676682 ], [ -5572693.219415912404656, 3106099.895397924818099 ], [ -5690746.487576026469469, 2498968.802003058604896 ], [ -6078635.797244967892766, 1706325.43007087148726 ], [ -6618307.88026262819767, 677575.521818458102643 ], [ -7082088.576605929993093, -131932.602708029793575 ], [ -7250736.10254894848913, -460795.278296916047111 ], [ -7630193.035920740105212, -958305.479828820563853 ], [ -8102406.10856119170785, -1573868.949520838446915 ], [ -8431268.784150078892708, -1911164.001406875438988 ], [ -8824285.777727259323001, -2068307.535205114632845 ], [ -9072129.38273354806006, -2012352.516972686164081 ] ] ] ] } },
{ "type": "Feature", "properties": { "id": 3 }, "geometry": { "type": "MultiPolygon", "coordinates": [ [ [ [ -7249949.380464866757393, -4344145.396425964310765 ], [ -7625976.847772162407637, -3972880.006060275249183 ], [ -7937974.770766746252775, -3357316.536368257831782 ], [ -8065408.920490208081901, -2910181.285043261479586 ], [ -8182513.683384123258293, -2261107.617738637141883 ], [ -8165648.930789821781218, -1915380.189555448945612 ], [ -8094735.783990833908319, -1563870.133563050767407 ], [ -7997001.404846803285182, -1072142.559840356465429 ], [ -7642841.600366463884711, -591497.110902753658593 ], [ -7208727.856237789615989, -378879.197990155895241 ], [ -7001981.001782993786037, -498740.971634093497414 ], [ -6715280.20767986215651, -793874.14203437580727 ], [ -6597226.93951974902302, -1004683.549463148927316 ], [ -6462308.918765334412456, -1578085.137669411953539 ], [ -6285229.016525165177882, -2244242.865144335199147 ], [ -6268364.263930863700807, -2758617.819270541425794 ], [ -6209337.629850806668401, -3593423.07268848316744 ], [ -6369552.7794966744259, -4023474.26384318061173 ], [ -6487606.04765678755939, -4284877.929054859094322 ], [ -6942954.367702937684953, -4461957.831295028328896 ], [ -7249949.380464866757393, -4344145.396425964310765 ] ] ] ] } },
{ "type": "Feature", "properties": { "id": 4 }, "geometry": { "type": "MultiPolygon", "coordinates": [ [ [ [ -6620808.834742963314056, -962573.022278837044723 ], [ -6732258.289145022630692, -776396.705232005100697 ], [ -6791171.594354224391282, -422849.584959734929726 ], [ -6791171.594354224391282, -127716.414559452328831 ], [ -6639388.82100550737232, 277037.64770379208494 ], [ -6437011.789873884990811, 723953.59145279135555 ], [ -6200905.253553659655154, 1196166.664093242958188 ], [ -5981663.469827735796571, 1575623.59746503457427 ], [ -5720259.804616056382656, 2106863.304185543209314 ], [ -5610638.912753094919026, 2368266.969397220760584 ], [ -5492585.644592981785536, 2789885.784254767000675 ], [ -5408261.881621472537518, 3186207.470220860559493 ], [ -5273343.86086705699563, 3388584.501352485269308 ], [ -4312052.96299185231328, 3810203.316210031509399 ], [ -3064061.271013515070081, 4046309.85253025777638 ], [ -1866663.83681808412075, 4147498.368096068501472 ], [ -922237.69153717905283, 3540367.274701201822609 ], [ -331971.350736614316702, 2461023.108665883541107 ], [ -180188.577387899160385, 1567191.221167885698378 ], [ -382565.608519520610571, 1044383.890744527801871 ], [ -922237.69153717905283, 757683.096641396172345 ], [ -1419747.893069084733725, 597467.946995528880507 ], [ -2052176.115355403162539, 209578.637326586060226 ], [ -2583415.822075911797583, -524038.100525544490665 ], [ -2836387.110990439541638, -1190195.828000467270613 ], [ -3047196.518419212661684, -1822624.05028678663075 ], [ -3325464.936225193552673, -2404458.01479020062834 ], [ -3502544.838465362787247, -2733320.690379086881876 ], [ -3730218.998488437384367, -2901968.216322105377913 ], [ -4042216.921483022160828, -2952562.474105010740459 ], [ -4826427.917118057608604, -2809212.077053445391357 ], [ -5585341.783861641772091, -2336999.004412993788719 ], [ -6226202.382445111870766, -1451599.493212145753205 ], [ -6620808.834742963314056, -962573.022278837044723 ] ] ] ] } },
{ "type": "Feature", "properties": { "id": 5 }, "geometry": { "type": "MultiPolygon", "coordinates": [ [ [ [ -1048848.987619378836825, 716909.967394586186856 ], [ -747265.883371295407414, 715521.215155641548336 ], [ -468997.465565314516425, 563738.441806924995035 ], [ -266620.434433692134917, 327631.905486699193716 ], [ -131702.413679277524352, 108390.121760775335133 ], [ 20080.359669438563287, -195175.424936658237129 ], [ 121268.875235250219703, -667388.497577110305429 ], [ 53809.864858042448759, -1266087.214674825780094 ], [ -131702.413679277524352, -1772029.792503881268203 ], [ -393106.078890956006944, -2269539.994035786017776 ], [ -1033966.677474427036941, -2842941.582242049276829 ], [ -1691692.02865219861269, -3062183.365967973135412 ], [ -2543362.034664442762733, -3011589.108185067772865 ], [ -3074601.741384950466454, -2851373.958539200015366 ], [ -3341372.343345391564071, -2434000.342299140058458 ], [ -3239522.805648961570114, -2224760.832676261197776 ], [ -3056864.562166061252356, -1842839.050848378799856 ], [ -2904900.168404790572822, -1395735.000243520596996 ], [ -2682517.793891958426684, -785006.626307800877839 ], [ -2327775.705795884598047, -171011.273281697474886 ], [ -1979362.311827087309211, 254237.770157286489848 ], [ -1466540.718842818634585, 568768.347187638632022 ], [ -1048848.987619378836825, 716909.967394586186856 ] ] ] ] } },
{ "type": "Feature", "properties": { "id": 6 }, "geometry": { "type": "MultiPolygon", "coordinates": [ [ [ [ -861102.963382836431265, -6097838.832942306995392 ], [ -270836.622582270763814, -5828002.79143347684294 ], [ 192944.073761030100286, -5701517.146976212970912 ], [ 530239.125647067092359, -5600328.631410401314497 ], [ 1061478.832367574796081, -5482275.363250289112329 ], [ 1837257.451705460436642, -5381086.847684478387237 ], [ 2250443.890265855938196, -5389519.223981629125774 ], [ 2806980.725877816788852, -5372654.471387326717377 ], [ 3329788.056301173754036, -5490707.739547439850867 ], [ 3886324.891913135536015, -5819570.415136326104403 ], [ 4038107.665261852554977, -6114703.585536608472466 ], [ 4021242.912667549215257, -6468863.390016946941614 ], [ 3464706.077055589295924, -7025400.225628908723593 ], [ 2562441.813260439783335, -7421721.91159500181675 ], [ 1820392.699111158028245, -7691557.953103831969202 ], [ 1044614.079773273319006, -7936096.865721208043396 ], [ 445915.362675557844341, -8045717.757584170438349 ], [ -203377.612205063924193, -8155338.649447132833302 ], [ -1012885.736731552518904, -8315553.799092999659479 ], [ -1493531.185669155325741, -8534795.582818925380707 ], [ -1906717.624229550827295, -8762469.742842 ], [ -2050068.021281116642058, -9015441.031756527721882 ], [ -2277742.181304191704839, -8922684.892487866804004 ], [ -2412660.202058606315404, -8433607.067253112792969 ], [ -2328336.439087097067386, -7969826.370909811928868 ], [ -2201850.794629833195359, -7463883.793080756440759 ], [ -1965744.25830960739404, -7059129.730817511677742 ], [ -1535693.06715490994975, -6570051.90558275859803 ], [ -861102.963382836431265, -6097838.832942306995392 ] ] ] ] } },
{ "type": "Feature", "properties": { "id": 7 }, "geometry": { "type": "MultiPolygon", "coordinates": [ [ [ [ -2050068.021281116642058, -9015441.031756527721882 ], [ -1858534.541138642467558, -8735919.880730682983994 ], [ -1380502.969269306631759, -8483238.852531274780631 ], [ -737076.505204986315221, -8260966.55535336676985 ], [ -206674.136884664272657, -8155991.086623303592205 ], [ 208153.602605300577125, -8085859.353440187871456 ], [ 808007.427469204412773, -7979419.210509276948869 ], [ 1183428.846156677231193, -7892340.037187309004366 ], [ 1435296.359216296114028, -7812947.016766342334449 ], [ 1841381.314566110726446, -7683925.729302030988038 ], [ 2208282.008780101314187, -8113176.767961379140615 ], [ 2073363.9880256857723, -8737172.613950546830893 ], [ 1752933.688733951188624, -9369600.836236868053675 ], [ 1331314.873876404948533, -9664734.006637148559093 ], [ 648292.393807179294527, -9968299.553334582597017 ], [ -85324.344044950790703, -10120082.326683299615979 ], [ -574402.169279704801738, -10128514.702980451285839 ], [ -1206830.391566024161875, -10052623.316306091845036 ], [ -1679043.464206475764513, -9833381.53258016705513 ], [ -1999473.76349821081385, -9428627.470316924154758 ], [ -2050068.021281116642058, -9015441.031756527721882 ] ] ] ] } },
{ "type": "Feature", "properties": { "id": 8 }, "geometry": { "type": "MultiPolygon", "coordinates": [ [ [ [ 1348292.812729728408158, -9652849.449439821764827 ], [ 1722373.398797968169674, -9390993.039192056283355 ], [ 1939688.934607758652419, -9001004.956222772598267 ], [ 2095348.187499625608325, -8635495.691383576020598 ], [ 2149861.470135219860822, -8383371.759193954057992 ], [ 2200373.346014315728098, -8149754.333253137767315 ], [ 2109036.900093981064856, -7997066.150954668410122 ], [ 1962804.177904515760019, -7825982.942675967700779 ], [ 1826147.642058484256268, -7689465.246577531099319 ], [ 2426015.812803249340504, -7471331.366306707262993 ], [ 3047033.957576541230083, -7208863.679979518055916 ], [ 3648110.261518620885909, -6841996.041165876202285 ], [ 3960108.184513204265386, -6529998.118171292357147 ], [ 4101350.487490483559668, -6384539.627045439556241 ], [ 4539834.054942332208157, -6030379.822565101087093 ], [ 5222856.53501155693084, -5853299.920324930921197 ], [ 5914311.391377933323383, -5819570.415136327967048 ], [ 6378092.087721234187484, -5811138.038839176297188 ], [ 6892467.041847440414131, -5979785.564782194793224 ], [ 7002087.933710402809083, -6409836.755936892703176 ], [ 6825008.031470232643187, -6738699.431525778025389 ], [ 6521442.484772799536586, -7168750.62268047593534 ], [ 6175715.056589611805975, -7548207.556052267551422 ], [ 5458963.07133178319782, -8062582.510178473778069 ], [ 4666319.699399596080184, -8635984.0983847361058 ], [ 3932702.961547465063632, -9125061.923619490116835 ], [ 2988276.816266561858356, -9749057.769608657807112 ], [ 2659414.14067767560482, -9951434.800740281119943 ], [ 2296821.959900185931474, -10162244.208169054239988 ], [ 1908932.650231243111193, -10238135.594843413680792 ], [ 1596934.727236659033224, -10246567.971140563488007 ], [ 1402990.072402187623084, -10128514.702980451285839 ], [ 1327098.685727829346433, -9934570.048145979642868 ], [ 1348292.812729728408158, -9652849.449439821764827 ] ] ] ] } },
{ "type": "Feature", "properties": { "id": 9 }, "geometry": { "type": "MultiPolygon", "coordinates": [ [ [ [ 2262482.191702368203551, -10168962.858468627557158 ], [ 2960871.593300823122263, -9765922.522202961146832 ], [ 3583862.760493653826416, -9355545.627887185662985 ], [ 4275673.65132581628859, -8896414.797100588679314 ], [ 4963737.63030178938061, -8420830.701561873778701 ], [ 5527635.978744459338486, -8013299.600152906030416 ], [ 5949724.714079007506371, -7710388.860677524469793 ], [ 6367551.617349795997143, -7463883.793080758303404 ], [ 7059006.473716172389686, -7135021.117491872981191 ], [ 7801055.587865453213453, -6882049.828577345237136 ], [ 8399754.304963167756796, -6898914.581171646714211 ], [ 8745481.733146356418729, -6983238.344143155962229 ], [ 9268289.063569713383913, -7337398.148623494431376 ], [ 9344180.450244072824717, -7834908.350155399180949 ], [ 9318883.321352619677782, -8290256.670201549306512 ], [ 9150235.795409601181746, -8804631.624327756464481 ], [ 8728616.980552054941654, -9394897.965128321200609 ], [ 8037162.124185679480433, -10018893.811117488890886 ], [ 7261383.504847793839872, -10954887.580101240426302 ], [ 6780738.055910191498697, -11351209.266067333519459 ], [ 5954365.178789400495589, -12118555.509108068421483 ], [ 5364098.837988836690784, -12548606.700262766331434 ], [ 4773832.497188271954656, -12894334.128445953130722 ], [ 4141404.274901952128857, -12953360.762526009231806 ], [ 3576435.062992840539664, -12911198.881040256470442 ], [ 3112654.366649539675564, -12675092.344720028340816 ], [ 2665738.422900540754199, -12169149.766890972852707 ], [ 2497090.896957522258162, -11663207.189061919227242 ], [ 2252551.984340145252645, -10938022.827506938949227 ], [ 2262482.191702368203551, -10168962.858468627557158 ] ] ] ] } },
{ "type": "Feature", "properties": { "id": 10 }, "geometry": { "type": "MultiPolygon", "coordinates": [ [ [ [ 468736.931553169095423, -5618779.289638570509851 ], [ 75393.50495709507959, -5733576.393013649620116 ], [ -278957.268560535856523, -5831715.08673782646656 ], [ -556952.388552699470893, -5958798.570162815973163 ], [ -864781.516801055986434, -6100413.820335060358047 ], [ -1158344.227857402525842, -5726814.27586767077446 ], [ -1352288.882691873703152, -5010062.290609842166305 ], [ -1234235.614531760569662, -4411363.573512126691639 ], [ -880075.810051422100514, -3770502.974928656127304 ], [ -711428.284108403138816, -3466937.428231223020703 ], [ -374133.232222366146743, -3289857.525991053786129 ], [ -70567.685524933040142, -3365748.912665411829948 ], [ 30620.830040877684951, -3509099.309716977644712 ], [ 241430.237469650804996, -3753638.222334354650229 ], [ 376348.258224065415561, -4149959.908300447743386 ], [ 637751.923435743898153, -4571578.723157994449139 ], [ 612454.794544291682541, -5010062.290609842166305 ], [ 561860.536761386319995, -5364222.095090180635452 ], [ 468736.931553169095423, -5618779.289638570509851 ] ] ] ] } },
{ "type": "Feature", "properties": { "id": 11 }, "geometry": { "type": "MultiPolygon", "coordinates": [ [ [ [ 356589.473034473776352, -4091918.47680602222681 ], [ 211663.834101467684377, -3719109.194427262060344 ], [ 25946.99560365769139, -3502478.044264249503613 ], [ 55917.958932330831885, -2775482.571864847093821 ], [ 401645.387115518562496, -2202080.98365858476609 ], [ 747372.815298706293106, -1906947.813258302165195 ], [ 1034073.609401837922633, -1788894.545098189264536 ], [ 1480989.553150836378336, -1763597.416206736350432 ], [ 1674934.207985308021307, -2016568.705121264094487 ], [ 1801419.852442571893334, -2691158.808893337845802 ], [ 1801419.852442571893334, -3298289.902288204524666 ], [ 1936337.873196986503899, -3559693.567499883007258 ], [ 1666501.83168815728277, -3812664.856414410751313 ], [ 1008776.480510384775698, -3863259.114197316579521 ], [ 663049.052327197045088, -3905420.99568307120353 ], [ 356589.473034473776352, -4091918.47680602222681 ] ] ] ] } },
{ "type": "Feature", "properties": { "id": 12 }, "geometry": { "type": "MultiPolygon", "coordinates": [ [ [ [ 2240251.843436256516725, -5389311.22302592266351 ], [ 1739654.263422130141407, -5393817.698330130428076 ], [ 1407641.201893230434507, -5437123.74983389955014 ], [ 1112037.824636229546741, -5475680.712084812112153 ], [ 816617.505362368188798, -5536688.991473668254912 ], [ 430649.502848042058758, -5629895.088695365935564 ], [ 581086.354718890390359, -5229641.369387651793659 ], [ 624800.315610374556854, -4796073.258797734975815 ], [ 631105.427469656802714, -4560858.568373982794583 ], [ 542963.827555750962347, -4418694.697545101866126 ], [ 341975.634680953051429, -4048990.326642555184662 ], [ 701350.625554994679987, -3900750.072118705604225 ], [ 1064876.583993194624782, -3858943.721621715929359 ], [ 1425335.869589640758932, -3831216.084268142934889 ], [ 1725966.738964530872181, -3756916.505842810496688 ], [ 1901527.471786233829334, -3492248.414766549598426 ], [ 1801419.852442571893334, -3188669.010425242595375 ], [ 1801419.852442571893334, -2708023.561487639788538 ], [ 1740706.74310308531858, -2367355.559082742780447 ], [ 1643311.321647707140073, -1975321.462072219466791 ], [ 1843581.733928326517344, -1713003.158423830755055 ], [ 2029094.012465646490455, -1502193.750995057635009 ], [ 2256768.172488722018898, -1493761.374697906896472 ], [ 2863899.2658835882321, -1839488.802881094627082 ], [ 3150600.059986719861627, -2379160.885898754000664 ], [ 3268653.328146832995117, -2598402.669624677859247 ], [ 3319247.585929738357663, -3365748.912665411829948 ], [ 3218059.070363926701248, -3804232.480117260012776 ], [ 3024114.415529455989599, -4293310.305352013558149 ], [ 2610927.976969060488045, -4706496.743912409059703 ], [ 2383253.816945985890925, -5077521.300987049937248 ], [ 2240251.843436256516725, -5389311.22302592266351 ] ] ] ] } },
{ "type": "Feature", "properties": { "id": 13 }, "geometry": { "type": "MultiPolygon", "coordinates": [ [ [ [ 6401651.484127768315375, -5818862.431103614158928 ], [ 5970751.325756129808724, -5818544.234511270187795 ], [ 5456709.850306387990713, -5841892.441530060954392 ], [ 4834888.646000513806939, -5953884.187846313230693 ], [ 4441204.693865987472236, -6110041.998819071799517 ], [ 4108318.33289985684678, -6378911.751907099969685 ], [ 4075407.712057142518461, -6411256.813685745932162 ], [ 3993670.294239489827305, -6028297.586326458491385 ], [ 3781068.690997247118503, -5757373.569140573963523 ], [ 3393850.872243238147348, -5528563.039876841939986 ], [ 3087213.219450042583048, -5435932.776387507095933 ], [ 2724840.484199768397957, -5375143.569619994610548 ], [ 2397045.393866852391511, -5385076.75417553819716 ], [ 2252425.292054683435708, -5362769.221523926593363 ], [ 2537841.581509495619684, -4825600.499476145021617 ], [ 2861791.171809299848974, -4455633.549072169698775 ], [ 3159746.144989216234535, -3951282.465844791382551 ], [ 3318529.764309156220406, -3354861.951419914141297 ], [ 3293320.84231175808236, -2972526.63445937493816 ], [ 3271031.872669270727783, -2634477.261548318900168 ], [ 3820973.97561021707952, -1772029.792503887088969 ], [ 4495564.079382291063666, -1257654.838377680629492 ], [ 5043668.538697101175785, -1148033.9465147187002 ], [ 5701393.889874872751534, -1325113.848754888167605 ], [ 6232633.596595381386578, -1898515.436961150960997 ], [ 6603658.153670022264123, -2497214.154058866668493 ], [ 6848197.066287398338318, -3036886.237076525576413 ], [ 6966250.334447511471808, -3517531.686014128383249 ], [ 6983115.087041813880205, -4276445.552757711149752 ], [ 6856629.442584550008178, -5035359.419501294381917 ], [ 6401651.484127768315375, -5818862.431103614158928 ] ] ] ] } },
{ "type": "Feature", "properties": { "id": 14 }, "geometry": { "type": "MultiPolygon", "coordinates": [ [ [ [ 6856010.170827458612621, -3068696.734132484067231 ], [ 6661858.11768165230751, -2625655.453946602530777 ], [ 6359250.978047971613705, -2102829.847941466607153 ], [ 5972237.734299700707197, -1617453.236388035584241 ], [ 5721177.051302844658494, -1346467.102359683485702 ], [ 5278030.445438604801893, -1211131.382945123594254 ], [ 4889615.510191458277404, -1178844.552215847186744 ], [ 4497185.690208664163947, -1257330.516212406102568 ], [ 4176831.752908812835813, -1500688.237313707591966 ], [ 3813994.152733148541301, -1782975.90945422463119 ], [ 3508976.052615631371737, -2100892.468092774040997 ], [ 3451346.243141301441938, -2351698.998865198343992 ], [ 3282708.964663300663233, -2616164.645761686842889 ], [ 3090825.237149147782475, -2266643.572322147432715 ], [ 2908825.913550548721105, -1924056.610254196450114 ], [ 2640768.639716762583703, -1712428.307424985570833 ], [ 2408971.029259669128805, -1580432.445914696203545 ], [ 2291701.425495417322963, -1513653.921548941638321 ], [ 1957498.651587400818244, -1583552.115629428066313 ], [ 1316558.215356393717229, -397552.456068287603557 ], [ 692562.36936722509563, 833574.483315747231245 ], [ 254078.801915376912802, 1575623.597465028986335 ], [ 85431.275972358882427, 2334537.464208612218499 ], [ 85431.275972358882427, 2958533.310197780374438 ], [ 844345.14271594164893, 3902959.455478684045374 ], [ 1670718.019836732186377, 4493225.796279248781502 ], [ 2210390.102854391559958, 4712467.580005172640085 ], [ 2969303.969597974792123, 4931709.363731096498668 ], [ 3728217.836341558024287, 4931709.363731096498668 ], [ 4183566.15638770814985, 5134086.394862718880177 ], [ 4369078.434925028122962, 5977324.024577811360359 ], [ 4369078.434925028122962, 6871155.912075809203088 ], [ 4200430.908982009626925, 8119147.604054145514965 ], [ 4132971.898604801855981, 9147897.512306557968259 ], [ 4251025.166764914989471, 9586381.079758405685425 ], [ 4605184.971245254389942, 9991135.142021650448442 ], [ 4689508.73421676363796, 10058594.152398858219385 ], [ 5161721.806857215240598, 10109188.410181764513254 ], [ 6207336.467703929170966, 9721299.100512821227312 ], [ 7134897.860390530899167, 8658819.687071803957224 ], [ 8028729.747888529673219, 7478287.005470675416291 ], [ 8855102.625009318813682, 6769967.396509998477995 ], [ 9512827.976187091320753, 5943594.519389207474887 ], [ 9985041.048827543854713, 5302733.920805737376213 ], [ 10086229.564393354579806, 4931709.363731096498668 ], [ 10339200.853307882323861, 3565664.403592646121979 ], [ 10609036.894816711544991, 2165889.938265593722463 ], [ 10440389.368873693048954, 378226.163269598037004 ], [ 10254877.090336373075843, -616794.23979421146214 ], [ 9782664.017695920541883, -1527490.879886511713266 ], [ 9124938.666518149897456, -2067162.962904170155525 ], [ 7876946.974539812654257, -2708023.561487641185522 ], [ 6856010.170827458612621, -3068696.734132484067231 ] ] ] ] } },
{ "type": "Feature", "properties": { "id": 15 }, "geometry": { "type": "MultiPolygon", "coordinates": [ [ [ [ 10080391.765418404713273, 4953114.626639248803258 ], [ 9956640.4421247523278, 5341277.601330955512822 ], [ 9624734.844389136880636, 5791720.91254357341677 ], [ 9107661.110188748687506, 6452650.325387123972178 ], [ 8524553.474161002784967, 7053295.24009426869452 ], [ 8011864.995294228196144, 7798717.304762410931289 ], [ 7285860.257267219014466, 8459435.389310140162706 ], [ 6549502.380362126976252, 9329363.600558886304498 ], [ 6220863.957274136133492, 9705803.976096037775278 ], [ 5724579.550198894925416, 9900386.344103399664164 ], [ 5109915.328522133640945, 10103637.716074435040355 ], [ 4622049.723839555867016, 10952426.039896856993437 ], [ 3913730.114878877997398, 11272856.33918859064579 ], [ 2260984.360637296922505, 11863122.679989155381918 ], [ 945533.658281752839684, 12419659.515601113438606 ], [ 119160.781160962302238, 13127979.124561790376902 ], [ -201269.518130772747099, 13886892.991305373609066 ], [ -116945.755159263499081, 14628942.105454655364156 ], [ 304673.05969828274101, 15370991.219603937119246 ], [ 1721312.277619637548923, 15742015.776678577065468 ], [ 3205410.50591820012778, 15775745.281867180019617 ], [ 4638914.476433857344091, 15438450.229981143027544 ], [ 6342254.488458344712853, 14443429.826917335391045 ], [ 7826352.716756906360388, 13499003.681636430323124 ], [ 9732069.759913016110659, 12183552.979280887171626 ], [ 11300491.751183087006211, 10834372.771736739203334 ], [ 12261782.649058293551207, 9889946.626455835998058 ], [ 13741664.689208282157779, 7191586.211367543786764 ], [ 13842853.204774092882872, 6213430.560898037627339 ], [ 13825988.452179791405797, 5252139.663022831082344 ], [ 13589881.915859565138817, 4695602.827410871163011 ], [ 12898427.059493189677596, 4408902.033307738602161 ], [ 11987730.41940088942647, 4341443.022930532693863 ], [ 11161357.542280100286007, 4408902.033307738602161 ], [ 10080391.765418404713273, 4953114.626639248803258 ] ] ] ] } }
]
}
