{
"type": "FeatureCollection",
"name": "map003",
"crs": { "type": "name", "properties": { "name": "urn:ogc:def:crs:ESRI::102016" } },
"features": [
{ "type": "Feature", "properties": { "id": 1 }, "geometry": { "type": "MultiPolygon", "coordinates": [ [ [ [ -16314.216862159315497, -5905746.504104559309781 ], [ -233837.108357723336667, -5916622.648679337464273 ], [ -614502.168474960606545, -5731728.19090810790658 ], [ -864653.493694859556854, -5209673.251318753696978 ], [ -810272.770820968784392, -4524476.143107726238668 ], [ -516616.867301956750453, -4089430.360116598196328 ], [ -70694.939736050087959, -3774022.167448029853404 ], [ 364350.843255078420043, -3654384.577125469688326 ], [ 821148.915395763237029, -3730517.589148917235434 ], [ 1103928.674339996185154, -3871907.468621033709496 ], [ 1277946.987536447588354, -4035049.637242706958205 ], [ 1451965.300732898991555, -4339581.685336496680975 ], [ 1495469.879032012540847, -4807255.902051960118115 ], [ 1299699.276686003897339, -5296682.40791697986424 ], [ 886405.782844432163984, -5764356.624632442370057 ], [ 494864.578152416739613, -5938374.937828893773258 ], [ -16314.216862159315497, -5905746.504104559309781 ] ] ] ] } },
{ "type": "Feature", "properties": { "id": 2 }, "geometry": { "type": "MultiPolygon", "coordinates": [ [ [ [ -50488.636224305140786, -5907455.225072667002678 ], [ 386103.132404634729028, -5709975.901758551597595 ], [ 734139.758797537069768, -5557709.877711656503379 ], [ 1070022.054174592951313, -5556580.317600945010781 ], [ 2017524.818621365819126, -5427196.142814317718148 ], [ 2833235.661729732062668, -5405443.853664761409163 ], [ 3453175.902492089662701, -5525081.443987322039902 ], [ 4018735.420380557421595, -6003631.805277563631535 ], [ 4116620.721553560812026, -6482182.166567804291844 ], [ 3822964.818034549709409, -6928104.09413371142 ], [ 3355290.601319086272269, -7352273.732550061307847 ], [ 2604836.625659389887005, -7569796.624045625329018 ], [ 1702116.625952798407525, -7711186.503517742268741 ], [ 1016919.517741770949215, -7841700.238415081053972 ], [ 527493.01187675120309, -7885204.816714193671942 ], [ -157704.096334275789559, -7841700.238415081053972 ], [ -538369.156451513059437, -7743814.937242076732218 ], [ -1082176.385190424043685, -7330521.443400504998863 ], [ -1114804.818914758507162, -6928104.09413371142 ], [ -1082176.385190424043685, -6634448.19061469938606 ], [ -777644.337096633855253, -6286411.564221796579659 ], [ -50488.636224305140786, -5907455.225072667002678 ] ] ] ] } },
{ "type": "Feature", "properties": { "id": 3 }, "geometry": { "type": "MultiPolygon", "coordinates": [ [ [ [ 299093.975806409027427, -3491242.408503796439618 ], [ 125075.662609957624227, -3349852.529031679965556 ], [ -5438.072287381161004, -3067072.77008744655177 ], [ 48942.650586510077119, -2664655.420820652507246 ], [ 222960.963782961480319, -2218733.493254745844752 ], [ 538369.156451529357582, -1935953.734310512430966 ], [ 799396.626246206928045, -1881573.011436621425673 ], [ 1277946.987536447588354, -2196981.204105189535767 ], [ 1615107.469354572240263, -2599398.55337198311463 ], [ 2028400.963196144904941, -2925682.890615329612046 ], [ 2430818.312462938483804, -3186710.360410006716847 ], [ 2735350.360556727740914, -3578251.565102022141218 ], [ 2898492.529178400989622, -4100306.50469137635082 ], [ 2887616.384603622835129, -4589733.010556396096945 ], [ 2746226.505131506826729, -4818132.046626738272607 ], [ 2430818.312462938483804, -5079159.516421414911747 ], [ 2126286.264369148295373, -5111787.950145750306547 ], [ 1843506.505424915347248, -4916017.347799742594361 ], [ 1680364.33680324209854, -4633237.588855508714914 ], [ 1593355.180205015931278, -4219944.095013936981559 ], [ 1397584.577859008219093, -3839279.034896699246019 ], [ 919034.216568766627461, -3556499.275952465832233 ], [ 299093.975806409027427, -3491242.408503796439618 ] ] ] ] } },
{ "type": "Feature", "properties": { "id": 4 }, "geometry": { "type": "MultiPolygon", "coordinates": [ [ [ [ -1102204.40751714957878, -6814700.391555231064558 ], [ -331722.409530729055405, -6960732.527858044952154 ], [ 299093.975806407630444, -7395778.31084917485714 ], [ 746907.638464938150719, -7865701.294350799173117 ], [ 1212690.120087778195739, -8592154.214074777439237 ], [ 1277946.987536447122693, -9549254.936655260622501 ], [ 842901.204545319080353, -10027805.297945501282811 ], [ 299093.975806407630444, -10223575.900291509926319 ], [ -527493.011876735836267, -10267080.478590622544289 ], [ -1136557.108064316213131, -9919043.852197719737887 ], [ -1854382.649999678134918, -9418741.201757920905948 ], [ -2311180.722140362486243, -8657411.081523446366191 ], [ -2376437.58958903234452, -7961337.828737640753388 ], [ -2202419.276392580941319, -7156503.130204053595662 ], [ -1549850.601905887946486, -6743209.636362481862307 ], [ -1102204.40751714957878, -6814700.391555231064558 ] ] ] ] } },
{ "type": "Feature", "properties": { "id": 5 }, "geometry": { "type": "MultiPolygon", "coordinates": [ [ [ [ 3239416.092472545336932, -5483829.550825655460358 ], [ 3083386.986949630081654, -4916017.347799742594361 ], [ 3409671.32419297657907, -4350457.829911274835467 ], [ 3757707.950585879385471, -4154687.227565268054605 ], [ 4279762.890175232663751, -3958916.625219259411097 ], [ 5084597.588708819821477, -3828402.890321921557188 ], [ 5541395.660849506035447, -3828402.890321921557188 ], [ 5976441.443840634077787, -3980668.914368815720081 ], [ 6280973.491934424266219, -4176439.516714824363589 ], [ 6607257.829177770763636, -4459219.275659056380391 ], [ 6803028.431523777544498, -4937769.636949298903346 ], [ 6520248.672579543665051, -5546833.73313687928021 ], [ 5824175.419793738052249, -6155897.829324457794428 ], [ 5062845.299559263512492, -6329916.142520910128951 ], [ 4045135.818912096321583, -6132700.420320642180741 ], [ 3239416.092472545336932, -5483829.550825655460358 ] ] ] ] } },
{ "type": "Feature", "properties": { "id": 6 }, "geometry": { "type": "MultiPolygon", "coordinates": [ [ [ [ 3501143.895612246822566, -7219988.186563241295516 ], [ 3813389.292529098689556, -6936788.87308051623404 ], [ 4606047.227418579161167, -6656200.479764256626368 ], [ 5312684.431335200555623, -6272810.055257838219404 ], [ 5962774.076321885921061, -6034624.004862328991294 ], [ 6868285.298972446471453, -5981879.51612800732255 ], [ 7477349.395160028710961, -6503934.455717360600829 ], [ 7564358.5517582539469, -7439282.889148287475109 ], [ 6998799.033869786188006, -8331126.744280099868774 ], [ 6193964.335336197167635, -8766172.527271227911115 ], [ 5323872.769353941082954, -9048952.286215461790562 ], [ 4519038.070820353925228, -9396988.912608364596963 ], [ 3844717.10718410462141, -9701520.960702154785395 ], [ 3257405.300146080553532, -9919043.852197719737887 ], [ 2496075.179911606013775, -10114814.45454372651875 ], [ 2017524.818621365353465, -10114814.45454372651875 ], [ 1734745.059677131474018, -9810282.406449936330318 ], [ 1604231.32477979362011, -9418741.201757920905948 ], [ 1865258.794574469327927, -8526897.346626108512282 ], [ 2476680.570161228999496, -7589869.259244132786989 ], [ 3501143.895612246822566, -7219988.186563241295516 ] ] ] ] } },
{ "type": "Feature", "properties": { "id": 7 }, "geometry": { "type": "MultiPolygon", "coordinates": [ [ [ [ 3611634.375561053864658, -9787847.898340322077274 ], [ 4671304.094867248088121, -9766777.828150823712349 ], [ 6019946.022139746695757, -9440493.490907477214932 ], [ 6955294.455570673570037, -9331732.045159695670009 ], [ 7738376.864954704418778, -9396988.912608364596963 ], [ 8151670.358796274289489, -9766777.828150823712349 ], [ 7934147.467300711199641, -10897896.863927757367492 ], [ 7390340.238561799749732, -12029015.899704691022635 ], [ 6759523.853224664926529, -12659832.285041827708483 ], [ 5758918.552345069125295, -12942612.04398606158793 ], [ 4823570.11891414411366, -13051373.489733843132854 ], [ 3496680.480791201815009, -13138382.646332068368793 ], [ 2648341.203958502039313, -13138382.646332068368793 ], [ 2017524.818621365353465, -12638079.995892271399498 ], [ 1712992.770527575165033, -11942006.743106465786695 ], [ 1712992.770527575165033, -11224181.201171103864908 ], [ 2387313.734163824468851, -10615117.104983523488045 ], [ 3108170.605827532242984, -9957418.487879632040858 ], [ 3611634.375561053864658, -9787847.898340322077274 ] ] ] ] } },
{ "type": "Feature", "properties": { "id": 8 }, "geometry": { "type": "MultiPolygon", "coordinates": [ [ [ [ 5669293.307519502937794, -3873167.066656420007348 ], [ 4845322.408063699491322, -3436861.685629906132817 ], [ 4497285.781670796684921, -2980063.613489221781492 ], [ 4083992.287829224951565, -2370999.517301641404629 ], [ 4062239.998679668642581, -1848944.577712288126349 ], [ 4236258.311876119114459, -1370394.216422046534717 ], [ 4693056.384016803465784, -1109366.746627368964255 ], [ 5062845.299559264443815, -1109366.746627368964255 ], [ 5454386.504251279868186, -1152871.324926482513547 ], [ 5802423.130644182674587, -1326889.638122933916748 ], [ 6128707.467887527309358, -1544412.529618497937918 ], [ 6476744.094280430115759, -1848944.577712288126349 ], [ 6824780.720673332922161, -2262238.071553859859705 ], [ 6998799.033869785256684, -2806045.300292770378292 ], [ 6998799.033869785256684, -3284595.661583011969924 ], [ 6563753.250878657214344, -3763146.022873252630234 ], [ 5669293.307519502937794, -3873167.066656420007348 ] ] ] ] } },
{ "type": "Feature", "properties": { "id": 9 }, "geometry": { "type": "MultiPolygon", "coordinates": [ [ [ [ 2343809.155864711850882, -2871302.167741439770907 ], [ 2028400.963196143507957, -2588522.408797206357121 ], [ 1549850.601905901916325, -1783687.710263619199395 ], [ 1506346.023606789298356, -1316013.493548155762255 ], [ 1408460.722433785442263, -696073.252785798162222 ], [ 1245318.553812112193555, 119637.590322568081319 ], [ 1267070.842961668502539, 772206.264809260610491 ], [ 1201813.975512999575585, 1631421.686216739006341 ], [ 1256194.698386890348047, 2370999.517301657702774 ], [ 1408460.722433785442263, 2925682.890615345910192 ], [ 1625983.613929349929094, 3208462.649559579789639 ], [ 2028400.963196143507957, 3284595.661583026871085 ], [ 2528703.613635941408575, 3284595.661583026871085 ], [ 3116015.420673964545131, 3175834.215835245326161 ], [ 3757707.950585878454149, 3023568.191788350231946 ], [ 3975230.842081443406641, 2860426.023166676983237 ], [ 4312391.32389956805855, 2534141.685923330485821 ], [ 4562542.649119466543198, 2153476.625806093215942 ], [ 4671304.094867249019444, 1664050.119941073935479 ], [ 4790941.68518980871886, 1011481.445454380940646 ], [ 4856198.552638478577137, 250151.325219905935228 ], [ 4660427.950292470864952, -619940.240762350149453 ], [ 4138373.01070311665535, -1087614.457477813353762 ], [ 3855593.251758882775903, -1566164.818768054479733 ], [ 3812088.673459770157933, -2055591.324633073993027 ], [ 3801212.528884992003441, -2512389.396773758810014 ], [ 3953478.552931887097657, -2914806.746040552854538 ], [ 3866469.396333660930395, -3186710.360410008113831 ], [ 3387919.035043419338763, -3360728.673606459517032 ], [ 2713598.071407170966268, -3175834.215835229959339 ], [ 2343809.155864711850882, -2871302.167741439770907 ] ] ] ] } },
{ "type": "Feature", "properties": { "id": 10 }, "geometry": { "type": "MultiPolygon", "coordinates": [ [ [ [ 4577129.478313875384629, 2087835.894431254826486 ], [ 4365587.700357391498983, 2453190.678270121105015 ], [ 4063099.103060374502093, 2775392.222219324670732 ], [ 3820354.543336601462215, 2976583.247225308325142 ], [ 3442299.757917310576886, 3371604.818181252107024 ], [ 2952873.252052290830761, 3719641.444574154913425 ], [ 2985501.685776625294238, 4219944.09501395188272 ], [ 3899097.830057994928211, 5198797.106743991374969 ], [ 4355895.902198679745197, 5709975.901758567430079 ], [ 5041093.010409707203507, 6253783.130497477948666 ], [ 5976441.443840634077787, 6558315.178591268137097 ], [ 7466473.250585246831179, 6232030.841347921639681 ], [ 8554087.708063067868352, 5807861.202931571751833 ], [ 9206656.382549760863185, 5438072.287389111705124 ], [ 10117533.490687437355518, 4535352.287682520225644 ], [ 10574331.562828121706843, 3654384.57712548552081 ], [ 10748349.876024574041367, 2588522.408797221258283 ], [ 10498198.550804674625397, 1685802.40909062884748 ], [ 10041400.478663990274072, 891843.855131819844246 ], [ 9486717.10535030066967, 532931.084164138883352 ], [ 8573120.96106893196702, 239275.180645126849413 ], [ 7811790.840834456495941, 43504.578299119137228 ], [ 7442001.925291997380555, 0.000000006519258 ], [ 6854690.118253974243999, -315408.192668561823666 ], [ 5951970.118547382764518, -641692.52991190738976 ], [ 5767075.660776153206825, -663444.819061464630067 ], [ 5397286.745233694091439, -348036.626392896287143 ], [ 5201516.142887686379254, 576435.662463251501322 ], [ 4951364.817667787894607, 1272508.915249057114124 ], [ 4577129.478313875384629, 2087835.894431254826486 ] ] ] ] } },
{ "type": "Feature", "properties": { "id": 11 }, "geometry": { "type": "MultiPolygon", "coordinates": [ [ [ [ 7522143.891629697754979, 9428.466627971254638 ], [ 8116322.888928247615695, -190332.530058612930588 ], [ 8404540.720159869641066, -331722.409530729637481 ], [ 8774329.635702330619097, -609064.096187573974021 ], [ 8986414.454910505563021, -777644.337096636299975 ], [ 9290946.503004293888807, -1120242.891202149912715 ], [ 9481279.033062912523746, -1680364.33680322743021 ], [ 9416022.165614243596792, -2294866.505278196651489 ], [ 9160432.768106956034899, -2882178.312316219788045 ], [ 8393664.575585091486573, -3322662.167594737373292 ], [ 7703029.395086675882339, -3099701.203811783809215 ], [ 7371306.985555940307677, -2822359.517154939472675 ], [ 6996079.997726092115045, -2349247.228152086958289 ], [ 6735052.527931414544582, -1968582.168034849688411 ], [ 6354387.467814177274704, -1500907.951319386716932 ], [ 6202121.443767283111811, -924472.288856141385622 ], [ 6575147.090998575091362, -416447.841074127471074 ], [ 7089333.456652715802193, -189396.029454422736308 ], [ 7522143.891629697754979, 9428.466627971254638 ] ] ] ] } },
{ "type": "Feature", "properties": { "id": 12 }, "geometry": { "type": "MultiPolygon", "coordinates": [ [ [ [ 8872214.936875328421593, 5813299.275218951515853 ], [ 8339283.852711196988821, 6226592.769060522317886 ], [ 7599706.021626278758049, 6900913.732696771621704 ], [ 6642605.299045797437429, 8597592.286362173035741 ], [ 5163449.636875960044563, 10142004.815980678424239 ], [ 3162239.035116769373417, 11708169.634748740121722 ], [ 551964.337169998791069, 13600618.790760148316622 ], [ 530212.048020442482084, 13948655.417153052985668 ], [ 747734.939516006503254, 14427205.778443293645978 ], [ 1161028.433357578702271, 14709985.537387527525425 ], [ 2270395.179984956048429, 14905756.139733534306288 ], [ 3031725.300219430588186, 14992765.296331759542227 ], [ 4075835.17939813900739, 14971013.007182203233242 ], [ 5315715.660922855138779, 14579471.802490189671516 ], [ 6120550.359456442296505, 14296692.043545953929424 ], [ 7643210.599925392307341, 13230829.875217691063881 ], [ 8980976.382623111829162, 12262853.008062429726124 ], [ 10438379.755643391981721, 10522669.876097917556763 ], [ 11732640.960042, 8760734.454983847215772 ], [ 12167686.743033127859235, 7923271.322725923731923 ], [ 12287324.333355687558651, 7020551.323019333183765 ], [ 12189439.03218268416822, 5889432.2872423985973 ], [ 11613003.369719438254833, 5051969.154984476976097 ], [ 10753787.948311960324645, 5095473.733283589594066 ], [ 9709678.069133251905441, 5410881.92595215793699 ], [ 8872214.936875328421593, 5813299.275218951515853 ] ] ] ] } },
{ "type": "Feature", "properties": { "id": 13 }, "geometry": { "type": "MultiPolygon", "coordinates": [ [ [ [ -6528405.781010616570711, 1245318.553812109865248 ], [ -6767680.961655737832189, 364350.843255074694753 ], [ -6582786.503884507343173, -516616.867301960475743 ], [ -6278254.455790717154741, -1016919.51774175837636 ], [ -5875837.106523923575878, -1538974.457331112585962 ], [ -5712694.937902251258492, -2050153.252345688641071 ], [ -5788827.949925698339939, -2615712.770234155468643 ], [ -6028103.130570819601417, -3148643.854398287832737 ], [ -6354387.467814166098833, -3572813.492814637720585 ], [ -6898194.696553075686097, -3801212.528884979896247 ], [ -7572515.660189324989915, -3464052.047066855244339 ], [ -7866171.563708337023854, -3029006.264075727201998 ], [ -8170703.611802127212286, -2528703.613635929301381 ], [ -8747139.274265371263027, -1636859.758504115976393 ], [ -9367079.515027729794383, -288217.83123161830008 ], [ -9541097.828224182128906, 886405.782844428904355 ], [ -9388831.804177286103368, 1810878.07170057669282 ], [ -8671006.262241924181581, 2398189.878738599829376 ], [ -8007561.443180453032255, 2746226.505131502635777 ], [ -7246231.322945978492498, 3007253.974926179740578 ], [ -6778557.106230515986681, 2909368.673753175884485 ], [ -6463148.913561947643757, 2724474.215981946326792 ], [ -6387015.90153850056231, 2398189.878738599829376 ], [ -6463148.913561947643757, 1919639.517448358703405 ], [ -6528405.781010616570711, 1245318.553812109865248 ] ] ] ] } },
{ "type": "Feature", "properties": { "id": 14 }, "geometry": { "type": "MultiPolygon", "coordinates": [ [ [ [ -7630137.278011647053063, -3378686.687330082058907 ], [ -7333240.479544201865792, -3899097.830057982821018 ], [ -6571910.359309727326035, -4693056.384016792289913 ], [ -6125988.431743821129203, -6019946.022139733657241 ], [ -5908465.54024825617671, -6998799.03386977314949 ], [ -6278254.455790717154741, -7890642.889001585543156 ], [ -7213602.889221645891666, -8891248.18988118134439 ], [ -7996685.298605676740408, -9435055.418620090931654 ], [ -9019042.888634826987982, -9500312.286068761721253 ], [ -10606959.99655244499445, -9304541.683722753077745 ], [ -12499409.152563855051994, -8543211.563488278537989 ], [ -14174335.417079700157046, -7520853.97345912642777 ], [ -14892160.959015062078834, -6193964.335336184129119 ], [ -14826904.091566393151879, -4714808.673166347667575 ], [ -14370106.019425706937909, -3518432.769940745085478 ], [ -13543519.031742563471198, -2713598.071407157927752 ], [ -12695179.754909863695502, -2169790.842668246477842 ], [ -11520556.140833815559745, -1887011.083724012598395 ], [ -9910886.743766643106937, -2017524.818621352314949 ], [ -8496987.949045475572348, -2822359.517154939472675 ], [ -7630137.278011647053063, -3378686.687330082058907 ] ] ] ] } },
{ "type": "Feature", "properties": { "id": 15 }, "geometry": { "type": "MultiPolygon", "coordinates": [ [ [ [ -6517473.57383493706584, 1358284.694627461954951 ], [ -6470044.613472760654986, 1848383.95170329278335 ], [ -6136864.576318598352373, 2506951.324486383236945 ], [ -5767075.660776139236987, 3029006.264075737446547 ], [ -5212392.287462450563908, 3518432.76994075672701 ], [ -4374929.155204528011382, 3714203.372286764904857 ], [ -3635351.32411960978061, 3627194.215688538737595 ], [ -2558613.011216566897929, 3018130.119500959292054 ], [ -2058310.360776768997312, 2354685.300439488142729 ], [ -1547131.565762193873525, 1332327.710410336498171 ], [ -1275227.95139273814857, 581873.734750640112907 ], [ -1177342.650219734758139, -233837.108357725664973 ], [ -1405741.686290076002479, -1093052.529765204526484 ], [ -1840787.469281205907464, -1517222.168181554414332 ], [ -2645622.16781479306519, -1995772.529471796005964 ], [ -3309066.986876263283193, -2115410.119794356636703 ], [ -4287919.998606302775443, -2104533.975219578482211 ], [ -4994869.395966886542737, -1865258.794574457220733 ], [ -5745323.371626582928002, -1071300.240615648217499 ], [ -5995474.696846481412649, -494864.578152403235435 ], [ -6300006.744940271601081, 396979.276979410555214 ], [ -6430520.479837610386312, 821148.915395760443062 ], [ -6517473.57383493706584, 1358284.694627461954951 ] ] ] ] } }
]
}
