{
"type": "FeatureCollection",
"name": "map025",
"crs": { "type": "name", "properties": { "name": "urn:ogc:def:crs:ESRI::102016" } },
"features": [
{ "type": "Feature", "properties": { "id": 1 }, "geometry": { "type": "MultiPolygon", "coordinates": [ [ [ [ -956687.121381657198071, -6014374.640438618138433 ], [ -617452.211374996230006, -6090702.49519011657685 ], [ -252774.683117835782468, -6141587.731691115535796 ], [ 256077.681892154738307, -6039817.258689116686583 ], [ 680121.319400480948389, -5844757.1854352876544 ], [ 968470.992906142957509, -5759948.457933621481061 ], [ 1273782.411912137642503, -5810833.694434621371329 ], [ 1536689.46716730017215, -5904123.294686453416944 ], [ 2037060.959427123889327, -5793871.948934288695455 ], [ 2266044.523681620135903, -5726024.966932956129313 ], [ 2503508.960686283186078, -5539445.766429292038083 ], [ 2698569.033940114080906, -5225653.474673131480813 ], [ 3281629.0355140613392, -5581850.130180125124753 ], [ 3646306.563771221786737, -5666658.857681790366769 ], [ 4172120.674281546846032, -5751467.585183455608785 ], [ 4443508.602286875247955, -5853238.058185454457998 ], [ 4825147.876044368371367, -5921085.040186786092818 ], [ 4579202.566289538517594, -6090702.49519011657685 ], [ 4053388.455779215320945, -6438418.277946943417192 ], [ 3485169.981518058106303, -6701325.333202105946839 ], [ 3239224.671763229183853, -6921828.024706435389817 ], [ 3239224.671763229183853, -7176254.207211431115866 ], [ 3035683.725759232416749, -7261062.934713096357882 ], [ 2543793.106249574571848, -7167773.334461264312267 ], [ 2043421.613989748992026, -7150811.588960931636393 ], [ 1695705.831232922151685, -7210177.698212097398937 ], [ 1280143.066474762745202, -7617259.590220090001822 ], [ 661039.355712606571615, -7948013.627476584166288 ], [ 313323.572955778799951, -7829281.408974253572524 ], [ -93758.319052213802934, -7617259.590220090001822 ], [ -475397.592809707392007, -7261062.934713096357882 ], [ -780709.011815702077001, -6989675.006707767955959 ], [ -933364.721318699419498, -6938789.770206768997014 ], [ -1086020.430821697227657, -7032079.370458600111306 ], [ -1391331.849827691912651, -6938789.770206768997014 ], [ -1586391.923081521876156, -7337390.7894645947963 ], [ -1900184.214837682899088, -7456123.007966926321387 ], [ -2273342.615845010150224, -7371314.280465261079371 ], [ -2027397.306090180762112, -6565631.369199441745877 ], [ -956687.121381657198071, -6014374.640438618138433 ] ] ] ] } },
{ "type": "Feature", "properties": { "id": 2 }, "geometry": { "type": "MultiPolygon", "coordinates": [ [ [ [ -2228988.817689916584641, -7381394.68913687299937 ], [ -1896474.849088490009308, -7454719.464169934391975 ], [ -1601329.639206657186151, -7343042.898268699645996 ], [ -1403906.029129847418517, -6964484.832259000279009 ], [ -1057204.521612143842503, -7014469.648163872770965 ], [ -891384.401205376489088, -6952783.210244542919099 ], [ -393056.577687841898296, -7337914.548826837912202 ], [ -59707.426753833307885, -7634994.429958829656243 ], [ 479400.930037021928001, -7885990.750416629016399 ], [ 700399.890900476137176, -7926985.396348818205297 ], [ 1119311.671832241816446, -7703183.21201540902257 ], [ 1372662.087959176395088, -7526628.712031276896596 ], [ 1731180.880745394621044, -7204120.982441674917936 ], [ 2286572.007717728614807, -7159053.975188998505473 ], [ 2895950.092096515931189, -7234561.728328787721694 ], [ 3060975.795972744934261, -7250524.572124132886529 ], [ 3194662.452815607190132, -7194821.798439607024193 ], [ 3251465.193112264852971, -6910853.764186610467732 ], [ 3471632.451284353621304, -6713462.42927370313555 ], [ 3758488.280651198234409, -6574864.627633040770888 ], [ 4115344.109343416523188, -6397447.603815778158605 ], [ 4589210.816203010268509, -6083800.253870480693877 ], [ 5039289.912986072711647, -6396013.914196111261845 ], [ 5556623.15074623003602, -6379052.16869577858597 ], [ 6116360.752257220447063, -6379052.16869577858597 ], [ 6269016.461760218255222, -6379052.16869577858597 ], [ 6565847.008016046136618, -5955008.531187452375889 ], [ 6845715.808771541342139, -5514003.148178793489933 ], [ 7083180.245776203460991, -6277281.69569378066808 ], [ 6922043.66352304071188, -6972713.261207435280085 ], [ 6794830.572270542383194, -7430680.389716427773237 ], [ 6667617.481018044985831, -7854724.027224753051996 ], [ 6726983.590269209817052, -8143073.700730415061116 ], [ 7015333.263774871826172, -8439904.246986243873835 ], [ 7346087.301031366921961, -8516232.10173774138093 ], [ 7625956.101786862127483, -8830024.393493903800845 ], [ 7515704.756034697405994, -9211663.667251396924257 ], [ 7312163.810030699707568, -9559379.450008224695921 ], [ 7100141.991276537068188, -9822286.505263386294246 ], [ 7023814.13652503862977, -10000384.833016883581877 ], [ 7354568.17378153372556, -10170002.288020214065909 ], [ 7320644.682780866511166, -10458351.961525876075029 ], [ 7100141.991276537068188, -10653412.034779705107212 ], [ 6998371.518274539150298, -10873914.72628403455019 ], [ 6998371.518274539150298, -11391247.964044190943241 ], [ 6481038.280514380894601, -11967947.311055514961481 ], [ 6167245.988758219406009, -12273258.730061510577798 ], [ 5785606.715000726282597, -12434395.312314674258232 ], [ 5480295.295994731597602, -12620974.512818336486816 ], [ 5039289.912986072711647, -12858438.949823 ], [ 4649169.766478412784636, -13011094.659325998276472 ], [ 4250568.747220586054027, -12994132.913825664669275 ], [ 4216645.256219919770956, -12756668.476821001619101 ], [ 3733235.509460427798331, -12637936.258318670094013 ], [ 3394000.599453766830266, -12451357.057815007865429 ], [ 3224383.144450437277555, -12086679.529557846486568 ], [ 2707049.906690279021859, -11874657.710803683847189 ], [ 2418700.2331846174784, -11611750.655548520386219 ], [ 2639202.924688946921378, -11162264.399789694696665 ], [ 2707049.906690279021859, -10924799.962785033509135 ], [ 2545913.324437114875764, -10619488.543779037892818 ], [ 2308448.88743245229125, -10331138.870273377746344 ], [ 1994656.595676291268319, -10161521.415270045399666 ], [ 1621498.194668964017183, -10000384.833016881719232 ], [ 1689345.176670296583325, -9762920.396012220531702 ], [ 1689345.176670296583325, -9483051.595256723463535 ], [ 1384033.757664301432669, -9321915.013003561645746 ], [ 993913.611156641505659, -9457608.977006224915385 ], [ 739487.42865164601244, -9313434.140253394842148 ], [ 357848.154894152423367, -9296472.394753061234951 ], [ -199769.228429296053946, -9457608.977006224915385 ], [ -564446.756686456501484, -9415204.613255392760038 ], [ -954566.903194116428494, -9364319.376754393801093 ], [ -1217473.958449278492481, -9372800.249504558742046 ], [ -1573670.613956272602081, -9313434.140253394842148 ], [ -1828096.79646126832813, -9101412.321499232202768 ], [ -2099484.724466596730053, -8906352.24824540130794 ], [ -2091003.851716430392116, -8694330.429491238668561 ], [ -2226697.815719095058739, -8499270.356237407773733 ], [ -2370872.652471925597638, -8380538.137735076248646 ], [ -2447200.507223424501717, -8075226.718729082494974 ], [ -2353910.906971592456102, -7854724.027224752120674 ], [ -2184293.45196826197207, -7744472.681472587399185 ], [ -2228988.817689916584641, -7381394.68913687299937 ] ] ] ] } },
{ "type": "Feature", "properties": { "id": 3 }, "geometry": { "type": "MultiPolygon", "coordinates": [ [ [ [ -9359111.798609141260386, -815599.644586538895965 ], [ -8884182.924599815160036, -815599.644586538895965 ], [ -8511024.523592488840222, -866484.88108753785491 ], [ -8120904.377084828913212, -968255.354089536704123 ], [ -7781669.467078167945147, -1120911.063592533580959 ], [ -7272817.102068176493049, -1409260.737098195590079 ], [ -7052314.410563847050071, -1595839.937601858749986 ], [ -6560423.79105418920517, -2426965.467118178494275 ], [ -6068533.171544531360269, -3766943.361644488759339 ], [ -5780183.498038869351149, -5039074.274169467389584 ], [ -5220445.896527878940105, -6480822.641697775572538 ], [ -5186522.405527211725712, -8075226.718729083426297 ], [ -5542719.061034206300974, -9025084.466747732833028 ], [ -5831068.734539868310094, -9584822.068258723244071 ], [ -6730041.246057519689202, -9957980.46926605142653 ], [ -7883439.940080165863037, -10432909.343275375664234 ], [ -9783155.436117466539145, -10568603.307278040796518 ], [ -11207942.058145442977548, -10297215.379272712394595 ], [ -12649690.425673751160502, -9941018.723765717819333 ], [ -13480815.955190069973469, -9398242.867755061015487 ], [ -14413711.957708388566971, -8448385.119736410677433 ], [ -15041296.541220709681511, -7379795.153215428814292 ], [ -15363569.705727038905025, -6243358.204693114385009 ], [ -15550148.906230702996254, -5056036.01966980099678 ], [ -15329646.214726371690631, -4157063.508152150548995 ], [ -14668138.140213383361697, -3071511.796130835544318 ], [ -13887897.847198063507676, -2477850.703619178850204 ], [ -13056772.31768174469471, -1765457.392605191096663 ], [ -12072991.078662429004908, -1256605.027595199644566 ], [ -10631242.711134118959308, -917370.117588538909331 ], [ -9359111.798609141260386, -815599.644586538895965 ] ] ] ] } },
{ "type": "Feature", "properties": { "id": 5 }, "geometry": { "type": "MultiPolygon", "coordinates": [ [ [ [ -7811290.810571460053325, -1107581.459020552225411 ], [ -7696860.739576490595937, -747752.662585212383419 ], [ -7425472.811571160331368, -527249.971080882940441 ], [ -7188008.374566499143839, -917370.117588542867452 ], [ -6997238.440520039759576, -1688899.335262085543945 ], [ -6916620.446561170741916, -2545697.685620514675975 ], [ -6899658.701060837134719, -3648211.143142162822187 ], [ -7018390.919563168659806, -4326680.963155484758317 ], [ -7459396.302571827545762, -4598068.891160813160241 ], [ -7696860.739576490595937, -4207948.74465315323323 ], [ -7900401.685580486431718, -3444670.197138166055083 ], [ -7951286.922081485390663, -2698353.395123512484133 ], [ -8053057.395083483308554, -1748495.64710486214608 ], [ -7811290.810571460053325, -1107581.459020552225411 ] ] ] ] } },
{ "type": "Feature", "properties": { "id": 4 }, "geometry": { "type": "MultiPolygon", "coordinates": [ [ [ [ -9240379.580106796696782, -2002921.829609858803451 ], [ -9393035.289609793573618, -1799380.883605862036347 ], [ -9376073.544109459966421, -1375337.246097535826266 ], [ -9342150.053108794614673, -815599.644586538895965 ], [ -9223417.834606463089585, -52321.097071559168398 ], [ -8901144.670100135728717, 524378.249939764849842 ], [ -8460139.287091476842761, 1185886.324452753178775 ], [ -7917363.431080820038915, 1983088.362968406174332 ], [ -6916620.446561170741916, 2865099.128985724411905 ], [ -6221188.881047515198588, 3238257.529993051663041 ], [ -5966762.698542518541217, 2831175.637985058594495 ], [ -5966762.698542518541217, 2627634.691981061827391 ], [ -6119418.408045517280698, 1898279.635466741397977 ], [ -6543462.045553842559457, 1253733.306454085744917 ], [ -6984467.428562501445413, 948421.887448091059923 ], [ -7357625.829569829627872, 371722.540436767041683 ], [ -7730784.230577155947685, -306747.279576554894447 ], [ -8160261.630803287029266, -957988.244423851952888 ], [ -8443177.541591143235564, -1527992.955600533634424 ], [ -8748488.960597138851881, -1952036.593108859844506 ], [ -9240379.580106796696782, -2002921.829609858803451 ] ] ] ] } },
{ "type": "Feature", "properties": { "id": 6 }, "geometry": { "type": "MultiPolygon", "coordinates": [ [ [ [ -276097.083180792629719, -3461631.942638504318893 ], [ -488118.901934955269098, -3046069.17788034491241 ], [ -539004.138435955159366, -2732276.886124183423817 ], [ -386348.428932957351208, -2291271.5031155240722 ], [ -114960.500927628949285, -1773938.265355366282165 ], [ 46176.081325535662472, -1578878.19210153631866 ], [ 504143.209834527224302, -1426222.482598538976163 ], [ 1072361.684095684438944, -1273566.773095541633666 ], [ 1699946.267608007416129, -1443184.228098872117698 ], [ 1971334.195613335818052, -1595839.937601869460195 ], [ 2200317.759867832064629, -2070768.811611194629222 ], [ 2344492.596620663069189, -2299752.375865690875798 ], [ 2352973.469370828941464, -2647468.158622518181801 ], [ 2369935.214871162548661, -3164801.396382675506175 ], [ 2107028.159616, -3495555.433639170601964 ], [ 1708427.140358173288405, -3749981.616144166328013 ], [ 1233498.266348848119378, -3800866.852645165286958 ], [ 504143.209834527224302, -3758462.488894332200289 ], [ -276097.083180792629719, -3461631.942638504318893 ] ] ] ] } },
{ "type": "Feature", "properties": { "id": 7 }, "geometry": { "type": "MultiPolygon", "coordinates": [ [ [ [ -238731.87563005433185, -3475846.967250198125839 ], [ 202886.223956695757806, -3643853.852962548844516 ], [ 752208.452071711421013, -3772884.886698819696903 ], [ 1166371.261416995665058, -3796964.119800290092826 ], [ 1636858.413442518794909, -3757649.694027986377478 ], [ 1861082.849861171096563, -3766943.361644499003887 ], [ 2302088.232869829982519, -3733019.870643832720816 ], [ 2887268.452631319873035, -3512517.179139503277838 ], [ 3150175.50788648147136, -3656692.015892333816737 ], [ 3209541.617137647233903, -4038331.28964982740581 ], [ 3031443.289384150877595, -4241872.235653823241591 ], [ 2887268.452631319873035, -4530221.909159485250711 ], [ 2785497.979629321955144, -4894899.437416646629572 ], [ 2723446.874525720253587, -5240851.573649065569043 ], [ 2429909.967198241502047, -5597273.547027039341629 ], [ 2171549.099466885440052, -5754023.611144729889929 ], [ 1819056.640093922615051, -5841906.798956858925521 ], [ 1600812.416620596544817, -5889994.50921369343996 ], [ 1369192.23035151232034, -5938046.785687128081918 ], [ 1039297.741008887765929, -5771752.915950745344162 ], [ 476919.160323775256984, -5938230.178610571660101 ], [ 2059.233653994189808, -6090620.948336749337614 ], [ -448027.094467191491276, -6114343.209177251905203 ], [ -776878.492698766407557, -6054831.58189226873219 ], [ -1008642.078194094938226, -6041123.727114329114556 ], [ -1353167.922451940830797, -5904123.294686462730169 ], [ -1607594.104956936556846, -5505522.27542863599956 ], [ -1760249.814459933899343, -5030593.401419309899211 ], [ -1692402.832458601798862, -4555664.527409985661507 ], [ -1421014.904453272931278, -4055293.035150160081685 ], [ -1047856.503445945680141, -3690615.506893 ], [ -666217.229688452556729, -3597325.906641168519855 ], [ -238731.87563005433185, -3475846.967250198125839 ] ] ] ] } },
{ "type": "Feature", "properties": { "id": 8 }, "geometry": { "type": "MultiPolygon", "coordinates": [ [ [ [ -1794173.305460599251091, 57930.2486806018278 ], [ -1565189.741206103935838, 388684.285937095992267 ], [ -1259878.322200108319521, 541339.995440093334764 ], [ -767987.70269045047462, 498935.631689260713756 ], [ -488118.901934955269098, 278432.940184931270778 ], [ -233692.719429959543049, -86244.58807222917676 ], [ -21670.90067579690367, -552692.589331388007849 ], [ -64075.264426629059017, -1036102.336090879514813 ], [ -81037.009926962666214, -1332932.882346707861871 ], [ -284577.955930958501995, -1663686.919603202491999 ], [ -691659.847938952036202, -1977479.211359363049269 ], [ -1013933.01244527939707, -2359118.485116857104003 ], [ -1302282.68595094140619, -2562659.431120853871107 ], [ -1760249.814459933899343, -2740757.758874350227416 ], [ -2040118.615215429104865, -2842528.231876349076629 ], [ -2455681.379973588511348, -2901894.34112751390785 ], [ -2659222.325977585278451, -2808604.740875682793558 ], [ -2794916.289980249479413, -2579621.176621186546981 ], [ -2879725.017481914255768, -2248867.139364692382514 ], [ -2828839.780980914831161, -1841785.247356698848307 ], [ -2472643.125473921187222, -1332932.882346707861871 ], [ -2099484.724466593936086, -993697.972340046893805 ], [ -1836577.669211432337761, -722310.044334718026221 ], [ -1819615.923711098730564, -213457.679324727039784 ], [ -1836577.669211432337761, -137129.824573228135705 ], [ -1794173.305460599251091, 57930.2486806018278 ] ] ] ] } },
{ "type": "Feature", "properties": { "id": 9 }, "geometry": { "type": "MultiPolygon", "coordinates": [ [ [ [ -6787117.519666135311127, 1085048.747453267686069 ], [ -6573145.100179434753954, 1609929.961961075430736 ], [ -6327199.790424605831504, 2161186.690721899271011 ], [ -6191505.826421941630542, 2491940.727978393901139 ], [ -6003687.846752514131367, 2890255.875121051445603 ], [ -5487593.388158123940229, 3280661.893743880558759 ], [ -4028883.275129482150078, 3348508.87574521265924 ], [ -2739790.617104170843959, 3450279.348747211042792 ], [ -1705124.141583856195211, 3569011.567249542567879 ], [ -975769.085069535300136, 3501164.585248210001737 ], [ -568687.193061541765928, 3365470.621245545800775 ], [ -399069.738058211281896, 2602192.07373055908829 ], [ -399069.738058211281896, 1618410.834711242467165 ], [ -823113.375566536560655, 1058673.233200252056122 ], [ -1298042.249575862661004, 1041711.487699918448925 ], [ -1535506.686580525711179, 702476.577693258412182 ], [ -1781451.996335351839662, 329318.176685931161046 ], [ -1900184.214837682433426, 100334.61243143491447 ], [ -1984992.942339347675443, -306747.279576558154076 ], [ -2137648.651842345483601, -671424.807833718601614 ], [ -2349670.470596508122981, -1002178.845090212766081 ], [ -2680424.50785300321877, -1256605.02759520849213 ], [ -2917888.944857665337622, -1494069.464599870610982 ], [ -3053582.908860329538584, -1909632.229358030948788 ], [ -3308009.091365325264633, -2477850.703619186766446 ], [ -3749014.474373985081911, -2689872.522373350337148 ], [ -4088249.384380645118654, -2817085.613625847734511 ], [ -4622544.367641136050224, -2969741.323128845542669 ], [ -5173801.096401959657669, -3063030.923380676656961 ], [ -5682653.461411951109767, -3003664.814129510894418 ], [ -6140620.58992094360292, -2672910.776873016729951 ], [ -6564664.227429269813001, -2019883.575110194738954 ], [ -6785166.918933599255979, -1587359.064851702190936 ], [ -6963265.24668709654361, -1265085.900345374364406 ], [ -7056554.846938928589225, -900408.372088213916868 ], [ -7090478.337939593940973, -586616.080332052428275 ], [ -7048073.974188761785626, -43840.224321395158768 ], [ -7005669.61043792963028, 481973.886188928969204 ], [ -6787117.519666135311127, 1085048.747453267686069 ] ] ] ] } },
{ "type": "Feature", "properties": { "id": 10 }, "geometry": { "type": "MultiPolygon", "coordinates": [ [ [ [ 2192882.4591397754848, -2055347.447138188639656 ], [ 2755814.92500373814255, -1680648.665103535633534 ], [ 3502131.7270183917135, -1494069.464599872473627 ], [ 4333257.256534710526466, -1307490.264096208382398 ], [ 4892994.85804570093751, -1341413.755096874665469 ], [ 5367923.732055027037859, -1494069.464599872473627 ], [ 5859814.35156468488276, -1663686.91960320295766 ], [ 6385628.46207500807941, -2019883.575110196601599 ], [ 6690939.881081003695726, -2579621.176621187012643 ], [ 6860557.336084334179759, -3156320.52363251009956 ], [ 6809672.099583335220814, -3766943.361644500400871 ], [ 6758786.863082336261868, -4089216.526150827761739 ], [ 6623092.899079671129584, -4818571.582665149122477 ], [ 6419551.953075675293803, -5530964.893679136410356 ], [ 5893737.842565350234509, -5971970.276687795296311 ], [ 5418808.968556025996804, -5955008.531187461689115 ], [ 4805725.925717229954898, -5934479.488688260316849 ], [ 4624919.707524402998388, -5885488.92133879289031 ], [ 4203720.638501347973943, -5763317.571765881031752 ], [ 3700967.766942935995758, -5675475.180774002335966 ], [ 3055881.300405540503561, -5443938.786550192162395 ], [ 2745839.034595070406795, -5116009.065237394534051 ], [ 2777732.751466826535761, -4938192.740036513656378 ], [ 2873889.695016405545175, -4578162.457279594615102 ], [ 3000064.060208533424884, -4304630.694005058147013 ], [ 3158844.010564748197794, -4096271.41144742583856 ], [ 3155141.766302623320371, -3688617.962853244505823 ], [ 2861275.989311031531543, -3522311.440680481493473 ], [ 2666251.792473102454096, -3595798.819199121557176 ], [ 2200592.141045042313635, -3740827.262322662398219 ], [ 1732850.908183394465595, -3734391.977106790989637 ], [ 2025679.704576085554436, -3547479.979409328661859 ], [ 2326452.803033029194921, -3219505.07579194009304 ], [ 2352950.779758833814412, -2646537.884530720766634 ], [ 2192882.4591397754848, -2055347.447138188639656 ] ] ] ] } },
{ "type": "Feature", "properties": { "id": 11 }, "geometry": { "type": "MultiPolygon", "coordinates": [ [ [ [ 6851140.642892770469189, -3269320.841931277420372 ], [ 6775748.60858266800642, -2867970.850126845762134 ], [ 6620283.947595538571477, -2450085.298564500641078 ], [ 6370064.06436731852591, -2009339.950856600422412 ], [ 6021459.060287899337709, -1773188.173899574205279 ], [ 5520561.416323697194457, -1546703.148830448277295 ], [ 5209522.59893168322742, -1443154.814667369006202 ], [ 4751396.096089808270335, -1332832.011948032770306 ], [ 4133879.403498480096459, -1352248.557634954107925 ], [ 3548927.851202101446688, -1483564.212232100777328 ], [ 3045162.34824471315369, -1608311.809293291997164 ], [ 2653499.382725195027888, -1748751.877122310455889 ], [ 2451806.823295854963362, -1883002.361765505047515 ], [ 2242308.970433946698904, -2022448.201304633403197 ], [ 2059802.425192384049296, -1779329.598951006773859 ], [ 1908520.372514176880941, -1560507.162108592689037 ], [ 705563.937650980427861, 812727.923445422202349 ], [ 230635.063641654327512, 1016268.86944941803813 ], [ -494411.52149156446103, 1492559.680579215986654 ], [ -399069.738058211281896, 2203591.054472732823342 ], [ -427505.605514651862904, 2730153.477284541353583 ], [ -522092.280422391369939, 3155793.514369369018823 ], [ -747421.586271296255291, 3425048.752315463963896 ], [ -994394.036579713923857, 3502897.138877063989639 ], [ -922763.630380988353863, 3950650.841007036156952 ], [ -396949.519870663993061, 4408617.969516028650105 ], [ 858219.647153980098665, 4866585.098025021143258 ], [ 1892886.122674295678735, 5070126.044029017910361 ], [ 3012361.325696276500821, 5358475.717534679919481 ], [ 4013104.310215926729143, 5646825.391040341928601 ], [ 4946000.31273424346, 5969098.55554666928947 ], [ 5081694.276736907660961, 6715415.35756132286042 ], [ 4623727.148227916099131, 7733120.08758130390197 ], [ 4352339.220222586765885, 8394628.162094291299582 ], [ 4250568.747220588847995, 9056136.23660728149116 ], [ 4386262.711223253048956, 9531065.110616605728865 ], [ 4623727.148227916099131, 10022955.730126265436411 ], [ 5183464.749738906510174, 10243458.421630594879389 ], [ 5607508.387247232720256, 10124726.203128263354301 ], [ 6421672.171263218857348, 9564988.601617272943258 ], [ 7015333.26377487462014, 8750824.817601285874844 ], [ 7625956.101786863990128, 8089316.74308829754591 ], [ 8321387.667300519533455, 7359961.686573976650834 ], [ 8948972.250812843441963, 6613644.884559323079884 ], [ 9729212.543828163295984, 6104792.519549331627786 ], [ 10119332.69033582136035, 5663787.136540671810508 ], [ 10492491.091343149542809, 4747852.879522687755525 ], [ 10679070.291846811771393, 3696224.658502038568258 ], [ 10662108.546346478164196, 1372465.524956414476037 ], [ 10628185.055345814675093, 219066.830933768302202 ], [ 10390720.618341151624918, -764714.408085549250245 ], [ 9847944.762330494821072, -1612801.683102201670408 ], [ 9271245.415319170802832, -2172539.284613192081451 ], [ 8134808.466796855442226, -2766200.377124847844243 ], [ 6851140.642892770469189, -3269320.841931277420372 ] ] ] ] } },
{ "type": "Feature", "properties": { "id": 12 }, "geometry": { "type": "MultiPolygon", "coordinates": [ [ [ [ 6325210.679611457511783, 9631305.877127859741449 ], [ 5420929.186743569560349, 11396857.115653239190578 ], [ 5302196.968241238035262, 12160135.663168227300048 ], [ 5353082.204742236994207, 12872528.974182214587927 ], [ 4810306.348731580190361, 13093031.665686544030905 ], [ 3843486.85521259624511, 13093031.665686544030905 ], [ 3097170.05319794267416, 12838605.483181549236178 ], [ 1299225.030162639915943, 12889490.719682548195124 ], [ -91638.100864669773728, 13296572.611690539866686 ], [ -227332.064867333974689, 13856310.213201530277729 ], [ -57714.609864003490657, 14483894.796713855117559 ], [ 502022.991646986920387, 15213249.85322817414999 ], [ 1384033.757664305157959, 15518561.272234169766307 ], [ 2299968.014682289212942, 15467676.035733170807362 ], [ 3622984.163708266802132, 15298058.580729840323329 ], [ 4250568.747220589779317, 15230211.598728507757187 ], [ 5064732.531236575916409, 15043632.398224845528603 ], [ 5794087.587750896811485, 14789206.215719848871231 ], [ 6421672.171263218857348, 14721359.233718516305089 ], [ 7167988.973277873359621, 14212506.868708524852991 ], [ 8558852.104305181652308, 13466190.066693872213364 ], [ 9644403.816326498985291, 12482408.827674554660916 ], [ 10255026.654338486492634, 11430780.606653906404972 ], [ 11018305.201853472739458, 10328267.149132259190083 ], [ 11645889.785365797579288, 9463218.128615273162723 ], [ 12239550.877877451479435, 8564245.617097621783614 ], [ 12884097.206890109926462, 7461732.159575974568725 ], [ 13240293.862397100776434, 6766300.594062319025397 ], [ 13562567.026903431862593, 6189601.247050996869802 ], [ 13562567.026903431862593, 5646825.391040338203311 ], [ 13172446.880395770072937, 4832661.607024352997541 ], [ 12324359.605379119515419, 4408617.969516025856137 ], [ 11425387.093861468136311, 4561273.679019024595618 ], [ 10763879.019348479807377, 5036202.553028348833323 ], [ 10039042.402921797707677, 5754550.070139134302735 ], [ 9445676.946631614118814, 6289707.039460125379264 ], [ 8511656.881424376741052, 7133695.594102363102138 ], [ 7842662.821918598376215, 7862038.963437941856682 ], [ 7332675.058183662593365, 8407037.873658433556557 ], [ 6891184.245278529822826, 8921086.328681986778975 ], [ 6325210.679611457511783, 9631305.877127859741449 ] ] ] ] } }
]
}
