{
"type": "FeatureCollection",
"name": "map057",
"crs": { "type": "name", "properties": { "name": "urn:ogc:def:crs:ESRI::102016" } },
"features": [
{ "type": "Feature", "properties": { "id": 1 }, "geometry": { "type": "MultiPolygon", "coordinates": [ [ [ [ -5977471.452983813360333, 2648251.829516607802361 ], [ -5069993.079998942092061, 3354068.341838173568249 ], [ -3893632.226129665970802, 3370873.496893448755145 ], [ -2986153.85314479470253, 3270042.566561796702445 ], [ -2465194.046431258320808, 3051575.550843216944486 ], [ -1994649.704883547499776, 2513810.589074404444546 ], [ -1809792.999275518581271, 1875214.696973940357566 ], [ -1961039.394772997125983, 1001346.634099620394409 ], [ -2532414.666652360931039, -23767.824272178113461 ], [ -2885322.922813143581152, -1099297.747809802182019 ], [ -3255036.334029201418161, -2309268.911789629608393 ], [ -3994463.156461318954825, -2947864.803890094161034 ], [ -5154018.855275319889188, -3199942.129719223827124 ], [ -5859835.367596885189414, -2594956.547729310579598 ], [ -6481626.104642074555159, -2158022.516292151063681 ], [ -6918560.136079235002398, -1384985.383749483153224 ], [ -6968975.601245060563087, -645558.561317366547883 ], [ -6817729.205747582018375, 144283.726280575618148 ], [ -6380795.174310421571136, 1539111.595868432894349 ], [ -5977471.452983813360333, 2648251.829516607802361 ] ] ] ] } },
{ "type": "Feature", "properties": { "id": 2 }, "geometry": { "type": "MultiPolygon", "coordinates": [ [ [ [ -6560478.158025030046701, 965508.224779492244124 ], [ -6747343.194432958960533, 368977.531631103192922 ], [ -6817729.205747582018375, 144283.726280575618148 ], [ -6959233.748259961605072, -594684.440172960516065 ], [ -7179040.039436008781195, -1166518.368030902929604 ], [ -7279870.969767659902573, -1805114.260131367482245 ], [ -7263065.814712384715676, -2796618.408392614684999 ], [ -6893352.403496326878667, -4174641.122925195842981 ], [ -7010988.488883255049586, -5502248.372291950508952 ], [ -7095014.264159630984068, -6157649.419447690248489 ], [ -7481532.830430965870619, -6376116.435166271403432 ], [ -7868051.396702298894525, -6191259.729558242484927 ], [ -8456231.823636937886477, -5502248.372291950508952 ], [ -8876360.700018821284175, -4830042.170080935582519 ], [ -9380515.351677082479, -3989784.417317166924477 ], [ -9750228.76289314031601, -2947864.803890093229711 ], [ -9918280.313445895910263, -2258853.446623803116381 ], [ -9817449.38311424292624, -1452206.003970584832132 ], [ -9649397.832561489194632, -813610.111870120279491 ], [ -9010801.940461024641991, 614828.067828287370503 ], [ -8204154.497807806357741, 1774383.766642288304865 ], [ -7212650.349546559154987, 2497005.43401912972331 ], [ -6305171.976561687886715, 2765887.914903535507619 ], [ -6033897.521052621304989, 2493080.142327385023236 ], [ -6078897.772622738033533, 2369329.450509563554078 ], [ -6155090.902035191655159, 2159798.344625317491591 ], [ -6155090.902036326006055, 2159798.344622196163982 ], [ -6380795.174310421571136, 1539111.595868432894349 ], [ -6441419.586525052785873, 1345579.818414033623412 ], [ -6560478.158025030046701, 965508.224779492244124 ] ] ] ] } },
{ "type": "Feature", "properties": { "id": 3 }, "geometry": { "type": "MultiPolygon", "coordinates": [ [ [ [ -8977191.630350474268198, -4661990.619528182782233 ], [ -8977191.630350433290005, -4661990.619528249837458 ], [ -8876360.700018821284175, -4830042.170080935582519 ], [ -8456231.823636937886477, -5502248.372291950508952 ], [ -7868051.396702298894525, -6191259.729558242484927 ], [ -7496398.929133708588779, -6369006.561873655766249 ], [ -7010988.488883255049586, -7300399.963206417858601 ], [ -6389197.751838065683842, -8006216.475527983158827 ], [ -5952263.720400905236602, -8880084.538402302190661 ], [ -6053094.650732558220625, -9317018.569839462637901 ], [ -6910157.558551602065563, -9720342.291166070848703 ], [ -8019297.792199777439237, -9871588.686663549393415 ], [ -9884670.00333534553647, -9485070.12039221636951 ], [ -11699626.749305084347725, -8947305.158623404800892 ], [ -13464168.030109, -8459955.662020418792963 ], [ -14724554.659254653379321, -7989411.320472707971931 ], [ -15497591.791797321289778, -7065127.792432561516762 ], [ -15968136.13334503211081, -6073623.644171314314008 ], [ -15917720.668179206550121, -4695600.929638733156025 ], [ -15396760.861465668305755, -3905758.642040790058672 ], [ -14842190.744641581550241, -3216747.284774499945343 ], [ -13733050.510993406176567, -2460515.307287108153105 ], [ -12640715.43240050598979, -1637062.709578614449129 ], [ -11397133.958310127258301, -1048882.282643975922838 ], [ -10388824.65499360486865, -1015271.972533425083384 ], [ -9811571.932512009516358, -1429871.691682097502053 ], [ -9811571.932512009516358, -1429871.691682098200545 ], [ -9817449.38311424292624, -1452206.003970584832132 ], [ -9839425.35510959662497, -1628013.779933408135548 ], [ -9839425.355109604075551, -1628013.779933465644717 ], [ -9911816.792270790785551, -2207145.277222956065089 ], [ -9911816.792270790785551, -2207145.277222958393395 ], [ -9918280.313445895910263, -2258853.446623803116381 ], [ -9750228.76289314031601, -2947864.803890093229711 ], [ -9380515.351677082479, -3989784.417317166924477 ], [ -9171810.153968552127481, -4337626.413498050533235 ], [ -8977191.630350474268198, -4661990.619528182782233 ] ] ] ] } },
{ "type": "Feature", "properties": { "id": 4 }, "geometry": { "type": "MultiPolygon", "coordinates": [ [ [ [ -343543.22070274502039, -4779626.70491511002183 ], [ -1536709.22962729819119, -3888953.486985514871776 ], [ -2393772.137446342036128, -3418409.145437804050744 ], [ -2545018.53294382058084, -3015085.424111194908619 ], [ -2494603.067777995020151, -2426904.99717655684799 ], [ -2108084.5015066601336, -1771503.950020817341283 ], [ -1469488.609406195580959, -1048882.282643975922838 ], [ -1032554.577969036996365, -695974.026483193272725 ], [ -444374.151034398004413, -746389.491649019299075 ], [ 412688.756784645840526, -1032077.127588700735942 ], [ 950453.718553459271789, -1418595.693860034225509 ], [ 1286556.819658966735005, -2057191.585960498778149 ], [ 1370582.594935342669487, -2477320.462342383340001 ], [ 1723490.8510961253196, -3233552.439829775132239 ], [ 1689880.540985574945807, -3586460.695990557782352 ], [ 1286556.819658966735005, -3687291.626322210766375 ], [ 1034479.49382983520627, -3939368.952151341363788 ], [ 1252946.509548416361213, -4241861.743146297521889 ], [ 1269751.664603691548109, -4460328.758864877745509 ], [ 614350.617447951808572, -4695600.929638733156025 ], [ -343543.22070274502039, -4779626.70491511002183 ] ] ] ] } },
{ "type": "Feature", "properties": { "id": 5 }, "geometry": { "type": "MultiPolygon", "coordinates": [ [ [ [ 209718.003470426890999, -4731095.018584130331874 ], [ 209718.003470430616289, -4731095.018584129400551 ], [ 614350.617447951808572, -4695600.929638733156025 ], [ 764363.786657156073488, -4641750.048384146764874 ], [ 764363.786657157470472, -4641750.048384146764874 ], [ 1014167.079614885966294, -4552077.07142496202141 ], [ 1269751.664603691548109, -4460328.758864877745509 ], [ 1264215.848820777377114, -4388363.153686992824078 ], [ 2345281.588141314685345, -4309082.363367399200797 ], [ 3034292.945407604798675, -4309082.363367399200797 ], [ 3504837.286955315619707, -4393108.138643776066601 ], [ 3840940.388060823082924, -4561159.68919652979821 ], [ 4008991.938613576814532, -4897262.790302038192749 ], [ 4042602.24872412905097, -5552663.837457777932286 ], [ 3992186.783558301627636, -6224870.03966879285872 ], [ 3824135.233005547896028, -6695414.381216503679752 ], [ 2983877.480241779237986, -7048322.637377286329865 ], [ 1908347.55670415610075, -7216374.187930040061474 ], [ 900038.253387631848454, -7300399.963206417858601 ], [ 311857.826452994719148, -7350815.42837224341929 ], [ -427568.995979122817516, -7434841.203648619353771 ], [ -1116580.353245412930846, -7518866.978924997150898 ], [ -1738371.090290602296591, -7619697.909256650134921 ], [ -2192110.276783037930727, -7686918.529477750882506 ], [ -2259330.897004138678312, -7132348.412653664126992 ], [ -1738371.090290602296591, -6342506.125055720098317 ], [ -1452683.454350920394063, -5804741.163286908529699 ], [ -914918.492582108825445, -5266976.201518096029758 ], [ -343543.22070274502039, -4779626.70491511002183 ], [ 209718.003470426890999, -4731095.018584130331874 ] ] ] ] } },
{ "type": "Feature", "properties": { "id": 6 }, "geometry": { "type": "MultiPolygon", "coordinates": [ [ [ [ -378173.323496404569596, -7429228.059048310853541 ], [ 510738.120730529481079, -7333768.54600559733808 ], [ 1482771.492131940787658, -7251838.859977724961936 ], [ 1908347.55670415610075, -7216374.187930040061474 ], [ 2242592.318451787810773, -7164148.443906972184777 ], [ 2777794.053520080633461, -7080523.172802551649511 ], [ 2983877.480241779237986, -7048322.637377286329865 ], [ 3190013.477732109837234, -6961745.518431347794831 ], [ 3802443.344517359044403, -6704524.974381542764604 ], [ 3822849.561503530945629, -6695954.363247350789607 ], [ 4676996.852060775272548, -6729024.691327054984868 ], [ 5550864.914935094304383, -6493752.520553199574351 ], [ 6055019.566593355499208, -6292090.659889894537628 ], [ 6391122.667698862962425, -5955987.558784387074411 ], [ 6660005.148583269678056, -5569468.992513053119183 ], [ 7147354.645186255685985, -5485443.217236676253378 ], [ 7517068.056402313522995, -6124039.109337140806019 ], [ 7449847.436181212775409, -6779440.156492880545557 ], [ 7180964.955296806059778, -7451646.35870389547199 ], [ 6928887.629467676393688, -7703723.684533027000725 ], [ 6559174.218251618556678, -8123852.560914911329746 ], [ 5483644.294713993556798, -8829669.073236476629972 ], [ 4307283.440844717435539, -9317018.569839462637901 ], [ 3366194.757749295793474, -9837978.376552999019623 ], [ 2542742.160040802322328, -10090055.702382130548358 ], [ 2139418.438714192248881, -10140471.167547956109047 ], [ 1030278.20506601780653, -10258107.252934884279966 ], [ 105994.677025872282684, -10258107.252934884279966 ], [ -969535.246511752717197, -10090055.702382130548358 ], [ -1927429.084662449546158, -9720342.291166070848703 ], [ -2313947.650933782570064, -9300213.414784187451005 ], [ -2650050.752039290033281, -8695227.832794275134802 ], [ -2734076.527315666899085, -8224683.491246563382447 ], [ -2717271.372260391712189, -7905385.545196331106126 ], [ -2192110.276783037930727, -7686918.529477750882506 ], [ -1738371.090290602296591, -7619697.909256650134921 ], [ -1374258.400679263751954, -7560652.608238594606519 ], [ -378173.323496404569596, -7429228.059048310853541 ] ] ] ] } },
{ "type": "Feature", "properties": { "id": 7 }, "geometry": { "type": "MultiPolygon", "coordinates": [ [ [ [ 4620378.613238421268761, -9187307.712704928591847 ], [ 5400042.965959653258324, -8864303.909434704110026 ], [ 5483644.294713993556798, -8829669.073236476629972 ], [ 6103266.994690618477762, -8423041.676376817747951 ], [ 6559174.218251618556678, -8123852.560914911329746 ], [ 6653186.104602320119739, -8017020.871880022808909 ], [ 7298601.040683734230697, -7854970.080030504614115 ], [ 7853171.157507820986211, -7283594.808151141740382 ], [ 8508572.204663563519716, -7014712.327266735956073 ], [ 9516881.507980085909367, -7182763.877819489687681 ], [ 9836179.454030316323042, -7770944.304754127748311 ], [ 9617712.438311737030745, -8930500.003568129613996 ], [ 8895090.770934894680977, -10106860.857437405735254 ], [ 8122053.638392227701843, -11031144.385477552190423 ], [ 7550678.366512865759432, -11619324.81241218931973 ], [ 6811251.544080748222768, -12241115.549457378685474 ], [ 5836552.550874776206911, -12980542.371889496222138 ], [ 5063515.418332108296454, -13316645.472995003685355 ], [ 4340893.750955267809331, -13501502.17860303260386 ], [ 3349389.602694020606577, -13350255.783105554059148 ], [ 2240249.369045845232904, -12694854.735949814319611 ], [ 1752899.872442859224975, -11837791.828130770474672 ], [ 1836925.647719235159457, -10779067.059648420661688 ], [ 2393822.632166361901909, -10108670.643366435542703 ], [ 2542742.160040802322328, -10090055.702382130548358 ], [ 2969206.567079472821206, -9959505.373696822673082 ], [ 3366194.757749295793474, -9837978.376552999019623 ], [ 3793210.589302722364664, -9601594.612657353281975 ], [ 4620378.613238421268761, -9187307.712704928591847 ] ] ] ] } },
{ "type": "Feature", "properties": { "id": 8 }, "geometry": { "type": "MultiPolygon", "coordinates": [ [ [ [ 6172655.65198028460145, -6174454.574502965435386 ], [ 5466839.139658718369901, -6056818.489116039127111 ], [ 4744217.472281876020133, -5939182.403729110956192 ], [ 4408114.371176368556917, -5670299.922844705171883 ], [ 4035847.127380598336458, -5420938.971258935518563 ], [ 4031842.155030147638172, -5342842.010425149463117 ], [ 4015989.494980855844915, -5033715.139463969506323 ], [ 4008991.938613576814532, -4897262.790302038192749 ], [ 3840940.388060823082924, -4561159.68919652979821 ], [ 3777080.798850777558982, -4529229.8945915075019 ], [ 3853544.254352281801403, -4141030.812814645469189 ], [ 4206452.510513064451516, -3737707.091488036327064 ], [ 4660191.697005500085652, -3418409.145437804050744 ], [ 5097125.728442658670247, -3166331.819608673453331 ], [ 5416423.674492890946567, -3115916.354442847892642 ], [ 5853357.705930051393807, -3115916.354442847892642 ], [ 6290291.737367211841047, -3233552.439829775132239 ], [ 6575979.373306893743575, -3485629.765658905729651 ], [ 6979303.094633501954377, -3872148.33193023968488 ], [ 7164159.800241530872881, -4376302.983588500879705 ], [ 7029718.559799327515066, -4880457.63524676207453 ], [ 6811251.544080748222768, -5199755.581296994350851 ], [ 6736540.404400830157101, -5556273.258751404471695 ], [ 6660005.148583269678056, -5569468.992513053119183 ], [ 6391122.667698862962425, -5955987.558784387074411 ], [ 6172655.65198028460145, -6174454.574502965435386 ] ] ] ] } },
{ "type": "Feature", "properties": { "id": 9 }, "geometry": { "type": "MultiPolygon", "coordinates": [ [ [ [ 3904554.592263427563012, -4082733.283773336093873 ], [ 3853544.254352281801403, -4141030.812814645469189 ], [ 3777080.798850777558982, -4529229.8945915075019 ], [ 3504837.286955315619707, -4393108.138643776066601 ], [ 3144222.34040453704074, -4328712.612473994493484 ], [ 3034292.945407604798675, -4309082.363367399200797 ], [ 2609962.780261903069913, -4309082.363367399200797 ], [ 2374690.60948804859072, -4309082.363367399200797 ], [ 2345281.588141314685345, -4309082.363367399200797 ], [ 1905280.235782761592418, -4341350.202119370922446 ], [ 1462102.739824964432046, -4373850.965813423506916 ], [ 1361811.191024252446368, -4381205.923946028575301 ], [ 1220486.653764671646059, -4196917.327445727773011 ], [ 1054753.055633334675804, -3967440.037725416943431 ], [ 1175222.667417767690495, -3798625.778563409578055 ], [ 1480310.372060964815319, -3638853.238221710547805 ], [ 1627295.82560730795376, -3602106.874835124704987 ], [ 1674063.924462963361293, -3590414.850121210794896 ], [ 1689880.540985574945807, -3586460.695990557782352 ], [ 1722018.039754202356562, -3249016.958919966593385 ], [ 1723490.8510961253196, -3233552.439829775132239 ], [ 1633009.810967311495915, -3039664.496696602553129 ], [ 1496483.259313870454207, -2747107.600296371616423 ], [ 1351676.795498158084229, -2382791.465156459715217 ], [ 1500822.54661372769624, -2158022.516292151063681 ], [ 1769705.027498134411871, -2006776.120794672751799 ], [ 1988172.043216713704169, -1956360.655628846725449 ], [ 2341080.299377498216927, -2107607.051126324571669 ], [ 2660378.245427728630602, -2292463.756734354421496 ], [ 2979676.191477960906923, -2914254.493779542855918 ], [ 3601466.928523150272667, -3166331.819608673453331 ], [ 4122426.735236686654389, -3233552.439829775132239 ], [ 4278467.996075625531375, -3687029.527573641389608 ], [ 4206452.510513064451516, -3737707.091488036327064 ], [ 4015944.513824500143528, -3955430.516274967230856 ], [ 3904554.592263427563012, -4082733.283773336093873 ] ] ] ] } },
{ "type": "Feature", "properties": { "id": 10 }, "geometry": { "type": "MultiPolygon", "coordinates": [ [ [ [ 4929948.864808619022369, -3262780.010166773572564 ], [ 4827982.124172267504036, -3321606.975918515119702 ], [ 4660191.697005500085652, -3418409.145437804050744 ], [ 4484523.865170814096928, -3542027.249321471899748 ], [ 4331334.855419239960611, -3649826.922850357368588 ], [ 4184806.042902339249849, -3414835.176354805007577 ], [ 4122426.735236686654389, -3233552.439829775132239 ], [ 4103763.896715730894357, -3231144.331633522640914 ], [ 3977827.498892042785883, -3214894.473849820904434 ], [ 3832886.126183002721518, -3196192.361242203041911 ], [ 3266386.474870818667114, -3030488.392452322877944 ], [ 2985917.503769506234676, -2916784.755519358441234 ], [ 2752845.454081582371145, -2472531.478849753271788 ], [ 2660378.245427728630602, -2292463.756734354421496 ], [ 2606720.291838375385851, -2261398.625708939041942 ], [ 2341080.299377498216927, -2107607.051126324571669 ], [ 2308628.965477655176073, -2093699.336597820511088 ], [ 1988172.043216713704169, -1956360.655628846725449 ], [ 1893666.648776654852554, -1978169.592807321809232 ], [ 1618458.632000655867159, -1603452.399468063376844 ], [ 1030278.20506601780653, -964856.507367598824203 ], [ 425292.623076103627682, 161088.881335851736367 ], [ -196498.11396908480674, 1203008.494762925431132 ], [ -616626.990350969135761, 2093681.712692520581186 ], [ -616626.990350969135761, 2933939.465456289704889 ], [ -179692.958913809619844, 3807807.528330609202385 ], [ 526123.553407756611705, 4127105.474380841478705 ], [ 1114303.980342394672334, 4345572.490099421702325 ], [ 1853730.802774512208998, 4429598.26537579856813 ], [ 2273859.679156395606697, 4496818.885596899315715 ], [ 2811624.640925207175314, 4379182.800209972076118 ], [ 3214948.362251817248762, 4093495.164270290639251 ], [ 3500635.998191499151289, 3454899.272169826552272 ], [ 3635077.23863370064646, 2715472.449737709481269 ], [ 3803128.789186456240714, 2312148.728411100339144 ], [ 4340893.750955267809331, 1959240.472250317689031 ], [ 4962684.488000457175076, 1471890.975647331681103 ], [ 5013099.953166282735765, 1236618.804873476270586 ], [ 5029905.108221557922661, 799684.773436316289008 ], [ 4945879.33294518198818, 513997.13749663438648 ], [ 5063515.418332108296454, -74183.28943800367415 ], [ 4996294.798111007548869, -477507.010764612816274 ], [ 5332397.899216515012085, -1149713.212975627742708 ], [ 5534059.759879819117486, -1670673.019689164124429 ], [ 5786137.085708950646222, -1754698.794965540990233 ], [ 5937383.481206429190934, -1771503.950020817108452 ], [ 5651695.845266747288406, -1989970.96573939640075 ], [ 5601280.380100921727717, -2258853.446623803116381 ], [ 5685306.155377297662199, -2611761.702784585766494 ], [ 5955811.202956696040928, -3143499.988257713615894 ], [ 5853357.705930051393807, -3115916.354442847892642 ], [ 5550864.914935094304383, -3115916.354442846961319 ], [ 5416423.674492890946567, -3115916.354442847892642 ], [ 5097125.728442658670247, -3166331.819608673453331 ], [ 5069968.896300060674548, -3181999.222767864353955 ], [ 4929948.864808619022369, -3262780.010166773572564 ] ] ] ] } },
{ "type": "Feature", "properties": { "id": 11 }, "geometry": { "type": "MultiPolygon", "coordinates": [ [ [ [ 6137816.827086382545531, -3192501.502446474973112 ], [ 5930628.802445474080741, -3093998.337209946941584 ], [ 5847591.087851735763252, -2930769.102181639056653 ], [ 5739993.352913541719317, -2719261.643785565160215 ], [ 5618951.036704108119011, -2333070.204357185401022 ], [ 5694736.122296961024404, -1957057.812716292217374 ], [ 5694736.122297003865242, -1957057.812716258922592 ], [ 5937383.481206429190934, -1771503.950020817108452 ], [ 5935539.012968654744327, -1771299.009105508914217 ], [ 6340707.202533037401736, -1569842.089357512071729 ], [ 6609589.683417444117367, -1200128.678141454234719 ], [ 6693615.458693820051849, -729584.336593743413687 ], [ 6693615.458693820051849, -326260.615267134271562 ], [ 6912082.474412401206791, -40572.979327452369034 ], [ 7399431.97101538721472, 228309.501556953415275 ], [ 8071638.173226402141154, 60257.951004199683666 ], [ 8659818.600161038339138, -292650.305156582966447 ], [ 9096752.631598200649023, -847220.421980670653284 ], [ 9298414.492261502891779, -1469011.159025860019028 ], [ 9348829.957427330315113, -1939555.500573570840061 ], [ 8962311.391155995428562, -2611761.702784585766494 ], [ 8340520.65411080699414, -3048695.734221745282412 ], [ 7584288.676623416133225, -3216747.28477449901402 ], [ 6399230.991538763977587, -3329675.311157614924014 ], [ 6290291.737367211841047, -3233552.439829775132239 ], [ 6137816.827086383476853, -3192501.502446475438774 ], [ 6137816.827086382545531, -3192501.502446474973112 ] ] ] ] } },
{ "type": "Feature", "properties": { "id": 12 }, "geometry": { "type": "MultiPolygon", "coordinates": [ [ [ [ 6658197.919300440698862, -927922.557196671841666 ], [ 6433726.006730886176229, -1441941.233585470356047 ], [ 6145671.153469740413129, -1666817.524981802329421 ], [ 5935539.012968654744327, -1771299.009105508914217 ], [ 5790232.366366772912443, -1755153.826149743515998 ], [ 5579433.678529062308371, -1685797.659238911932334 ], [ 5367620.287549562752247, -1240704.382836000993848 ], [ 5332397.899216515012085, -1149713.212975627742708 ], [ 5056793.356309998780489, -598504.127162594930269 ], [ 5047644.73969117552042, -169407.361283602949698 ], [ 5063515.418332108296454, -74183.28943800367415 ], [ 5043478.502689280547202, 26001.288776137807872 ], [ 4978196.93882071133703, 352409.108118987525813 ], [ 5450033.984603443183005, 883710.548712693154812 ], [ 5349203.054271790198982, 1505501.285757882054895 ], [ 5113930.883497935719788, 2026461.092471418902278 ], [ 4710607.162171325646341, 2429784.813798028044403 ], [ 4525750.456563296727836, 2833108.535124637186527 ], [ 4609776.231839672662318, 3236432.256451246328652 ], [ 4878658.712724079377949, 3505314.737335652112961 ], [ 5315592.744161239825189, 3589340.512612028978765 ], [ 5601280.380100921727717, 3791002.373275334015489 ], [ 6122240.186814458109438, 4009469.388993913773447 ], [ 6491953.598030515946448, 4026274.544049189426005 ], [ 6878472.164301848970354, 3875028.148551710881293 ], [ 7063328.869909879751503, 3622950.82272258028388 ], [ 7096939.180020430125296, 2984354.930622115731239 ], [ 7113744.335075705312192, 2278538.418300549499691 ], [ 6979303.094633501954377, 1673552.836310636252165 ], [ 6844861.854191298596561, 1287034.270039302296937 ], [ 6676810.303638544864953, 833295.0835468666628 ], [ 6592784.528362168930471, 362750.74199915677309 ], [ 6730344.629458734765649, -278230.161189938080497 ], [ 6693615.458693820051849, -326260.615267134271562 ], [ 6693615.458693820051849, -608982.081897643976845 ], [ 6658197.919300440698862, -927922.557196671841666 ] ] ] ] } },
{ "type": "Feature", "properties": { "id": 13 }, "geometry": { "type": "MultiPolygon", "coordinates": [ [ [ [ 6783438.911106278188527, 1121192.323709747288376 ], [ 6844861.854191298596561, 1287034.270039302296937 ], [ 6979303.094633501954377, 1673552.836310636252165 ], [ 7113744.335075705312192, 2278538.418300549499691 ], [ 7106146.310297173447907, 2597655.458998907823116 ], [ 7106146.310297173447907, 2597655.458998911082745 ], [ 7106146.310297172516584, 2597655.458998947869986 ], [ 7096939.180020430125296, 2984354.930622115731239 ], [ 7063328.869909879751503, 3622950.82272258028388 ], [ 7025395.846504764631391, 3674677.67282046424225 ], [ 7025395.846504763700068, 3674677.672820464707911 ], [ 6878472.164301848970354, 3875028.148551710881293 ], [ 6808772.094974232837558, 3902302.088723386637866 ], [ 6808772.094974232837558, 3902302.088723387103528 ], [ 6599671.88699138071388, 3984123.909238416235894 ], [ 6491953.598030515946448, 4429598.265375796705484 ], [ 6391122.667698862962425, 5219440.552973739802837 ], [ 6458343.287919965572655, 5858036.445074204355478 ], [ 6844861.854191298596561, 6177334.391124436631799 ], [ 7550678.366512865759432, 6429411.716953567229211 ], [ 8323715.499055531807244, 6429411.716953567229211 ], [ 9012726.856321822851896, 6026087.995626958087087 ], [ 9684933.05853283777833, 5488323.033858145587146 ], [ 10441165.03602023050189, 4547234.350762724876404 ], [ 10777268.137125737965107, 3589340.512612028047442 ], [ 10794073.292181015014648, 2665056.984571881592274 ], [ 10558801.12140715867281, 1774383.76664228644222 ], [ 10121867.08997, 1118982.719486546702683 ], [ 9399245.422593157738447, 547607.44760718382895 ], [ 8777454.685547966510057, 362750.741999154910445 ], [ 8323715.499055531807244, 345945.586943879723549 ], [ 7987612.397950024344027, 396361.052109705284238 ], [ 7180964.955296806059778, 581217.757717735134065 ], [ 6783438.911106275394559, 1121192.323709738440812 ], [ 6783438.911106278188527, 1121192.323709747288376 ] ] ] ] } },
{ "type": "Feature", "properties": { "id": 14 }, "geometry": { "type": "MultiPolygon", "coordinates": [ [ [ [ 3416610.222915121354163, 4143910.629436115734279 ], [ 3450220.533025671727955, 4362377.645154695957899 ], [ 3803128.789186456240714, 4547234.350762724876404 ], [ 4189647.355457789264619, 4748896.211426028981805 ], [ 4794632.937447703443468, 4883337.451868232339621 ], [ 5046710.263276833109558, 4732091.056370753794909 ], [ 5147541.193608486093581, 4463208.575486347079277 ], [ 5029905.108221557922661, 3992664.233938637189567 ], [ 4609776.231839672662318, 3572535.357556752860546 ], [ 4206452.510513064451516, 3538925.047446201555431 ], [ 3803128.789186456240714, 3723781.753054230473936 ], [ 3416610.222915121354163, 4143910.629436115734279 ] ] ] ] } },
{ "type": "Feature", "properties": { "id": 15 }, "geometry": { "type": "MultiPolygon", "coordinates": [ [ [ [ 9718543.368643388152122, 5790815.824853101745248 ], [ 9147168.096764024347067, 6227749.856290262192488 ], [ 8727039.220382140949368, 6479827.1821193927899 ], [ 8122053.63839222677052, 6715099.352893247269094 ], [ 7382626.815960111096501, 6698294.197837972082198 ], [ 6441538.132864689454436, 6933566.368611827492714 ], [ 5197956.658774310722947, 7555357.105657016858459 ], [ 4189647.355457788333297, 8160342.687646934762597 ], [ 2240249.369045842438936, 9941689.123506125062704 ], [ 626954.483739407733083, 11756645.869475867599249 ], [ 358072.002855001017451, 12361631.451465779915452 ], [ -213303.269024362787604, 13504381.995224505662918 ], [ -414965.129687666893005, 14445470.678319927304983 ], [ -45251.718471609055996, 15285728.43108369782567 ], [ 929447.274734362959862, 15655441.84229975566268 ], [ 2173028.748824741691351, 15588221.222078653052449 ], [ 4156037.045347237959504, 15218507.81086259521544 ], [ 6441538.132864689454436, 14210198.507546070963144 ], [ 8693428.910271590575576, 12496072.691907983273268 ], [ 10441165.036020228639245, 11017219.047043750062585 ], [ 12088070.231437215581536, 9773637.572953371331096 ], [ 13096379.534753737971187, 8193952.997757486999035 ], [ 13701365.116743652150035, 6412606.561898296698928 ], [ 13600534.186412001028657, 5169025.087807917967439 ], [ 13533313.566190900281072, 4597649.815928556025028 ], [ 12424173.332542723044753, 4261546.714823048561811 ], [ 9718543.368643388152122, 5790815.824853101745248 ] ] ] ] } }
]
}
