{
"type": "FeatureCollection",
"name": "map059",
"crs": { "type": "name", "properties": { "name": "urn:ogc:def:crs:ESRI::102016" } },
"features": [
{ "type": "Feature", "properties": { "id": 1 }, "geometry": { "type": "MultiPolygon", "coordinates": [ [ [ [ 3271817.131899166852236, -3026483.243606686126441 ], [ 2816204.118634080514312, -4173953.054792830254883 ], [ 2529336.665837543085217, -4865809.852713886648417 ], [ 1736232.531635355204344, -5422670.202260104939342 ], [ 909379.285339457914233, -5861408.659478336572647 ], [ 200647.931371545419097, -5861408.659478336572647 ], [ -238090.525846686214209, -5861408.659478336572647 ], [ -1183065.664470568299294, -5793910.435290915891528 ], [ -2144915.359141306951642, -5642039.430869219824672 ], [ -3596127.179170842282474, -4832060.74062017723918 ], [ -4844844.326638116501272, -4123329.386652265209705 ], [ -5907941.357589985243976, -3296476.140356366988271 ], [ -6464801.707136202603579, -2553995.674294744152576 ], [ -6819167.384120158851147, -1136532.966358919627964 ], [ -6920414.720401288941503, -157808.715641326270998 ], [ -6701045.491792172193527, 1040284.7636853819713 ], [ -6566049.043417332693934, 1765890.673700149636716 ], [ -6363554.3708550715819, 2643367.588136612437665 ], [ -5806694.02130885515362, 3672715.506994771305472 ], [ -5013589.887106667272747, 4128328.520259857643396 ], [ -3764872.739639393053949, 4381446.860962683334947 ], [ -2431782.811937843449414, 4465819.641196958720684 ], [ -828699.987486612051725, 4381446.860962683334947 ], [ 757508.280917761847377, 3790837.399322756566107 ], [ 1921852.648150760680437, 2693991.256277177948505 ], [ 2698082.226306093856692, 1394650.440669338218868 ], [ 3389939.02422715164721, 27811.400874079205096 ], [ 3592433.696789411827922, -1575271.42357715126127 ], [ 3271817.131899166852236, -3026483.243606686126441 ] ] ] ] } },
{ "type": "Feature", "properties": { "id": 2 }, "geometry": { "type": "MultiPolygon", "coordinates": [ [ [ [ 5579412.671306596137583, -1170282.078452629968524 ], [ 5343168.886650626547635, 27811.400874079205096 ], [ 5225046.994322639890015, 1175281.212060222402215 ], [ 4718810.312916989438236, 1917761.678121845237911 ], [ 3993204.402902220375836, 2255252.799058946315199 ], [ 3470093.165449715219438, 2930235.040933148469776 ], [ 3233849.380793743766844, 4060830.296072437427938 ], [ 3436344.053356003947556, 4820185.318180914968252 ], [ 3824458.842433671467006, 5039554.546790030784905 ], [ 4381319.191979887895286, 5005805.434696320444345 ], [ 4701935.756870132870972, 4870808.98632148001343 ], [ 5275670.662463205866516, 4634565.201665509492159 ], [ 6018151.128524827770889, 4229575.856540988199413 ], [ 6760631.594586449675262, 3571468.170713640749454 ], [ 7317491.944132667966187, 2407123.803480641916394 ], [ 7317491.944132667966187, 2221503.686965236440301 ], [ 7317491.944132667966187, 1664643.337419019080698 ], [ 7081248.159476696513593, 1057159.319732237607241 ], [ 6828129.818773870356381, 770291.866935701109469 ], [ 6676258.81435217615217, 415926.189951744861901 ], [ 6878753.486914436332881, -107185.047500762157142 ], [ 6693133.370399030856788, -647170.841000123880804 ], [ 6406265.917602495290339, -1052160.18612464517355 ], [ 5579412.671306596137583, -1170282.078452629968524 ] ] ] ] } },
{ "type": "Feature", "properties": { "id": 3 }, "geometry": { "type": "MultiPolygon", "coordinates": [ [ [ [ 6591886.034117900766432, -1288403.970780615694821 ], [ 6828129.818773870356381, -782167.289374964311719 ], [ 6899846.681973004713655, -444676.168437862768769 ], [ 6954688.989125283434987, -48124.101336768828332 ], [ 7005312.657265848480165, 238743.351459767087363 ], [ 7098122.715523552149534, 871539.203216831199825 ], [ 7124475.07181656267494, 1168314.237177606439218 ], [ 7297066.040499543771148, 1612119.58521955832839 ], [ 7317491.944132667966187, 2137130.906730960123241 ], [ 7280082.351419563405216, 2485343.860971678979695 ], [ 7207807.329828107729554, 3411159.888268518261611 ], [ 7039061.769359556958079, 4254887.690611271187663 ], [ 6769068.872609876096249, 4980493.600626038387418 ], [ 6532825.087953904643655, 5824221.402968791313469 ], [ 6920939.877031572163105, 5992966.963437342084944 ], [ 7275305.554015528410673, 6397956.30856186337769 ], [ 7832165.903561744838953, 6482329.088796138763428 ], [ 8355277.141014251857996, 6651074.649264689534903 ], [ 8929012.046607322990894, 6802945.653686384670436 ], [ 9283377.723591279238462, 6381081.752515008673072 ], [ 9772739.848950076848269, 5773597.734828226268291 ], [ 10177729.194074597209692, 4879246.264344908297062 ], [ 10346474.754543147981167, 3613654.560830778442323 ], [ 10329600.198496293276548, 1740578.839629867114127 ], [ 9941485.409418627619743, -31249.545289913192391 ], [ 9637743.400575235486031, -1381214.029038317501545 ], [ 9249628.611497569829226, -2089945.383006229996681 ], [ 8760266.486138772219419, -2579307.508365027606487 ], [ 8220280.692639410495758, -2714303.95673986710608 ], [ 7646545.78704633936286, -2596182.064411882311106 ], [ 7157183.661687541753054, -2478060.172083897516131 ], [ 6701570.64842245541513, -1904325.266490824520588 ], [ 6591886.034117900766432, -1288403.970780615694821 ] ] ] ] } },
{ "type": "Feature", "properties": { "id": 4 }, "geometry": { "type": "MultiPolygon", "coordinates": [ [ [ [ 2618418.475100630428642, -4650965.48919703066349 ], [ 2736049.977411517873406, -3861773.767926011234522 ], [ 2921670.0939269233495, -3439909.866754635237157 ], [ 3289166.468383978120983, -2947954.667938593775034 ], [ 3984767.124878792092204, -2562432.952318171970546 ], [ 5098487.823971224948764, -2174318.163240505382419 ], [ 5874717.402126558125019, -2022447.158818810246885 ], [ 6667821.536328746005893, -2157443.6071936506778 ], [ 7091440.033248228952289, -2395271.899234392680228 ], [ 7342803.778202947229147, -3136167.857911244034767 ], [ 7224681.885874962434173, -4131766.664675692096353 ], [ 6819692.540750440210104, -4840498.018643604591489 ], [ 6279706.747251078486443, -5329860.144002401269972 ], [ 5638473.617470586672425, -5734849.489126922562718 ], [ 4929742.263502674177289, -6072340.610064024105668 ], [ 3967892.56883193552494, -6376082.618907415308058 ], [ 3343533.995098298415542, -6477329.955188545398414 ], [ 3107290.210442328825593, -6325458.950766849331558 ], [ 2736049.977411517873406, -5717974.9330800678581 ], [ 2618418.475100630428642, -4650965.48919703066349 ] ] ] ] } },
{ "type": "Feature", "properties": { "id": 5 }, "geometry": { "type": "MultiPolygon", "coordinates": [ [ [ [ -233871.886834972538054, -5861408.659478336572647 ], [ 508608.579226649366319, -5599853.040752082131803 ], [ 1099218.040866576135159, -5498605.704470952041447 ], [ 1377648.215639685280621, -5414232.92423667665571 ], [ 1831282.382770411204547, -5355933.072739746421576 ], [ 2171802.532567347865552, -5116844.45692487526685 ], [ 2670396.364837233442813, -5122445.476551856845617 ], [ 3149476.600559466518462, -4916433.520854452624917 ], [ 3908831.622667944058776, -4907996.242831025272608 ], [ 4820057.649198116734624, -5009243.579112155362964 ], [ 5680660.007587725296617, -5102053.63736985810101 ], [ 5942215.626313978806138, -5110490.91539328545332 ], [ 6320531.410459341481328, -5292862.792969913221896 ], [ 8059972.410194292664528, -6257960.726579431444407 ], [ 9241191.333474146202207, -7422305.093812430277467 ], [ 9882424.463254638016224, -8434778.456623734906316 ], [ 9629306.122551811859012, -9750993.828278427943587 ], [ 8903700.212537044659257, -10746592.635042877867818 ], [ 7857477.737632030621171, -11674693.217619905248284 ], [ 6895628.042961293831468, -12299051.791353542357683 ], [ 5748158.231775149703026, -12619668.356243789196014 ], [ 4853806.761291831731796, -12872786.696946613490582 ], [ 3858207.954527383670211, -13041532.257415164262056 ], [ 3014480.152184629812837, -13041532.257415164262056 ], [ 1934508.565185906365514, -12855912.140899758785963 ], [ 483296.745156371034682, -12315926.347400397062302 ], [ -546051.173701787367463, -11590320.437385629862547 ], [ -1777893.765122206415981, -10729718.078996021300554 ], [ -2570997.899324393831193, -9987237.612934399396181 ], [ -3060360.024683190509677, -9194133.478732211515307 ], [ -3195356.473058030940592, -8333531.120342603884637 ], [ -3026610.912589480634779, -7489803.317999850958586 ], [ -2672245.235605524387211, -6932942.968453633598983 ], [ -2334754.114668423309922, -6696699.183797663077712 ], [ -1592273.648606800474226, -6662950.071703952737153 ], [ -233871.886834972538054, -5861408.659478336572647 ] ] ] ] } },
{ "type": "Feature", "properties": { "id": 6 }, "geometry": { "type": "MultiPolygon", "coordinates": [ [ [ [ -6874009.691272435709834, 2972421.431050285231322 ], [ -6772762.354991305619478, 2010571.736379547044635 ], [ -6684497.312417420558631, 1129231.227824671892449 ], [ -6553393.126382188871503, -183120.54971161019057 ], [ -6452145.790101058781147, -1566834.145553724840283 ], [ -6356973.293996796943247, -2697766.891813951544464 ], [ -6047156.444976540282369, -4131766.664675695821643 ], [ -5625292.543805163353682, -6342333.506813708692789 ], [ -5507170.651477178558707, -8451653.012670591473579 ], [ -5760288.992180002853274, -9666621.048044154420495 ], [ -6857135.135225582867861, -10679094.410855459049344 ], [ -9050827.421316739171743, -10493474.294340051710606 ], [ -10991401.366705071181059, -9700370.160137865692377 ], [ -12746355.195577997714281, -8806018.689654547721148 ], [ -14349438.020029228180647, -7506677.874046707525849 ], [ -15665653.391683923080564, -5971093.27378289680928 ], [ -15868148.064246183261275, -4840498.018643608316779 ], [ -15986269.95657416805625, -3878648.323972869664431 ], [ -15345036.826793676242232, -2866174.961161566432565 ], [ -14416936.244216646999121, -1988698.046725103631616 ], [ -12476362.29882831685245, -655608.119023553561419 ], [ -11362641.599735882133245, 289367.019600329454988 ], [ -9962053.447846913710237, 1116220.26589622721076 ], [ -8848332.748754478991032, 1791202.507770429365337 ], [ -6874009.691272435709834, 2972421.431050285231322 ] ] ] ] } },
{ "type": "Feature", "properties": { "id": 7 }, "geometry": { "type": "MultiPolygon", "coordinates": [ [ [ [ 8545903.694125611335039, 6701534.6192059321329 ], [ 6963126.267148712649941, 7174185.886717185378075 ], [ 5579412.671306597068906, 7612924.34393541701138 ], [ 3841333.398480526171625, 8355404.809997040778399 ], [ 3048229.264278338290751, 9199132.612339792773128 ], [ 2170752.349841875955462, 10582846.208181908354163 ], [ 1360773.659592832438648, 12101556.252398863434792 ], [ 770164.197952905669808, 13890259.193365499377251 ], [ 736415.085859195329249, 14987105.336411077529192 ], [ 1310149.99145226739347, 15425843.793629309162498 ], [ 2575741.694966397248209, 15881456.806894395500422 ], [ 3503842.277543424628675, 15729585.802472699433565 ], [ 4701935.756870133802295, 15341471.01339503377676 ], [ 6507513.253883624449372, 14582115.991286557167768 ], [ 7874352.293678885325789, 13603391.740568961948156 ], [ 9949922.687442056834698, 12017183.472164586186409 ], [ 12177364.085626924410462, 10397226.091666501015425 ], [ 13510454.013328474014997, 8271032.029762767255306 ], [ 13814196.02217186614871, 7022314.882295492105186 ], [ 13510454.013328474014997, 5807346.846921928226948 ], [ 12869220.883547980338335, 5587977.618312812410295 ], [ 11839872.964689822867513, 5587977.618312812410295 ], [ 10405535.700707143172622, 6127963.411812174133956 ], [ 9254955.335803171619773, 6414917.928453231230378 ], [ 8954323.880677608773112, 6499203.644842986017466 ], [ 8545903.694125611335039, 6701534.6192059321329 ] ] ] ] } }
]
}
