{
"type": "FeatureCollection",
"name": "map061",
"crs": { "type": "name", "properties": { "name": "urn:ogc:def:crs:ESRI::102016" } },
"features": [
{ "type": "Feature", "properties": { "id": 1 }, "geometry": { "type": "MultiPolygon", "coordinates": [ [ [ [ -6130729.472749632783234, 2402680.607288047671318 ], [ -5633861.92077487334609, 3219564.548670273274183 ], [ -4909614.302642177790403, 3809068.423894559964538 ], [ -3966408.102283319458365, 3809068.423894559964538 ], [ -2837929.255425397306681, 3960655.134666519239545 ], [ -1423119.954887110739946, 3691167.648849702440202 ], [ -783087.176072169095278, 3169035.645079620182514 ], [ -698872.336754415184259, 2461630.994810475967824 ], [ -799930.143935721367598, 1703697.440950678661466 ], [ -614657.497436657547951, 794177.176318921148777 ], [ -277798.140165638178587, 86772.526049776934087 ], [ 92747.152832485735416, -570103.220628714188933 ], [ -159897.365120779722929, -1361722.710215613245964 ], [ -648343.43316376209259, -2069127.360484758391976 ], [ -1557863.697795517742634, -2726003.107163248583674 ], [ -2736871.448244091123343, -3046019.496570719406009 ], [ -3696920.616466505452991, -3248135.110933331307024 ], [ -4673812.752552467398345, -3424986.273500617127866 ], [ -5398060.37068516202271, -3366035.885978188831359 ], [ -5987564.245909448713064, -3071283.948366044554859 ], [ -6417059.926430000923574, -2616523.816050166729838 ], [ -6661282.960451491177082, -2279664.458779145497829 ], [ -6905505.99447298143059, -1749110.971077287103981 ], [ -7166571.996358023025095, -1134342.644057673402131 ], [ -7250786.835675777867436, -746954.383195999078453 ], [ -7174993.480289798229933, -266929.799084794707596 ], [ -7090778.640972042456269, 187830.333231084048748 ], [ -6922348.962336532771587, 853127.563841350376606 ], [ -6812869.671223450452089, 1173143.953248820733279 ], [ -6627597.024724388495088, 1526846.278383392840624 ], [ -6425481.410361776128411, 1947920.474972168914974 ], [ -6130729.472749632783234, 2402680.607288047671318 ] ] ] ] } },
{ "type": "Feature", "properties": { "id": 2 }, "geometry": { "type": "MultiPolygon", "coordinates": [ [ [ [ -6189096.193068868480623, 2312629.095938369631767 ], [ -6417059.926429997198284, 1653168.537360024638474 ], [ -6593911.088997283019125, 1240515.824703023768961 ], [ -6779183.735496344976127, 1004714.274613309185952 ], [ -6954939.255522292107344, 724395.905757599161007 ], [ -7225522.383880447596312, 339417.044003042392433 ], [ -7461323.933970162644982, -477466.897379183210433 ], [ -7436059.482174836099148, -822747.738581980578601 ], [ -7217100.899948672391474, -1370144.194147389382124 ], [ -7014985.285586060024798, -1951226.585439899936318 ], [ -6703390.380110365338624, -2481780.073141758330166 ], [ -6442324.378225323744118, -2886011.301866983994842 ], [ -6332845.087112242355943, -3315506.982387535274029 ], [ -6526539.217543079517782, -3930275.309407148510218 ], [ -6829712.639086998067796, -4418721.377450129017234 ], [ -7107621.608835591003299, -4637679.959676292724907 ], [ -7318158.707129978574812, -4730316.282925823703408 ], [ -7452902.450038387440145, -4764002.21865292545408 ], [ -7772918.839445857331157, -4730316.282925823703408 ], [ -7916084.066286041401327, -4452407.313177231699228 ], [ -7983455.937740245833993, -4006068.664793128147721 ], [ -8160307.100307531654835, -3584994.468204352073371 ], [ -8488744.973646776750684, -2784953.494685676880181 ], [ -8791918.395190697163343, -2052284.392621206119657 ], [ -8985612.52562153339386, -1816482.842531491536647 ], [ -9490901.561528064310551, -1437516.065601592883468 ], [ -9709860.143754228949547, -1083813.740467020776123 ], [ -9575116.400845820084214, 507846.72263855393976 ], [ -9170885.172120595350862, 1139458.017521718516946 ], [ -8404530.13432902097702, 2267936.864379639271647 ], [ -7873976.646627163514495, 2630060.673445986583829 ], [ -7368687.610720631666481, 2975341.514648783020675 ], [ -6930770.446268304251134, 3194300.096874946728349 ], [ -6568646.637201956473291, 3244829.000465600285679 ], [ -6181258.376340283080935, 3185878.612943171523511 ], [ -6088622.053090752102435, 3093242.289693640545011 ], [ -6054936.11736364942044, 2891126.675331028178334 ], [ -6189096.193068868480623, 2312629.095938369631767 ] ] ] ] } },
{ "type": "Feature", "properties": { "id": 3 }, "geometry": { "type": "MultiPolygon", "coordinates": [ [ [ [ -9455868.188371879979968, -1463791.095468731364235 ], [ -9238930.762289341539145, -1626494.165030634962022 ], [ -8858450.042429316788912, -1971289.343808973906562 ], [ -8536862.853411277756095, -2668668.618588134646416 ], [ -8350281.595601424574852, -3122236.0822320478037 ], [ -8148280.499656917527318, -3613629.231658195611089 ], [ -7981908.237247388809919, -4016322.180558304302394 ], [ -7857133.678763614036143, -4199762.79522396530956 ], [ -7629753.612605674192309, -4511357.700699659995735 ], [ -7504631.12668233551085, -4758557.094795667566359 ], [ -6324423.603180468082428, -6734629.458688398823142 ], [ -5667547.85650197789073, -7559934.884002400562167 ], [ -5381217.40282160975039, -8553669.987951911985874 ], [ -5953878.31018234603107, -9496876.188310772180557 ], [ -6492853.281815979629755, -9732677.738400487229228 ], [ -7739232.903718756511807, -9833735.545581793412566 ], [ -8598224.264759860932827, -9732677.738400487229228 ], [ -9440372.657937413081527, -9564248.059764975681901 ], [ -10299364.018978517502546, -9126330.895312648266554 ], [ -11815231.126698112115264, -8233653.598544443026185 ], [ -12623693.584148563444614, -7728364.562637910246849 ], [ -13347941.202281259000301, -7206232.558867828920484 ], [ -13937445.077505543828011, -6903059.137323909439147 ], [ -14981709.085045710206032, -6751472.426551950164139 ], [ -15402783.281634487211704, -6380927.133553827181458 ], [ -15722799.671041958034039, -5404034.997467865236104 ], [ -15857543.413950365036726, -4326085.054200598038733 ], [ -15689113.735314853489399, -3938696.793338923715055 ], [ -15402783.281634487211704, -3635523.37179500516504 ], [ -14156403.659731708467007, -3601837.436067902483046 ], [ -13179511.523645747452974, -3433407.757432392798364 ], [ -12286834.226877542212605, -3281821.046660432592034 ], [ -11697330.351653255522251, -2641788.267845492810011 ], [ -11040454.604974763467908, -1765953.938940837979317 ], [ -10821496.022748600691557, -1496466.453124021179974 ], [ -10316206.986842067912221, -1311193.806624959688634 ], [ -9455868.188371879979968, -1463791.095468731364235 ] ] ] ] } },
{ "type": "Feature", "properties": { "id": 4 }, "geometry": { "type": "MultiPolygon", "coordinates": [ [ [ [ -1448384.406682437285781, -5622993.579694028943777 ], [ -1515756.278136640787125, -5016646.736606191843748 ], [ -1414698.470955334603786, -4309242.086337046697736 ], [ -1162053.953002069145441, -3635523.37179500516504 ], [ -471492.270596474409103, -2726003.107163248118013 ], [ 219069.411809118464589, -1968069.553303450811654 ], [ 774887.351306302472949, -1614367.228168878704309 ], [ 1179118.580031527206302, -1782796.906804389320314 ], [ 1802308.39098291657865, -2355457.814165125135332 ], [ 2374969.29834365285933, -2776532.010753901675344 ], [ 3099216.916476348415017, -3214449.175206229090691 ], [ 3419233.305883817374706, -3618680.403931453824043 ], [ 3621348.920246431604028, -4342928.02206414937973 ], [ 3520291.113065123558044, -5185076.41524170152843 ], [ 3284489.562975410372019, -5572464.676103375852108 ], [ 2913944.269977286458015, -5740894.354738886468112 ], [ 2459184.137661408632994, -5690365.451148233376443 ], [ 1482292.001575447618961, -5690365.451148233376443 ], [ 1128589.676440874114633, -5808266.226193090900779 ], [ 589614.704807240515947, -5774580.290465989150107 ], [ -168318.849052555859089, -5656679.515421131625772 ], [ -774665.692140394821763, -5656679.515421131625772 ], [ -1448384.406682437285781, -5622993.579694028943777 ] ] ] ] } },
{ "type": "Feature", "properties": { "id": 5 }, "geometry": { "type": "MultiPolygon", "coordinates": [ [ [ [ -2223160.928405784070492, -7391505.20536688901484 ], [ -2256846.864132886752486, -6987273.976641664281487 ], [ -1886301.571134764701128, -6599885.715779989957809 ], [ -1431541.438818885013461, -6246183.390645418316126 ], [ -993624.274366557598114, -5976695.904828601516783 ], [ -235690.720506761223078, -5993538.87269215285778 ], [ 118011.604627812281251, -5993538.87269215285778 ], [ 912580.252011831151322, -5794765.637166275642812 ], [ 1650721.680210957303643, -5690365.451148233376443 ], [ 2662532.164306719787419, -5712959.676331046037376 ], [ 2990083.713744024280459, -5706285.51666309684515 ], [ 3419233.305883817374706, -5791423.258329539559782 ], [ 4025580.14897165633738, -6044067.77628280594945 ], [ 4008737.181108104065061, -6212497.454918316565454 ], [ 3806621.566745491698384, -6616728.683643541298807 ], [ 3553977.048792226240039, -6734629.458688398823142 ], [ 3301332.530838960781693, -7239918.494594929739833 ], [ 2324440.394752999767661, -7526248.948275297880173 ], [ 1431763.097984794527292, -7526248.948275297880173 ], [ -286219.624097414314747, -7526248.948275297880173 ], [ -993624.274366557598114, -7526248.948275297880173 ], [ -2223160.928405784070492, -7391505.20536688901484 ] ] ] ] } },
{ "type": "Feature", "properties": { "id": 6 }, "geometry": { "type": "MultiPolygon", "coordinates": [ [ [ [ -1503124.052238976582885, -6044067.776282807812095 ], [ -794826.850680305040441, -5655671.457494135946035 ], [ 142583.740603289799765, -5705042.140478707849979 ], [ 462713.824104342027567, -5754840.153467760421336 ], [ 1124378.934474987909198, -5471406.868922071531415 ], [ 2404444.492104867473245, -5370349.061740765348077 ], [ 3078163.206646909937263, -5269291.254559459164739 ], [ 3472317.694253767840564, -5263889.889003215357661 ], [ 4476129.539321647956967, -5117704.543787499889731 ], [ 5874095.871996385976672, -5016646.736606192775071 ], [ 6783616.136628143489361, -5084018.608060397207737 ], [ 7726822.336987001821399, -5555621.708239827305079 ], [ 8602656.665891656652093, -6650414.619370645843446 ], [ 8838458.215981371700764, -7408348.173230443149805 ], [ 8771086.34452716819942, -8418926.245043506845832 ], [ 8771086.34452716819942, -9513719.156174324452877 ], [ 8333169.180074840784073, -10776941.745940655469894 ], [ 7743665.304850554093719, -12107536.20716118812561 ], [ 6935202.847400102764368, -12949684.60033874027431 ], [ 5520393.546861814334989, -13505502.539835926145315 ], [ 4863517.800183322280645, -13572874.411290129646659 ], [ 3347650.692463727667928, -13151800.214701354503632 ], [ 955949.255839477293193, -12275965.885796697810292 ], [ -846248.305560485459864, -11383288.589028492569923 ], [ -1873669.345237100496888, -10120065.999262163415551 ], [ -2395801.349007182754576, -9092644.95958554930985 ], [ -2665288.834824, -8115752.823499587364495 ], [ -2429487.284734285436571, -7290447.39818558562547 ], [ -2210528.702508121728897, -6549356.812189339660108 ], [ -1907355.28096420224756, -6145125.583464113995433 ], [ -1503124.052238976582885, -6044067.776282807812095 ] ] ] ] } },
{ "type": "Feature", "properties": { "id": 7 }, "geometry": { "type": "MultiPolygon", "coordinates": [ [ [ [ 2975211.080341586377472, -5284734.073505257256329 ], [ 3398179.596054380759597, -4174498.34342864016071 ], [ 3527035.061060666572303, -4004970.026648493018001 ], [ 3869782.696233810856938, -3955539.761202476453036 ], [ 4206642.053504832088947, -4208184.279155742377043 ], [ 4695088.121547812595963, -4140812.407701537944376 ], [ 5065633.414545934647322, -4090283.504110884852707 ], [ 5773038.064815079793334, -3955539.761202476453036 ], [ 6278327.100721610710025, -3702895.243249210529029 ], [ 6699401.297310387715697, -3500779.628886598162353 ], [ 6952045.815263653174043, -3534465.564613699913025 ], [ 7204690.333216920495033, -3888167.889748272486031 ], [ 7356277.043988879770041, -4511357.700699660927057 ], [ 7201321.739644209854305, -5292871.40956843085587 ], [ 7103632.52603561244905, -5690365.451148235239089 ], [ 6749930.200901040807366, -6128282.615600562654436 ], [ 6042525.550631897523999, -6515670.876462236978114 ], [ 4930889.671637527644634, -6448299.005008032545447 ], [ 4012864.542044964618981, -6171223.845549715682864 ], [ 3583452.242553442716599, -6044067.776282807812095 ], [ 3372865.599174763541669, -5782224.503611452877522 ], [ 3187094.524490457959473, -5616735.148141990415752 ], [ 2975211.080341586377472, -5284734.073505257256329 ] ] ] ] } },
{ "type": "Feature", "properties": { "id": 8 }, "geometry": { "type": "MultiPolygon", "coordinates": [ [ [ [ 4577187.346502956002951, -452202.445583857595921 ], [ 5284591.996772099286318, -620632.124219367746264 ], [ 5570922.450452467426658, -839590.706445531919599 ], [ 6042525.550631897523999, -1176450.063716552685946 ], [ 6413070.843630019575357, -1395408.645942716859281 ], [ 6766773.168764593079686, -1614367.228168880566955 ], [ 6985731.750990755856037, -2001755.489030554890633 ], [ 6901516.911673, -2507044.524937086738646 ], [ 6615186.457992633804679, -3096548.400161373429 ], [ 6177269.293540306389332, -3399721.821705291979015 ], [ 5621451.354043120518327, -3635523.371795007027686 ], [ 5149848.253863690420985, -3736581.178976313211024 ], [ 4560344.378639403730631, -3888167.889748273417354 ], [ 4071898.310596423223615, -3837638.986157620325685 ], [ 3802410.824779607355595, -3568151.500340802595019 ], [ 3499237.403235686942935, -2894432.785798761062324 ], [ 3263435.853145972825587, -2203871.103393167257309 ], [ 3532923.338962789624929, -1664896.131759533658624 ], [ 3953997.535551566630602, -923805.54576328676194 ], [ 4577187.346502956002951, -452202.445583857595921 ] ] ] ] } },
{ "type": "Feature", "properties": { "id": 9 }, "geometry": { "type": "MultiPolygon", "coordinates": [ [ [ [ 6677218.418895645067096, -2968835.539478702004999 ], [ 6312013.036448713392019, -2928118.721525864675641 ], [ 6042525.550631897523999, -2439672.653482884168625 ], [ 6042525.550631897523999, -1648053.163895984180272 ], [ 5932591.044171152636409, -1097925.416244592051953 ], [ 5991996.64704124443233, -637475.092082920949906 ], [ 6278327.10072161257267, -233243.863357695285231 ], [ 6632029.425856184214354, 709962.337001163512468 ], [ 6952045.815263655036688, 1484738.858724512392655 ], [ 7255219.236807573586702, 2091085.701812350191176 ], [ 7726822.336987003684044, 2680589.577036637812853 ], [ 7844723.112031860277057, 2798490.352081494871527 ], [ 8417384.019392596557736, 3118506.7414889652282 ], [ 8855301.183844923973083, 2832176.28780859708786 ], [ 9091102.733934639021754, 2310044.284038514364511 ], [ 9091102.733934639021754, 1787912.280268431641161 ], [ 9091102.733934639021754, 1484738.858724512159824 ], [ 9057416.79820753633976, 305731.108275938779116 ], [ 9377433.187615007162094, -671161.027810023166239 ], [ 9613234.73770472034812, -1429094.581669820472598 ], [ 9259532.412570148706436, -1934383.617576352320611 ], [ 8636342.601618759334087, -2439672.653482884168625 ], [ 7322591.108261777088046, -2911275.753662314265966 ], [ 6677218.418895645067096, -2968835.539478702004999 ] ] ] ] } },
{ "type": "Feature", "properties": { "id": 10 }, "geometry": { "type": "MultiPolygon", "coordinates": [ [ [ [ 6155850.490476830862463, -406152.018997387262061 ], [ 5806724.000542182475328, -637475.092082920484245 ], [ 5121403.155776536092162, -581777.638268043170683 ], [ 4518139.171196831390262, -496887.551220924942754 ], [ 4223485.021368382498622, -401673.541993205435574 ], [ 3633981.146144095808268, 2557.686732019297779 ], [ 3297121.788873074576259, 524689.690502102486789 ], [ 2926576.495874951593578, 1164722.469317042268813 ], [ 2572874.170740379020572, 2040556.798221697099507 ], [ 2269700.749196460470557, 2832176.28780859708786 ], [ 2404444.492104868404567, 3337465.323715128935874 ], [ 2724460.881512339226902, 4078555.909711375366896 ], [ 3027634.303056257776916, 4398572.299118845723569 ], [ 3701353.017598299309611, 4785960.559980520047247 ], [ 4678245.153684262186289, 4870175.399298274889588 ], [ 5335120.900362752377987, 4785960.559980520047247 ], [ 5941467.743450591340661, 4129084.813302028458565 ], [ 6598343.490129081532359, 3337465.323715128935874 ], [ 7288905.172534674406052, 2646903.64130953559652 ], [ 7238376.268944023177028, 2057399.766085248440504 ], [ 7238376.268944021314383, 1400524.019406757317483 ], [ 7154161.429626267403364, 945763.887090878561139 ], [ 6766773.168764593079686, 103615.493913325481117 ], [ 6155850.490476830862463, -406152.018997387262061 ] ] ] ] } },
{ "type": "Feature", "properties": { "id": 11 }, "geometry": { "type": "MultiPolygon", "coordinates": [ [ [ [ 9088671.081967389211059, 1399631.039870762499049 ], [ 8670028.537345863878727, 2057399.766085248440504 ], [ 8316326.212211292237043, 2461630.994810474105179 ], [ 7819458.660236534662545, 2773225.900286169257015 ], [ 7221533.301080472767353, 3135349.709352516569197 ], [ 6665715.361583288758993, 3606952.809531945735216 ], [ 5907781.807723490521312, 4785960.559980520047247 ], [ 4358228.764276789501309, 6537629.217789828777313 ], [ 2707617.913648786023259, 8154554.132690729573369 ], [ 753833.641476862132549, 10074652.469135550782084 ], [ -627289.723334324546158, 11321032.091038329526782 ], [ -863091.273424038663507, 13005328.877393433824182 ], [ -458860.044698813930154, 14453824.113658826798201 ], [ 686461.770022658631206, 15228600.635382175445557 ], [ 1798097.649017028510571, 15430716.249744787812233 ], [ 3280278.821009520441294, 14790683.470929846167564 ], [ 5436178.70754405669868, 14083278.820660702884197 ], [ 7457334.851170184090734, 13577989.784754170104861 ], [ 9377433.187615003436804, 12668469.520122414454818 ], [ 11095415.909697212278843, 11051544.605221511796117 ], [ 12004936.174328967928886, 9097760.333049589768052 ], [ 12712340.824598114937544, 7716636.968238402158022 ], [ 13150257.989050440490246, 6301827.667700113728642 ], [ 13082886.117596235126257, 5257563.660159949213266 ], [ 12644968.953143909573555, 3876440.295348763465881 ], [ 11465961.202695336192846, 2293201.31617496162653 ], [ 10657498.745244884863496, 1518424.794451612979174 ], [ 9781664.416340230032802, 1046821.694272182881832 ], [ 9088671.081967389211059, 1399631.039870762499049 ] ] ] ] } }
]
}
