{
"type": "FeatureCollection",
"name": "map014",
"crs": { "type": "name", "properties": { "name": "urn:ogc:def:crs:ESRI::102016" } },
"features": [
{ "type": "Feature", "properties": { "id": 1 }, "geometry": { "type": "MultiPolygon", "coordinates": [ [ [ [ 4475235.152679722756147, 9455463.960596745833755 ], [ 3497422.146046157926321, 8410215.574195351451635 ], [ 1744102.272082529962063, 7364967.187793958932161 ], [ -380112.190604172646999, 6589460.320463892072439 ], [ -1492795.956773396581411, 6286001.111508648842573 ], [ -2807785.862246118485928, 6184848.041856899857521 ], [ -3853034.248647514730692, 6758048.769883472472429 ], [ -4898282.635048907250166, 7398684.87767787463963 ], [ -5774942.572030721232295, 7533555.637213537469506 ], [ -7258520.926923023536801, 7803297.156284864991903 ], [ -8640946.212163576856256, 7331249.497910043224692 ], [ -9719912.288448885083199, 7331249.497910043224692 ], [ -10562854.535546785220504, 7533555.637213537469506 ], [ -10664007.605198532342911, 8005603.295588361099362 ], [ -10664007.605198532342911, 8545086.333731016144156 ], [ -9551323.839029306545854, 9320593.201061083003879 ], [ -8236333.933556584641337, 9826358.549319822341204 ], [ -6584167.129244703799486, 10601865.416649887338281 ], [ -4797129.565397160127759, 11647113.8030512817204 ], [ -3010092.001549616456032, 12692362.189452676102519 ], [ -1020748.298398576676846, 13265562.917479246854782 ], [ 800006.955332886427641, 13063256.778175750747323 ], [ 2047561.481037773191929, 12928386.018640086054802 ], [ 3126527.557323083281517, 12523773.740033095702529 ], [ 4070622.874072730541229, 11748266.872703028842807 ], [ 4576388.222331468015909, 10905324.625605130568147 ], [ 4711258.981867134571075, 10433276.967230308800936 ], [ 4475235.152679722756147, 9455463.960596745833755 ] ] ] ] } },
{ "type": "Feature", "properties": { "id": 2 }, "geometry": { "type": "MultiPolygon", "coordinates": [ [ [ [ -93511.8265908844769, 13754469.42079603113234 ], [ -13432.313116583973169, 14277093.613996727392077 ], [ 306885.740780617110431, 14698564.737545676529408 ], [ 998098.383400893770158, 15069459.326268751174212 ], [ 2296229.443931656889617, 15187471.240862457081676 ], [ 3526925.124694587662816, 14951447.411675047129393 ], [ 5448833.448077796027064, 14243375.924112811684608 ], [ 7539330.220880584791303, 13299280.607363164424896 ], [ 8786884.746585473418236, 12321467.60072960332036 ], [ 10186168.876767985522747, 10618724.261591847985983 ], [ 11332570.332821127027273, 9337452.046003043651581 ], [ 12563266.013584058731794, 7803297.156284868717194 ], [ 12883584.067481260746717, 6538883.785638021305203 ], [ 12816148.687713429331779, 5561070.779004458338022 ], [ 12327242.184396646916866, 4734987.376848518848419 ], [ 11703464.921544201672077, 4448387.012835232540965 ], [ 10809946.139620430767536, 4836140.446500265970826 ], [ 9781556.598160993307829, 5830812.298075785860419 ], [ 9208355.870134422555566, 6269142.266566693782806 ], [ 8483425.53763023018837, 6859201.839535221457481 ], [ 7370741.771461004391313, 8140474.055124027654529 ], [ 6532014.235598595812917, 9556617.030248496681452 ], [ 6043107.732281815260649, 10146676.603217026218772 ], [ 5587918.91884895041585, 10821030.400895344093442 ], [ 5065294.725648252293468, 11579678.423283454030752 ], [ 3649151.750523783266544, 12844091.793930299580097 ], [ 2620762.209064347669482, 13130692.157943585887551 ], [ 1406925.373243374750018, 13316139.452305123209953 ], [ 648277.350855266675353, 13332998.29724708199501 ], [ -93511.8265908844769, 13754469.42079603113234 ] ] ] ] } },
{ "type": "Feature", "properties": { "id": 3 }, "geometry": { "type": "MultiPolygon", "coordinates": [ [ [ [ 4400827.489785922691226, 9375924.734744753688574 ], [ 4976785.789702970534563, 9843217.394261781126261 ], [ 5735433.812091078609228, 9893793.929087653756142 ], [ 6443686.862722028046846, 9663219.031996078789234 ], [ 6978748.558899540454149, 8802331.941659966483712 ], [ 7607950.312215596437454, 7867324.826376315206289 ], [ 8214369.553903956897557, 7169023.881401839666069 ], [ 9213987.755016779527068, 6264835.53106842096895 ], [ 9715225.509546564891934, 5881536.071722113527358 ], [ 10253604.25653581507504, 4515822.392603062093258 ], [ 10624498.845258889719844, 3487432.851143626496196 ], [ 10607640.000316930934787, 2290454.860264610499144 ], [ 10321039.636303646489978, 1228347.628921259194613 ], [ 9730980.063335116952658, 722582.280662519857287 ], [ 9191497.025192461907864, 638288.055952729657292 ], [ 8584578.607281975448132, 402264.226765317842364 ], [ 8179966.328674985095859, 334828.846997486427426 ], [ 7927083.654545614495873, 317970.002055527642369 ], [ 7438177.151228833943605, 553993.831242939457297 ], [ 6881835.268144220113754, 688864.590778604149818 ], [ 6713246.818724641576409, 621429.21101077273488 ], [ 6797541.043434431776404, -137218.81137733720243 ], [ 6662670.283898767083883, -811572.6090556550771 ], [ 6190622.625523943454027, -1182467.197778729721904 ], [ 5853445.726684784516692, -1401632.18202418461442 ], [ 5533127.672787584364414, -1553361.786501806229353 ], [ 5263386.153716256842017, -1047596.438243066892028 ], [ 4993644.63464492931962, -659843.004578033462167 ], [ 4639608.890863811597228, -356383.795622790232301 ], [ 4353008.526850525289774, 317970.002055527642369 ], [ 4100125.852721156552434, 1430653.768224754370749 ], [ 3880960.868475703522563, 1936419.116483492776752 ], [ 3543783.969636542722583, 2475902.154626147821546 ], [ 3459489.744926754385233, 2914232.12311705481261 ], [ 3931537.403301576152444, 3268267.866898172535002 ], [ 4049549.317895282059908, 3554868.230911457911134 ], [ 3864102.023533744737506, 3689738.990447121672332 ], [ 3206607.070797383785248, 3487432.851143626496196 ], [ 2768277.102306477725506, 3032244.037710760720074 ], [ 2414241.358525360003114, 2829937.898407265543938 ], [ 2279370.598989696241915, 3032244.037710760720074 ], [ 2296229.44393165409565, 3639162.455621248111129 ], [ 2650265.187712771818042, 4111210.113996070809662 ], [ 3189748.225855426862836, 4701269.68696459941566 ], [ 4066408.162837240844965, 5021587.740861801430583 ], [ 4639608.890863811597228, 5510494.244178581982851 ], [ 4622750.045921852812171, 6100553.817147111520171 ], [ 4032690.472953325137496, 7246955.273200253024697 ], [ 4167561.232488987967372, 8629380.558440806344151 ], [ 4400827.489785922691226, 9375924.734744753688574 ] ] ] ] } },
{ "type": "Feature", "properties": { "id": 4 }, "geometry": { "type": "MultiPolygon", "coordinates": [ [ [ [ 2316460.057862002868205, 3666136.607528379652649 ], [ 2281216.363046564627439, 3098691.543758015614003 ], [ 2445106.013111405074596, 2847574.843885005451739 ], [ 2808834.32359033357352, 3074361.15212091896683 ], [ 3007564.707881228066981, 3280735.012730694841594 ], [ 3328628.656620526686311, 3524977.954473824240267 ], [ 3872121.365992620587349, 3683906.74138612113893 ], [ 4030503.37955544795841, 3568719.822431337554008 ], [ 3928839.988110862672329, 3266244.805505137424916 ], [ 3578176.013318136800081, 3003246.824410592205822 ], [ 3494556.142406025901437, 2940531.921226508449763 ], [ 3645126.464512357488275, 2313754.162824844941497 ], [ 4093975.2918910686858, 1444847.370140341576189 ], [ 4259937.10389001108706, 727484.263081792392768 ], [ 4455116.544309996068478, 77715.843327361450065 ], [ 4677095.028440634720027, -388514.770688638847787 ], [ 4234996.61225681938231, -828431.453997612930834 ], [ 3577501.659520458430052, -1637656.011211594566703 ], [ 3307760.140449130907655, -2396304.033599704504013 ], [ 3223465.91573934070766, -2902069.381858441978693 ], [ 3510066.279752627015114, -3407834.730117181316018 ], [ 3864102.023533742874861, -3475270.109885012730956 ], [ 3594360.504462415352464, -3745011.628956340253353 ], [ 3324618.985391087830067, -4031611.992969626560807 ], [ 2903147.861842138692737, -4301353.512040954083204 ], [ 3054877.46631976030767, -3829305.853666130453348 ], [ 2886289.016900181770325, -3508987.79976893030107 ], [ 2363664.823699483647943, -3475270.109885012730956 ], [ 1874758.320382703095675, -3222387.435755643993616 ], [ 1571299.111427459865808, -2514315.948193410411477 ], [ 1132969.142936552874744, -1806244.460631174966693 ], [ 542909.569968024268746, -845290.298939570784569 ], [ 3426.531825369223952, 301111.157113570719957 ], [ -249456.14230400044471, 1616101.062586292624474 ], [ -434903.436665537767112, 2442184.464742233045399 ], [ -198879.607478126883507, 3133397.107362509239465 ], [ 54003.066651242785156, 3554868.230911458376795 ], [ 677780.329503688029945, 3993198.19940236536786 ], [ 1335275.28224004805088, 4161786.648821945302188 ], [ 2043346.769802283495665, 4144927.803879986982793 ], [ 2316460.057862002868205, 3666136.607528379652649 ] ] ] ] } },
{ "type": "Feature", "properties": { "id": 5 }, "geometry": { "type": "MultiPolygon", "coordinates": [ [ [ [ 3855672.601062763482332, -3483699.532355992123485 ], [ 3590634.589059489313513, -3423181.074747059959918 ], [ 3238892.680496994871646, -2929293.084371949080378 ], [ 3338151.885473826900125, -2310827.250717747025192 ], [ 3663620.606271023862064, -1531663.461364744696766 ], [ 4066408.16283723898232, -794713.764113697223365 ], [ 4615235.681930099613965, -450068.844515631324612 ], [ 5086765.592184201814234, -793704.381040738080628 ], [ 5365122.574404058046639, -1238352.227032693568617 ], [ 5486459.589903270825744, -1465859.131093718577176 ], [ 6092254.67261128872633, -1246406.367171955760568 ], [ 6667209.203690832480788, -788878.010095327394083 ], [ 6788463.203850300982594, -182608.009297992510255 ], [ 6724554.580575955100358, 519659.35434895317303 ], [ 6812074.530453358776867, 660960.295702259521931 ], [ 7236002.607419245876372, 603005.841863445821218 ], [ 7778573.000211199745536, 389664.800699728017207 ], [ 7809071.739951906725764, -137218.811377336271107 ], [ 8432849.002804351970553, -727278.384345864877105 ], [ 9410662.009437914937735, -1334196.802256352268159 ], [ 9258932.404960293322802, -2092844.824644461274147 ], [ 8297978.243268689140677, -2463739.413367535918951 ], [ 7235871.011925335973501, -2699763.242554947733879 ], [ 6510940.679421143606305, -3475270.109885012730956 ], [ 6005175.331162406131625, -3138093.211045853793621 ], [ 5280244.998658211901784, -3087516.67621998116374 ], [ 4420443.906618356704712, -3272963.970581518486142 ], [ 3855672.601062763482332, -3483699.532355992123485 ] ] ] ] } },
{ "type": "Feature", "properties": { "id": 6 }, "geometry": { "type": "MultiPolygon", "coordinates": [ [ [ [ 2921215.086421555373818, -4245144.368904991075397 ], [ 3382031.85917507763952, -3970610.814574137330055 ], [ 3796666.643765911925584, -3542705.489652843680233 ], [ 4556268.472958230413496, -3243668.475880761630833 ], [ 5360619.405814221128821, -3093124.192998307291418 ], [ 6075204.379382846876979, -3184779.243192814290524 ], [ 6487597.663347663357854, -3459708.099169359542429 ], [ 6797541.043434429913759, -4115906.217679414898157 ], [ 6797541.043434429913759, -4857695.39512556605041 ], [ 6645811.438956808298826, -5464613.813036052510142 ], [ 6426646.454711355268955, -6004096.851178707554936 ], [ 5853445.726684782654047, -6206402.990482203662395 ], [ 5044221.169470801949501, -6088391.075888497754931 ], [ 4403585.061676397919655, -5953520.31635283306241 ], [ 3628078.194346331059933, -5700637.64222346432507 ], [ 2987442.086551928892732, -5498331.502919968217611 ], [ 2464817.893351232632995, -5329743.053500387817621 ], [ 2431100.203467316925526, -4840836.550183607265353 ], [ 2667124.032654728740454, -4402506.581692700274289 ], [ 2921215.086421555373818, -4245144.368904991075397 ] ] ] ] } },
{ "type": "Feature", "properties": { "id": 7 }, "geometry": { "type": "MultiPolygon", "coordinates": [ [ [ [ 2893359.880235873628408, -5467982.404108337126672 ], [ 3810774.49393305927515, -5760212.522523484192789 ], [ 4620245.814312434755266, -5999133.106381472200155 ], [ 5479613.557670077309012, -6151885.799167558550835 ], [ 5839173.385365451686084, -6204321.607373134233057 ], [ 6429585.800686146132648, -5996861.53800999186933 ], [ 6638830.492266674526036, -5481797.681811765767634 ], [ 6957700.07038302719593, -5388749.010797244496644 ], [ 7488753.686054703779519, -5835508.401759130880237 ], [ 7379171.193931976333261, -6838609.675805630162358 ], [ 7058853.14003477524966, -7555110.585838843137026 ], [ 6755393.931079532019794, -7959722.864445834420621 ], [ 6207481.470465897582471, -8170458.426220308989286 ], [ 5524698.250316600315273, -8212605.538575204089284 ], [ 4900920.987464156001806, -8364335.143052825704217 ], [ 4454161.596502269618213, -8448629.367762615904212 ], [ 4159131.810018004849553, -8499205.902588490396738 ], [ 3998972.783069404307753, -8288470.34081401489675 ], [ 3535354.547165560070425, -8136740.736336393281817 ], [ 3333048.407862064894289, -7917575.752090939320624 ], [ 3156030.535971506033093, -6847039.098276608623564 ], [ 2936865.55172605253756, -6155826.455656331963837 ], [ 2827283.059603325556964, -5784931.866933256387711 ], [ 2893359.880235873628408, -5467982.404108337126672 ] ] ] ] } },
{ "type": "Feature", "properties": { "id": 8 }, "geometry": { "type": "MultiPolygon", "coordinates": [ [ [ [ 4159131.810018004849553, -8499205.902588490396738 ], [ 4849472.243575454689562, -8374042.453220505267382 ], [ 5488992.379408494569361, -8221290.750417715869844 ], [ 6263402.432940897531807, -8148950.363729923963547 ], [ 6780682.198492469266057, -8119881.891394436359406 ], [ 7202153.322041418403387, -8263182.07340107858181 ], [ 7075711.984976733103395, -8617217.817182196304202 ], [ 6746964.508608552627265, -9139842.010382892563939 ], [ 7008276.605208901688457, -9502307.17663498967886 ], [ 6704817.396253658458591, -9696183.893467504531145 ], [ 6190622.625523939728737, -9814195.808061212301254 ], [ 5566845.36267149541527, -10513837.87315246835351 ], [ 5246527.30877429433167, -10867873.616933584213257 ], [ 4386726.216734437271953, -11103897.446120996028185 ], [ 3661795.884230244904757, -11255627.050598617643118 ], [ 2962153.819138989318162, -11415786.077547218650579 ], [ 2523823.850648082327098, -11685527.596618546172976 ], [ 2338376.556286544539034, -11870974.890980083495378 ], [ 1975911.390034448355436, -11457933.189902111887932 ], [ 1520722.576601583277807, -10825726.504578689113259 ], [ 1352134.127182003576308, -10050219.637248624116182 ], [ 1529151.999072562204674, -9578171.978873800486326 ], [ 2709271.145009620115161, -9190418.545208767056465 ], [ 3316189.562920106574893, -8802665.111543733626604 ], [ 4159131.810018004849553, -8499205.902588490396738 ] ] ] ] } },
{ "type": "Feature", "properties": { "id": 9 }, "geometry": { "type": "MultiPolygon", "coordinates": [ [ [ [ 2338376.556286544539034, -11870974.890980083495378 ], [ 2799896.481017355341464, -11515636.747160531580448 ], [ 2962153.819138989318162, -11415786.077547218650579 ], [ 3729781.578625716269016, -11241397.486655378714204 ], [ 4315735.629769001156092, -11118755.941067250445485 ], [ 4783888.537404974922538, -10994872.495348691940308 ], [ 5201646.736933815293014, -10880193.773909401148558 ], [ 5653059.300578073598444, -10417138.456311305984855 ], [ 6207294.245611423626542, -9810369.534598510712385 ], [ 6654933.80859032087028, -9707632.585718106478453 ], [ 6992480.098441367968917, -9512399.389292024075985 ], [ 6783139.030166395008564, -9190019.572543770074844 ], [ 6942497.257367335259914, -8828995.076458675786853 ], [ 7097453.029358896426857, -8556342.892912140116096 ], [ 7193380.619922299869359, -8287745.639334609732032 ], [ 6787935.914494746364653, -8122348.154835210181773 ], [ 7655234.779856538400054, -7850140.372323107905686 ], [ 8346447.422476815059781, -7361233.869006326422095 ], [ 8683624.321315973997116, -7167357.152173809707165 ], [ 9189389.669574715197086, -7217933.686999684199691 ], [ 9459131.188646040856838, -7597257.698193738237023 ], [ 9653007.905478559434414, -8288470.34081401489675 ], [ 9366407.541465271264315, -8920677.026137439534068 ], [ 8742630.278612827882171, -9409583.529454220086336 ], [ 7933405.72139884531498, -10168231.551842328161001 ], [ 7427640.373140105977654, -10851014.7719916254282 ], [ 6888157.33499745093286, -11626521.639321692287922 ], [ 6331815.451912838965654, -12452605.04147763364017 ], [ 5235990.530685570091009, -13177535.373981826007366 ], [ 4359330.59370375610888, -13464135.73799511231482 ], [ 3870424.090386974625289, -13346123.823401406407356 ], [ 2774599.169159706681967, -12469463.886419590562582 ], [ 2338376.556286544539034, -11870974.890980083495378 ] ] ] ] } },
{ "type": "Feature", "properties": { "id": 10 }, "geometry": { "type": "MultiPolygon", "coordinates": [ [ [ [ 2504408.769438418094069, -5342514.303851093165576 ], [ 2885405.427420154679567, -5506137.380738166160882 ], [ 2832970.416973590385169, -5804181.384186460636556 ], [ 3008671.700956201180816, -6382292.003228338435292 ], [ 3173937.971563331317157, -6955336.446855742484331 ], [ 3231818.649288319051266, -7305376.735954478383064 ], [ 3338865.517298906110227, -7923877.620647517032921 ], [ 3535354.547165560070425, -8136740.736336393281817 ], [ 3896911.706801829393953, -8255068.534035535529256 ], [ 4007865.994758487213403, -8300171.935141755267978 ], [ 4113537.111631248611957, -8515619.994007723405957 ], [ 3664306.204449117183685, -8677343.120593288913369 ], [ 3283432.596254801843315, -8823593.173579899594188 ], [ 2747349.040270307101309, -9166091.00101443938911 ], [ 2194694.418500226456672, -9359493.755347568541765 ], [ 1819834.321397913852707, -9482662.072966899722815 ], [ 1522137.10297513846308, -9596878.36846693046391 ], [ 547124.281203511171043, -9831054.653003167361021 ], [ -270529.698481449857354, -9839484.07547414675355 ], [ -1020748.298398579936475, -9687754.470996525138617 ], [ -1568660.759012213908136, -9502307.176634987816215 ], [ -2243014.556690532248467, -9122983.165440931916237 ], [ -2740350.482478292193264, -8566641.282356319949031 ], [ -2925797.776839829981327, -7883858.062207022681832 ], [ -2715062.215065355412662, -7209504.26452870387584 ], [ -2209296.866806616540998, -6661591.80391507036984 ], [ -1585519.60395417176187, -6383420.862372763454914 ], [ -607706.597320609726012, -6155826.455656331032515 ], [ -788.17941012326628, -5970379.161294793710113 ], [ 648277.350855259224772, -5784931.866933255456388 ], [ 1036030.784520291723311, -5793361.289404234848917 ], [ 1415354.795714346691966, -5961949.738823814317584 ], [ 2030702.636095812544227, -5945090.89388185646385 ], [ 2452173.759644761681557, -5666919.952339550480247 ], [ 2504408.769438418094069, -5342514.303851093165576 ] ] ] ] } },
{ "type": "Feature", "properties": { "id": 11 }, "geometry": { "type": "MultiPolygon", "coordinates": [ [ [ [ -595928.011228485614993, -6152227.443239293061197 ], [ -1130330.790521305520087, -6054673.386004583910108 ], [ -1265201.550056969281286, -5827078.979288151487708 ], [ -1265201.550056969281286, -5515190.347861928865314 ], [ -1315778.084882843308151, -5203301.716435706242919 ], [ -1206195.592760116327554, -4739683.480531862005591 ], [ -1189336.747818158473819, -4343500.624395850114524 ], [ -1501225.379244380630553, -3761870.473898299969733 ], [ -2006990.727503119967878, -3079087.253749001771212 ], [ -2428461.851052069105208, -2404733.456070682965219 ], [ -2445320.695994026958942, -1856820.995457048993558 ], [ -2318879.358929342590272, -1494355.82920495280996 ], [ -2099714.374683888629079, -1022308.170830129645765 ], [ -1897408.235380392987281, -820002.031526634003967 ], [ -1425360.577005569823086, -482825.132687474600971 ], [ -894306.961333894170821, -305807.260796915972605 ], [ -472835.837784944567829, -390101.485506705706939 ], [ 125653.157654562965035, -558689.934926285408437 ], [ 517883.975776562350802, -792110.911282714223489 ], [ 709910.672844957211055, -1117263.523624861612916 ], [ 1038175.821955075371079, -1651866.766461340012029 ], [ 1272462.266105892602354, -2031579.505750877782702 ], [ 1504381.933860712684691, -2406218.969047126360238 ], [ 1652613.971298369113356, -2704050.621225531678647 ], [ 1836171.912347445962951, -3132352.483673377428204 ], [ 2106255.091066704131663, -3342127.14473012695089 ], [ 2468054.267470918595791, -3482004.912708976771683 ], [ 2854200.433017133269459, -3506917.568550669122487 ], [ 2982468.544443238526583, -3691728.902100739069283 ], [ 3024312.282990019302815, -3924397.535136435646564 ], [ 2916610.575303014367819, -4259469.514607119373977 ], [ 2687859.774215719196945, -4389664.641264423727989 ], [ 2474001.323795531876385, -4761163.041002636775374 ], [ 2524837.084991821087897, -5351287.461768473498523 ], [ 2383827.090961149893701, -5712028.753670734353364 ], [ 1778932.715279696043581, -5951988.699931613169611 ], [ 1308987.650307354982942, -5914675.451976262964308 ], [ 698853.885681134648621, -6063102.808475562371314 ], [ 32929.510473794303834, -6147397.033185352571309 ], [ -595928.011228485614993, -6152227.443239293061197 ] ] ] ] } },
{ "type": "Feature", "properties": { "id": 12 }, "geometry": { "type": "MultiPolygon", "coordinates": [ [ [ [ -326385.288243195624091, 2759987.613693378400058 ], [ -405637.765311100170948, 2311819.201436101458967 ], [ -620350.731027076020837, 1734112.977179998531938 ], [ -1024963.00963406637311, 1076618.024443637579679 ], [ -1631881.427544554695487, 250534.622287697158754 ], [ -1867905.25673196464777, -221513.03608712553978 ], [ -2002776.016267629340291, -710419.53940390702337 ], [ -2103681.421880356036127, -1030852.580176367540844 ], [ -2313877.429855534806848, -1483582.443507520481944 ], [ -2409991.498873012140393, -1755543.963710139505565 ], [ -2795141.728539653122425, -2413162.878541662357748 ], [ -3418918.991392098367214, -3171810.900929771363735 ], [ -4346155.463199786841869, -2986363.606568233110011 ], [ -5509415.764194887131453, -2767198.622322779148817 ], [ -6150051.871989290229976, -2531174.793135367333889 ], [ -6689534.91013194527477, -2312009.808889914304018 ], [ -6976135.274145230650902, -2059127.134760544635355 ], [ -7245876.793216558173299, -1570220.631443763151765 ], [ -7229017.948274600319564, -777854.919171739369631 ], [ -7026711.808971104212105, 31369.63804224319756 ], [ -6807546.824725651182234, 908029.575024058111012 ], [ -6537805.305654323659837, 1970136.806367410346866 ], [ -6150051.871989290229976, 2695067.138871602714062 ], [ -5947745.732685794122517, 2931090.96805901452899 ], [ -5020509.260878105647862, 3251409.021956216078252 ], [ -4379873.153083703480661, 3386279.78149187983945 ], [ -3503213.216101888567209, 3386279.78149187983945 ], [ -2592835.589236158877611, 3251409.021956216078252 ], [ -2036493.70615154504776, 3403138.626433837693185 ], [ -1665599.117428470402956, 3656021.300563207361847 ], [ -1142974.924227772280574, 3689738.990447123069316 ], [ -367468.056897705420852, 3588585.920795375481248 ], [ -152765.708078064606525, 3210253.606362612918019 ], [ -326385.288243195624091, 2759987.613693378400058 ] ] ] ] } },
{ "type": "Feature", "properties": { "id": 13 }, "geometry": { "type": "MultiPolygon", "coordinates": [ [ [ [ -7049520.834480811841786, -59866.463996587437578 ], [ -7583053.692055717110634, -524972.245042369700968 ], [ -7886512.9010109603405, -1064455.283185024745762 ], [ -8206830.954908162355423, -1688232.546037469059229 ], [ -8527149.008805364370346, -2413162.878541662357748 ], [ -8982337.822238229215145, -2328868.653831872157753 ], [ -9420667.790729135274887, -1755667.925805301405489 ], [ -9488103.17049696855247, -1283620.267430477775633 ], [ -9437526.635671094059944, -575548.779868243262172 ], [ -8813749.372818648815155, 570852.676184898242354 ], [ -8425995.939153615385294, 1481230.303050628863275 ], [ -7785359.831359213218093, 2425325.619800275191665 ], [ -7296453.328042431734502, 2846796.743349224794656 ], [ -6402934.546118659898639, 3049102.882652720436454 ], [ -6028668.188407192006707, 2836681.436384050175548 ], [ -6544955.8500652089715, 1941981.537749551003799 ], [ -6810521.915009526535869, 896129.213888558442704 ], [ -7049520.834480811841786, -59866.463996587437578 ] ] ] ] } },
{ "type": "Feature", "properties": { "id": 14 }, "geometry": { "type": "MultiPolygon", "coordinates": [ [ [ [ -8522365.9790412876755, -2402338.126970333047211 ], [ -8179428.023129673674703, -1634868.942047780612484 ], [ -7804569.909868743270636, -918778.854487750213593 ], [ -7519684.980555330403149, -469730.747470471193083 ], [ -7053487.621525978669524, -75733.612177253700793 ], [ -7230398.695303782820702, -842750.029543339158408 ], [ -7245129.206427277065814, -1535084.052347537828609 ], [ -7165962.48720180708915, -1715065.311095498735085 ], [ -6886921.153051600791514, -2137845.476901982910931 ], [ -6942417.584261314943433, -2885210.536916485056281 ], [ -6790687.9797836933285, -3896741.233433963730931 ], [ -6925558.739319356158376, -4587953.876054240390658 ], [ -7380747.552752221934497, -4739683.480531862005591 ], [ -7633630.22688159160316, -4587953.876054240390658 ], [ -7886512.9010109603405, -3812447.008724173530936 ], [ -7903371.745952919125557, -3138093.211045855656266 ], [ -8055101.35043054074049, -2649186.707729073241353 ], [ -8522365.9790412876755, -2402338.126970333047211 ] ] ] ] } },
{ "type": "Feature", "properties": { "id": 15 }, "geometry": { "type": "MultiPolygon", "coordinates": [ [ [ [ -9423196.617470428347588, -1737966.138616245239973 ], [ -8994061.713316861540079, -2313537.41165212308988 ], [ -8440688.180747218430042, -2445487.227830662857741 ], [ -8029017.681981839239597, -2733234.083841557614505 ], [ -7901323.622691700235009, -3220018.14149459451437 ], [ -7814407.311527254991233, -4033570.816474203951657 ], [ -7652480.302334634587169, -4530146.977998240850866 ], [ -7220588.525803618133068, -5464613.813036054372787 ], [ -6546234.728125300258398, -6493003.35449548996985 ], [ -5989892.845040686428547, -7639404.810548633337021 ], [ -5720151.32596935890615, -8516064.74753044731915 ], [ -5973034.000098729506135, -9072406.630615059286356 ], [ -6799117.402254668995738, -9561313.133931841701269 ], [ -7844365.788656063377857, -9729901.583351420238614 ], [ -9277367.608722491189837, -9864772.342887084931135 ], [ -10659792.893963044509292, -9544454.288989882916212 ], [ -12295100.853332968428731, -9122983.165440933778882 ], [ -13340349.23973436281085, -8752088.576717859134078 ], [ -14014703.03741268068552, -8296899.763284994289279 ], [ -14908221.819336453452706, -7453957.516187094151974 ], [ -15515140.237246939912438, -6695309.493798986077309 ], [ -15886034.825970016419888, -5751214.177049339748919 ], [ -15784881.756318267434835, -4773401.17041577771306 ], [ -15515140.237246939912438, -3964176.613201795145869 ], [ -15177963.338407780975103, -3525846.644710888154805 ], [ -13121184.255488909780979, -3188669.745871728286147 ], [ -12261383.163449052721262, -2682904.397612988948822 ], [ -11367864.381525279954076, -2059127.134760544635355 ], [ -10693510.583846960216761, -1418491.026966141536832 ], [ -10103451.010878432542086, -1334196.802256351802498 ], [ -9423196.617470428347588, -1737966.138616245239973 ] ] ] ] } }
]
}
