{
"type": "FeatureCollection",
"name": "map019",
"crs": { "type": "name", "properties": { "name": "urn:ogc:def:crs:ESRI::102016" } },
"features": [
{ "type": "Feature", "properties": { "id": 1 }, "geometry": { "type": "MultiPolygon", "coordinates": [ [ [ [ 1224925.782734378706664, -2025681.927052454091609 ], [ 1322811.083907382097095, -2362842.408870578277856 ], [ 1659971.565725506749004, -2612993.734090477228165 ], [ 1616466.987426394131035, -2993658.794207714498043 ], [ 1768733.01147328922525, -3102420.239955496508628 ], [ 1844866.023496736306697, -3330819.276025838684291 ], [ 2105893.493291412945837, -3385199.998899729922414 ], [ 2247283.37276352988556, -3646227.468694406561553 ], [ 2530063.131707763765007, -3537466.02294662501663 ], [ 2954232.770124113652855, -3624475.179544850252569 ], [ 3106498.794171007815748, -3515713.733797067776322 ], [ 2899852.047250221949071, -3939883.372213418595493 ], [ 3128251.083320565056056, -3885502.649339526891708 ], [ 3117374.938745785970241, -4092149.396260312758386 ], [ 2714957.589478992391378, -4266167.709456764161587 ], [ 2530063.131707763765007, -4364053.010629768483341 ], [ 2453930.119684315752238, -4581575.902125332504511 ], [ 2519186.987132984679192, -4777346.504471340216696 ], [ 2377797.107660868670791, -4983993.251392126083374 ], [ 2377797.107660868670791, -5321153.733210250735283 ], [ 2366920.963086090516299, -5473419.757257144898176 ], [ 2171150.360740082804114, -5397286.74523369781673 ], [ 1997132.047543631400913, -5158011.564588577486575 ], [ 1833989.878921958152205, -5016621.685116460546851 ], [ 1638219.276575950440019, -4983993.251392126083374 ], [ 1475077.107954277191311, -4951364.817667791619897 ], [ 1246678.071883935015649, -4820851.082770452834666 ], [ 1029155.180388370994478, -4940488.673093013465405 ], [ 1127040.48156137438491, -5071002.407990351319313 ], [ 1388067.951356051955372, -5114506.986289464868605 ], [ 1725228.433174175675958, -5332029.877785028889775 ], [ 1768733.01147328922525, -5538676.624705814756453 ], [ 1594714.69827683782205, -5767075.660776156932116 ], [ 1333687.22848216118291, -5821456.383650047704577 ], [ 1279306.505608269479126, -5614809.6367292618379 ], [ 1464200.963379499036819, -5451667.468107588589191 ], [ 1246678.071883935015649, -5310277.588635472580791 ], [ 1040031.324963149148971, -5201516.142887690104544 ], [ 833384.578042363282293, -5027497.829691238701344 ], [ 561480.963672908488661, -5201516.142887690104544 ], [ 311329.638453009072691, -5364658.311509363353252 ], [ 213444.33728000568226, -5506048.190981480292976 ], [ -254229.879435457289219, -6006350.84142127726227 ], [ -297734.457734569907188, -6006350.84142127726227 ], [ -482628.915505799464881, -6017226.985996055416763 ], [ -602266.505828359629959, -5886713.251098716631532 ], [ -819789.39732392411679, -5843208.672799604013562 ], [ -798037.108174367342144, -5636561.925878818146884 ], [ -765408.674450032878667, -5245020.721186802722514 ], [ -123716.144538118969649, -5255896.865761580877006 ], [ -25830.843365115113556, -4875231.805644343607128 ], [ -199849.156561566051096, -4777346.504471340216696 ], [ -297734.457734569907188, -4635956.624999223276973 ], [ -69335.421664227731526, -4679461.203298335894942 ], [ 28549.879508776124567, -4451062.16722799371928 ], [ -232477.590285900980234, -4418433.733503659255803 ], [ -406495.903482351917773, -4255291.564881986007094 ], [ -678399.517851807177067, -4190034.69743331708014 ], [ -591390.361253581475466, -3918131.083063862286508 ], [ -330362.891458904836327, -3896378.793914305046201 ], [ -254229.879435457289219, -3678855.902418741025031 ], [ -156344.578262453433126, -3319943.131451060529798 ], [ 6797.590359219815582, -3417828.432624064385891 ], [ -25830.843365115113556, -3798493.492741301655769 ], [ 235196.626429561991245, -4146530.119134204462171 ], [ 322205.783027787227184, -4277043.854031542316079 ], [ 583233.252822464797646, -4059520.962535978294909 ], [ 637613.975696355570108, -3809369.637316079810262 ], [ 691994.69857024634257, -3624475.179544850252569 ], [ 800756.144318028818816, -3678855.902418741025031 ], [ 768127.710593694355339, -3983387.950512531213462 ], [ 985650.602089258376509, -4026892.528811643831432 ], [ 1203173.493584822397679, -3831121.926465636119246 ], [ 1377191.80678127380088, -3711484.336143075488508 ], [ 1485953.252529055345803, -3352571.565175394993275 ], [ 1583838.553702059667557, -3080667.950805940199643 ], [ 1431572.529655164573342, -3037163.372506827116013 ], [ 1224925.782734378706664, -2863145.059310375712812 ], [ 1083535.90326226176694, -2471603.854618360288441 ], [ 931269.879215366672724, -2700002.890688702929765 ], [ 1083535.90326226176694, -3232933.974852834828198 ], [ 1050907.469537927303463, -3580970.601245737634599 ], [ 963898.312939702067524, -3657103.613269184716046 ], [ 909517.59006581036374, -3526589.878371846862137 ], [ 757251.566018916200846, -3265562.408577169291675 ], [ 626737.831121577415615, -3428704.577198842540383 ], [ 441843.373350347857922, -3526589.878371846862137 ], [ 343958.072177344467491, -3341695.420600616838783 ], [ 409214.939626013394445, -3113296.384530274663121 ], [ 583233.252822464797646, -2710879.035263481084257 ], [ 789879.999743250664324, -2351966.264295800123364 ], [ 887765.300916254054755, -1971301.204178562853485 ], [ 1224925.782734378706664, -2025681.927052454091609 ] ] ] ] } },
{ "type": "Feature", "properties": { "id": 1 }, "geometry": { "type": "MultiPolygon", "coordinates": [ [ [ [ 757251.566018916200846, -5310277.588635472580791 ], [ 953022.168364923913032, -5288525.299485915340483 ], [ 1061783.614112705457956, -5593057.347579705528915 ], [ 931269.879215366672724, -5669190.359603152610362 ], [ 811632.288892806973308, -5560428.913855371065438 ], [ 757251.566018916200846, -5310277.588635472580791 ] ] ] ] } },
{ "type": "Feature", "properties": { "id": 1 }, "geometry": { "type": "MultiPolygon", "coordinates": [ [ [ [ -6986563.371223167516291, 845620.240688990801573 ], [ -6899554.214624942280352, 1106647.710483667440712 ], [ -6508013.009932926855981, 1106647.710483667440712 ], [ -6638526.74483026470989, 1802720.963269473053515 ], [ -6159976.383540023118258, 1867977.830718141980469 ], [ -5898948.91374534741044, 2520546.50520483404398 ], [ -6943058.792924054898322, 2411785.059457052499056 ], [ -6856049.63632582873106, 2629307.950952616520226 ], [ -5964205.781194016337395, 2912087.709896849934012 ], [ -5572664.576502000913024, 2912087.709896849934012 ], [ -4963600.48031442053616, 3020849.155644631944597 ], [ -4398040.962425954639912, 2912087.709896849934012 ], [ -3788976.866238374263048, 2477041.92690572142601 ], [ -3310426.504948133602738, 2585803.372653503902256 ], [ -2766619.276209224015474, 2324775.902858826331794 ], [ -2092298.312572974711657, 2477041.92690572142601 ], [ -1396225.059787169098854, 1715711.806671246886253 ], [ -2005289.155974749475718, 976133.975586329586804 ], [ -2266316.62576942704618, 475831.325146531686187 ], [ -2135802.890872087329626, 19033.253005847334862 ], [ -2309821.204068539664149, -350755.662536611780524 ], [ -2897133.011106561869383, -350755.662536611780524 ], [ -2766619.276209224015474, 106042.409604072570801 ], [ -3332178.794097689911723, 171299.277052742429078 ], [ -3723719.998789705336094, -459517.108284394256771 ], [ -4071756.625182608142495, -785801.445527739822865 ], [ -3919490.601135713979602, -959819.758724191226065 ], [ -3332178.794097689911723, -981572.04787374753505 ], [ -3049399.035153457894921, -677039.999779958277941 ], [ -2918885.300256118178368, -938067.46957463491708 ], [ -3223417.348349908366799, -1438370.120014431886375 ], [ -3027646.746003901585937, -1590636.144061326980591 ], [ -3440940.239845473319292, -2395470.842594914138317 ], [ -4071756.625182608142495, -1851663.613856004551053 ], [ -4224022.649229504168034, -2069186.505351567640901 ], [ -4224022.649229504168034, -2417223.131744470447302 ], [ -4659068.432220632210374, -2286709.396847132593393 ], [ -4528554.69732329249382, -1938672.770454229786992 ], [ -4876591.323716195300221, -1808159.035556891933084 ], [ -5115866.504361316561699, -1721149.878958664834499 ], [ -5420398.552455106750131, -1525379.276612658053637 ], [ -6007710.359493128955364, -1547131.565762214362621 ], [ -6421003.85333470068872, -1155590.361070198938251 ], [ -7008315.660372723825276, -1264351.806817981414497 ], [ -6660279.033979821018875, -764049.15637818351388 ], [ -6595022.16653115209192, -133232.771041047759354 ], [ -6834297.347176272422075, -89728.192741935141385 ], [ -6660279.033979821018875, 475831.325146531686187 ], [ -6986563.371223167516291, 845620.240688990801573 ] ] ] ] } },
{ "type": "Feature", "properties": { "id": 1 }, "geometry": { "type": "MultiPolygon", "coordinates": [ [ [ [ 2867223.613525887951255, 4238977.348019788973033 ], [ 3193507.950769234448671, 4304234.215468457899988 ], [ 3389278.553115243092179, 3999702.167374667711556 ], [ 3041241.926722340285778, 3847436.143327773548663 ], [ 2867223.613525887951255, 4238977.348019788973033 ] ] ] ] } },
{ "type": "Feature", "properties": { "id": 1 }, "geometry": { "type": "MultiPolygon", "coordinates": [ [ [ [ 3498039.998863024637103, 4347738.793767570517957 ], [ 3889581.203555040061474, 4587013.974412690848112 ], [ 4607406.745490401983261, 4391243.372066683135927 ], [ 4977195.661032859236002, 4260729.637169345282018 ], [ 4868434.215285077691078, 4064959.034823337569833 ], [ 4542149.878041733056307, 4217225.058870231732726 ], [ 4107104.095050605013967, 4282481.926318901591003 ], [ 3563296.866311693564057, 4151968.191421562805772 ], [ 3498039.998863024637103, 4347738.793767570517957 ] ] ] ] } },
{ "type": "Feature", "properties": { "id": 1 }, "geometry": { "type": "MultiPolygon", "coordinates": [ [ [ [ 4520397.588892176747322, 3542904.09523398289457 ], [ 4607406.745490401983261, 3771303.131304325535893 ], [ 4879310.359859857708216, 3771303.131304325535893 ], [ 4944567.22730852663517, 3629913.25183220859617 ], [ 4770548.914112076163292, 3390638.071187088266015 ], [ 4520397.588892176747322, 3542904.09523398289457 ] ] ] ] } },
{ "type": "Feature", "properties": { "id": 1 }, "geometry": { "type": "MultiPolygon", "coordinates": [ [ [ [ 7000158.551941610872746, 8970100.238048307597637 ], [ 6782635.660446047782898, 10014210.117227014154196 ], [ 5869039.516164679080248, 11362852.044499512761831 ], [ 6043057.829361129552126, 11841402.405789753422141 ], [ 6478103.612352255731821, 12102429.875584429129958 ], [ 7435204.334932740777731, 12058925.297285316511989 ], [ 7870250.117923866957426, 11710888.670892413705587 ], [ 8522818.792410559952259, 11145329.153003947809339 ], [ 8957864.575401689857244, 11145329.153003947809339 ], [ 9175387.466897252947092, 10014210.117227014154196 ], [ 9740946.984785720705986, 9666173.49083411321044 ], [ 10437020.237571522593498, 8839586.503150969743729 ], [ 11437625.538451120257378, 7490944.575878471136093 ], [ 12220707.947835151106119, 6272816.383503310382366 ], [ 12090194.212937813252211, 5446229.395820166915655 ], [ 11263607.225254666060209, 5185201.926025491207838 ], [ 10785056.863964427262545, 5968284.33540952205658 ], [ 9958469.876281283795834, 6403330.118400651961565 ], [ 9131882.888598140329123, 7142907.949485566467047 ], [ 8435809.63581233471632, 7316926.262682020664215 ], [ 8218286.744316771626472, 7882485.780570484697819 ], [ 7609222.648129191249609, 9318136.864441208541393 ], [ 7000158.551941610872746, 8970100.238048307597637 ] ] ] ] } },
{ "type": "Feature", "properties": { "id": null }, "geometry": { "type": "MultiPolygon", "coordinates": [ [ [ [ 7739736.383026529103518, 12450466.501977331936359 ], [ 8044268.431120317429304, 12754998.550071122124791 ], [ 8479314.21411144733429, 11971916.14068709127605 ], [ 7739736.383026529103518, 12450466.501977331936359 ] ] ] ] } },
{ "type": "Feature", "properties": { "id": 2 }, "geometry": { "type": "MultiPolygon", "coordinates": [ [ [ [ 1316141.356092333095148, -2339868.901952076237649 ], [ 1224925.782734378706664, -2025681.927052454091609 ], [ 1198253.858209217898548, -2021380.003741944208741 ], [ 1477796.144097976386547, -1851663.613856009207666 ], [ 1630062.168144871480763, -1873415.903005565516651 ], [ 1619186.023570093326271, -2058310.360776795074344 ], [ 1553929.156121423467994, -2297585.541421915404499 ], [ 1793204.336766543798149, -2319337.830571471713483 ], [ 1858461.204215213656425, -2156195.661949798464775 ], [ 1836708.915065657347441, -1786406.746407340280712 ], [ 1956346.505388217046857, -1253475.662243207916617 ], [ 2108612.529435112141073, -1144714.216495425440371 ], [ 2108612.529435112141073, -861934.457551192492247 ], [ 2043355.661986443214118, -829306.023826858028769 ], [ 1793204.336766543798149, -774925.300952967256308 ], [ 1825832.770490879192948, -448640.963709620758891 ], [ 1717071.324743096716702, -231118.072214056737721 ], [ 1499548.433247532695532, 225679.999926628544927 ], [ 1358158.553775415755808, 138670.843328402377665 ], [ 1075378.794831182807684, -57099.75901760533452 ], [ 1031874.216532070189714, 127794.698753624223173 ], [ 1282025.541751968674362, 323565.301099631935358 ], [ 1412539.27664930652827, 519335.903445639647543 ], [ 1662690.60186920594424, 606345.060043864883482 ], [ 1695319.035593540407717, 791239.517815094441175 ], [ 1532176.866971867159009, 1204533.011656666174531 ], [ 1695319.035593540407717, 1530817.348900012671947 ], [ 1445167.71037364192307, 1574321.927199125289917 ], [ 1162387.951429408043623, 1519941.204325234517455 ], [ 759970.60216261446476, 2194262.167961483355612 ], [ 346677.108321042731404, 2096376.866788479499519 ], [ 74773.493951587937772, 2248642.890835374128073 ], [ -251510.843291758559644, 2487918.07148049492389 ], [ -360272.289039540104568, 2585803.372653498779982 ], [ -251510.843291758559644, 2748945.541275171563029 ], [ -33987.951796194538474, 2803326.264149062801152 ], [ 216163.373423703946173, 2879459.27617251034826 ], [ 411933.975769711658359, 3183991.324266300071031 ], [ 575076.144391384907067, 3183991.324266300071031 ], [ 912236.626209509558976, 3151362.890541965141892 ], [ 1064502.650256404653192, 3249248.191714968997985 ], [ 1108007.228555517271161, 3564656.384383537340909 ], [ 1292901.686326746828854, 3706046.263855653814971 ], [ 1662690.60186920594424, 3836559.998752992134541 ], [ 1488672.288672754541039, 3445018.794060976710171 ], [ 1314653.975476303137839, 3162239.035116743762046 ], [ 1184140.240578964352608, 2825078.553298619110137 ], [ 1532176.866971867159009, 2879459.27617251034826 ], [ 1749699.758467431180179, 2933839.999046401120722 ], [ 1934594.216238660737872, 2770697.830424728337675 ], [ 2108612.529435112141073, 2727193.252125615254045 ], [ 2478401.444977571256459, 2792450.11957428464666 ], [ 2695924.336473134346306, 2792450.11957428464666 ], [ 2652419.758174021728337, 3031725.300219404976815 ], [ 2532782.167851462028921, 3194867.468841078225523 ], [ 2695924.336473134346306, 3564656.384383537340909 ], [ 2902571.083393921144307, 3771303.131304323207587 ], [ 3022208.673716480843723, 3738674.697579988278449 ], [ 2967827.950842590071261, 3597284.818107871804386 ], [ 3000456.384566924534738, 3401514.215761864092201 ], [ 3272359.998936380259693, 3586408.673533093649894 ], [ 3359369.155534605495632, 3640789.396406984422356 ], [ 3598644.336179726757109, 3662541.685556541197002 ], [ 3914052.528848295100033, 3445018.794060976710171 ], [ 4204989.396223612129688, 3412390.360336642246693 ], [ 4411636.143144397065043, 3379761.926612307783216 ], [ 4520397.588892176747322, 3542904.09523398289457 ], [ 4746741.408677357248962, 3405129.596234308555722 ], [ 4618282.890065183863044, 3064353.733943739905953 ], [ 4835805.781560746952891, 2912087.709896844811738 ], [ 4770548.914112078025937, 2661936.38467694632709 ], [ 5216470.84167798422277, 2574927.228078720159829 ], [ 5205594.697103206068277, 2738069.396700393408537 ], [ 5020700.239331977441907, 3053477.589368961751461 ], [ 5162090.118804093450308, 3096982.167668074369431 ], [ 5346984.576575323939323, 2922963.85447162296623 ], [ 5564507.468070887029171, 3336257.348313194699585 ], [ 5814658.793290784582496, 3401514.215761864092201 ], [ 6108314.696809796616435, 3336257.348313194699585 ], [ 6401970.600328808650374, 3238372.047140190843493 ], [ 6891397.106193827465177, 2966468.432770735584199 ], [ 7108919.997689392417669, 2759821.685849949717522 ], [ 7304690.600035399198532, 2281271.324559709057212 ], [ 7206805.298862395808101, 1944110.842741584638134 ], [ 7402575.901208402588964, 1585198.071773903910071 ], [ 7511337.346956185996532, 1269789.879105336032808 ], [ 7195929.154287617653608, 900000.963562876917422 ], [ 6858768.672469493001699, 1095771.565908884629607 ], [ 6793511.805020824074745, 997886.264735880773515 ], [ 6826140.238745158538222, 508459.758870861493051 ], [ 6847892.527894714847207, 214803.855351849924773 ], [ 6913149.395343383774161, -231118.07221405650489 ], [ 6837016.383319936692715, -546526.264882624614984 ], [ 6662998.070123486220837, -1025076.626172865740955 ], [ 6499855.901501812040806, -1296980.240542320534587 ], [ 6314961.443730583414435, -1101209.638196312822402 ], [ 6184447.708833243697882, -1220847.22851887345314 ], [ 5738525.781267337501049, -1405741.686290102545172 ], [ 5423117.58859877102077, -1460122.409163993783295 ], [ 5270851.564551874995232, -1307856.385117098689079 ], [ 5336108.432000545784831, -1025076.626172865740955 ], [ 4879310.359859859570861, -829306.023826858028769 ], [ 4868434.215285081416368, -492145.542008733376861 ], [ 4574778.311766071245074, -296374.939662725664675 ], [ 4248493.974522724747658, -807553.734677301254123 ], [ 3878705.05898026516661, -1014200.481598087120801 ], [ 3878705.05898026516661, -1307856.385117098689079 ], [ 3661182.16748470114544, -1558007.710336997639388 ], [ 3650306.022909922990948, -1916920.481304678600281 ], [ 3737315.179508148226887, -2232328.673973246477544 ], [ 3541544.577162141446024, -2482479.999193144962192 ], [ 3400154.697690024506301, -2776135.902712156996131 ], [ 3465411.565138693433255, -3113296.384530280716717 ], [ 3769943.613232483621687, -3265562.408577175810933 ], [ 3813448.191531596239656, -3624475.179544856771827 ], [ 4183237.107074055355042, -3613599.034970078617334 ], [ 4183237.107074055355042, -3754988.914442195557058 ], [ 3856952.769830708857626, -3852874.215615198947489 ], [ 3119237.703838703688234, -4056756.859494880307466 ], [ 3122510.22304390091449, -3994578.994596138130873 ], [ 3127830.458944744430482, -3893494.512480115983635 ], [ 3128251.083320565056056, -3885502.649339526891708 ], [ 3089300.188470696099102, -3894776.671922829002142 ], [ 2919067.339870378840715, -3900441.45578257041052 ], [ 3106498.794171007815748, -3515713.733797067776322 ], [ 3081807.006487727630883, -3533350.724999411031604 ], [ 2904188.781238404102623, -3614209.745927268639207 ], [ 2736372.797150211874396, -3579785.954319434706122 ], [ 2584388.959214721340686, -3548609.782435231842101 ], [ 2530063.131707763765007, -3537466.02294662501663 ], [ 2294656.270524807740003, -3628007.123401607386768 ], [ 2163873.843823656905442, -3492240.646036180201918 ], [ 2105893.493291412945837, -3385199.998899729922414 ], [ 2049431.644583751680329, -3373437.113752300385386 ], [ 2007927.255041203694418, -3364790.365930936299264 ], [ 1880480.420373885659501, -3338238.942041911650449 ], [ 1769820.625930769369006, -3105683.083327936939895 ], [ 1768733.01147328922525, -3102420.239955496508628 ], [ 1661735.264845747267827, -3025993.278078680858016 ], [ 1645488.386698300950229, -2739721.550578528083861 ], [ 1659971.565725506749004, -2612993.734090477228165 ], [ 1637343.345469262916595, -2596205.054545522201806 ], [ 1316141.356092333095148, -2339868.901952076237649 ] ] ] ] } },
{ "type": "Feature", "properties": { "id": 3 }, "geometry": { "type": "MultiPolygon", "coordinates": [ [ [ [ 3979309.39629696495831, -5609371.564441881142557 ], [ 4196832.287792529910803, -5141697.347726418636739 ], [ 4066318.552895192056894, -4880669.8779317419976 ], [ 3783538.793950958177447, -4641394.697286620736122 ], [ 3881424.095123961567879, -4467376.384090170264244 ], [ 4153327.709493417292833, -4162844.335996380075812 ], [ 4359974.456414202228189, -4162844.335996380075812 ], [ 4947286.263452226296067, -4369491.08291716594249 ], [ 5164809.154947789385915, -4500004.817814504727721 ], [ 5588978.793364139273763, -4423871.805791057646275 ], [ 5773873.251135369762778, -4358614.938342387787998 ], [ 5958767.708906598389149, -4489128.673239726573229 ], [ 6045776.865504825487733, -4162844.335996380075812 ], [ 6013148.431780489161611, -3901816.866201702971011 ], [ 6382937.347322948276997, -3880064.577052146662027 ], [ 6567831.805094178766012, -3771303.131304364651442 ], [ 6720097.829141072928905, -4489128.673239726573229 ], [ 6535203.371369844302535, -5206954.215175087563694 ], [ 6295928.190724723041058, -5587619.275292324833572 ], [ 6154538.311252607032657, -5946532.046260005794466 ], [ 6056653.010079603642225, -6055293.492007787339389 ], [ 5806501.684859704226255, -6055293.492007787339389 ], [ 5436712.769317245110869, -5935655.901685227639973 ], [ 4849400.962279222905636, -5837770.600512223318219 ], [ 3979309.39629696495831, -5609371.564441881142557 ] ] ] ] } },
{ "type": "Feature", "properties": { "id": 4 }, "geometry": { "type": "MultiPolygon", "coordinates": [ [ [ [ -6159976.383540023118258, 1867977.830718141980469 ], [ -6603096.545667793601751, 1807552.354064355604351 ], [ -6603096.545667793601751, 1807552.35406435537152 ], [ -6638526.74483026470989, 1802720.963269473053515 ], [ -6508013.009932926855981, 1106647.710483667440712 ], [ -6853330.600182123482227, 1106647.710483667440712 ], [ -6899554.214624942280352, 1106647.710483667440712 ], [ -6986563.371223167516291, 845620.240688990801573 ], [ -6958870.464195454493165, 814234.946057582274079 ], [ -7310128.672322808764875, 916315.180425043217838 ], [ -7679917.587865267880261, 840182.168401596136391 ], [ -7886564.334786053746939, 590030.843181697186083 ], [ -7810431.322762605734169, 122356.626466234214604 ], [ -7636413.009566154330969, -73413.975879773497581 ], [ -7679917.587865267880261, -454079.03599701076746 ], [ -8060582.647982505150139, -486707.469721345230937 ], [ -8147591.804580730386078, -454079.03599701076746 ], [ -8191096.382879843004048, -932629.39728725142777 ], [ -8571761.442997079342604, -1052266.987609812058508 ], [ -8865417.346516091376543, -1106647.71048370283097 ], [ -8908921.924815203994513, -1335046.746554045006633 ], [ -8821912.768216978758574, -1672207.228372169658542 ], [ -8789284.334492644295096, -1933234.698166846297681 ], [ -8887169.635665647685528, -2129005.300512854009867 ], [ -8637018.310445750132203, -2346528.192008418031037 ], [ -8365114.696076294407248, -2444413.493181422352791 ], [ -8299857.828627625480294, -2727193.252125655300915 ], [ -8452123.852674519643188, -2879459.276172550395131 ], [ -8365114.696076294407248, -2977344.577345553785563 ], [ -8201972.52745462115854, -2999096.866495110094547 ], [ -8071458.792557284235954, -3738674.697580031119287 ], [ -7766926.744463494047523, -4064959.034823377616704 ], [ -8006201.925108613446355, -4695775.420160512439907 ], [ -7505899.27466881647706, -5413600.962095874361694 ], [ -7484146.985519260168076, -6087921.925732123665512 ], [ -7549403.85296792909503, -6696986.02191970217973 ], [ -6940339.756780350580812, -7501820.720453288406134 ], [ -6418284.817190995439887, -8371912.286435544490814 ], [ -6179009.636545876041055, -8850462.647725787013769 ], [ -6396532.528041439130902, -8980976.382623124867678 ], [ -7005596.624229019507766, -8893967.226024899631739 ], [ -7418890.118070591241121, -9002728.671772681176662 ], [ -7897440.479360831901431, -9307260.719866471365094 ], [ -8637018.310445750132203, -9198499.274118687957525 ], [ -9115568.671735990792513, -8719948.912828447297215 ], [ -9594119.033026233315468, -8458921.443033771589398 ], [ -9855146.502820909023285, -8654692.045379778370261 ], [ -10703485.779653608798981, -8437169.153884215280414 ], [ -10833999.514550946652889, -8154389.394939981400967 ], [ -10986265.538597842678428, -7828105.05769663490355 ], [ -11051522.406046511605382, -7414811.563855063170195 ], [ -10768742.647102277725935, -7588829.877051513642073 ], [ -11029770.116896955296397, -6958013.49171437881887 ], [ -10659981.201354496181011, -6566472.287022363394499 ], [ -10116173.972615586593747, -6566472.287022363394499 ], [ -10442458.309858933091164, -6174931.082330347970128 ], [ -10833999.514550946652889, -5979160.47998433932662 ], [ -11160283.851794295012951, -5761637.588488776236773 ], [ -11247293.00839252024889, -5457105.540394986048341 ], [ -11660586.5022340901196, -4869793.733356963843107 ], [ -11225540.719242963939905, -4325986.504618052393198 ], [ -11269045.297542076557875, -4043206.745673819445074 ], [ -11399559.032439414411783, -3042601.444794224575162 ], [ -10659981.201354496181011, -2411785.059457088820636 ], [ -10551219.755606714636087, -1954986.987316404469311 ], [ -9833394.2136713527143, -1824473.25241906568408 ], [ -9485357.587278449907899, -2216014.457111081108451 ], [ -9050311.804287321865559, -2129005.300512854941189 ], [ -8936112.286252150312066, -1737464.095820839051157 ], [ -9126444.816310768947005, -1612388.433210889343172 ], [ -9077502.165724268183112, -1329608.674266656162217 ], [ -8968740.719976484775543, -976133.9755863645114 ], [ -8865417.346516091376543, -812991.806964691495523 ], [ -8685960.961032252758741, -785801.445527745876461 ], [ -8517380.720123190432787, -432326.74684745434206 ], [ -8299857.828627628274262, 396979.276979383546859 ], [ -8180220.238305067643523, 690635.180498395115137 ], [ -8180220.238305067643523, 1027795.662316519301385 ], [ -7940945.057659947313368, 1451965.300732869654894 ], [ -7669041.443290492519736, 1800001.927125771995634 ], [ -7146986.503701138310134, 1854382.649999663233757 ], [ -6690188.431560453958809, 2169790.84266823111102 ], [ -5907199.782043455168605, 2499919.334459564182907 ], [ -6159976.383540023118258, 1867977.830718141980469 ] ] ] ] } },
{ "type": "Feature", "properties": { "id": 6 }, "geometry": { "type": "MultiPolygon", "coordinates": [ [ [ [ -561480.963672934100032, -6106955.178737983107567 ], [ -191692.048130475915968, -6172212.046186652034521 ], [ 188973.01198676135391, -6063450.600438869558275 ], [ 547885.782954442314804, -5932936.865541531704366 ], [ 993807.710520348511636, -5889432.287242418155074 ], [ 1167826.023716799914837, -5835051.564368527382612 ], [ 1200454.457441134378314, -6085202.88958842586726 ], [ 1298339.758614138700068, -6259221.20278487727046 ], [ 1722509.397030488587916, -6139583.612462317571044 ], [ 1874775.421077382750809, -6291849.63650921266526 ], [ 2190183.613745951093733, -6204840.479910986497998 ], [ 2375078.071517181582749, -5987317.588415422476828 ], [ 2712238.553335306234658, -5943813.010116309858859 ], [ 2799247.709933531470597, -5932936.865541531704366 ], [ 3082027.468877763487399, -6476744.09428044129163 ], [ 3299550.360373328439891, -6955294.455570682883263 ], [ 3310426.504948106594384, -7194569.636215803213418 ], [ 2984142.167704760096967, -7259826.503664472140372 ], [ 2418582.649816294200718, -7118436.624192356131971 ], [ 2048793.734273835085332, -7107560.479617577977479 ], [ 1874775.421077382750809, -7248950.359089693985879 ], [ 1624624.095857485197484, -7216321.925365359522402 ], [ 874170.12019778881222, -7781881.443253826349974 ], [ 656647.22870222479105, -7912395.178151165135205 ], [ 352115.180608434602618, -7705748.431230379268527 ], [ -670242.409420716576278, -7205445.78079058136791 ], [ -931269.879215393215418, -6977046.744720239192247 ], [ -1301058.794757852330804, -7020551.323019351810217 ], [ -1431572.529655191116035, -7053179.756743686273694 ], [ -1605590.842851642519236, -7346835.660262698307633 ], [ -1736104.577748980373144, -7488225.539734815247357 ], [ -2236407.228188778273761, -7379464.093987032771111 ], [ -2051512.770417548716068, -7107560.479617577977479 ], [ -1659971.565725533291698, -6868285.298972456716001 ], [ -1290182.650183074176311, -6737771.564075118862092 ], [ -909517.590065836906433, -6313601.925658768974245 ], [ -561480.963672934100032, -6106955.178737983107567 ] ] ] ] } },
{ "type": "Feature", "properties": { "id": 7 }, "geometry": { "type": "MultiPolygon", "coordinates": [ [ [ [ -2020857.176832813769579, -7426322.800803546793759 ], [ -1753262.971897637937218, -7484495.454050324857235 ], [ -1736104.577748980373144, -7488225.539734815247357 ], [ -1605590.842851642519236, -7346835.660262698307633 ], [ -1496555.952172733610496, -7162839.282242039218545 ], [ -1403422.508402823936194, -7046142.251430594362319 ], [ -902010.162837229436263, -7002648.996551132760942 ], [ -670242.409420716576278, -7205445.78079058136791 ], [ -639623.957126198918559, -7220429.27872194070369 ], [ -93345.96070083451923, -7487756.808887545019388 ], [ 404510.650891819619574, -7741302.500351247377694 ], [ 656647.22870222479105, -7912395.178151165135205 ], [ 691834.755267683183774, -7891282.662211890332401 ], [ 874170.12019778881222, -7781881.443253826349974 ], [ 1311876.297025962965563, -7452015.918687665835023 ], [ 1506072.936120013706386, -7305664.828355917707086 ], [ 1614169.010329206008464, -7224201.120256236754358 ], [ 1874775.421077382750809, -7248950.359089693985879 ], [ 2037917.58969905693084, -7270702.648239249363542 ], [ 2222812.04747028555721, -7760129.154104269109666 ], [ 2016165.300549500621855, -8238679.515394509769976 ], [ 2255440.481194620020688, -8358317.105717070400715 ], [ 1907403.854801717214286, -9054390.358502874150872 ], [ 1602871.8067079288885, -9119647.225951544940472 ], [ 1515862.650109701789916, -9369798.551171442493796 ], [ 1211330.602015913464129, -9380674.695746220648289 ], [ 939426.987646457739174, -9348046.262021886184812 ], [ 743656.385300450958312, -9217532.527124548330903 ], [ 428248.192631882615387, -9217532.527124548330903 ], [ 112839.999963314272463, -9315417.828297551721334 ], [ -278701.204728701151907, -9402426.984895776957273 ], [ -724623.13229460734874, -9435055.418620111420751 ], [ -1061783.614112732000649, -9380674.695746220648289 ], [ -1453324.81880474742502, -9337170.117447108030319 ], [ -1681723.854875089600682, -9195780.237974992021918 ], [ -2008008.192118436098099, -8891248.189881201833487 ], [ -2149398.0715905521065, -8608468.43093696795404 ], [ -2290787.951062669046223, -8401821.684016183018684 ], [ -2345168.673936559818685, -8021156.623898945748806 ], [ -2269035.661913112737238, -7825386.021552938036621 ], [ -2171150.360740109346807, -7662243.852931264787912 ], [ -2200735.829827096313238, -7387218.745804789476097 ], [ -2020857.176832813769579, -7426322.800803546793759 ] ] ] ] } },
{ "type": "Feature", "properties": { "id": 8 }, "geometry": { "type": "MultiPolygon", "coordinates": [ [ [ [ 2818791.210276181809604, -5970520.520046629011631 ], [ 3122813.011033182963729, -5748042.407770302146673 ], [ 3470849.63742608577013, -5541395.660849516279995 ], [ 3688372.5289216497913, -5671909.395746855065227 ], [ 3884143.131267658434808, -5780670.84149463661015 ], [ 4145170.601062334142625, -5943813.010116309858859 ], [ 4558464.094903905875981, -6106955.178737983107567 ], [ 5167528.191091486252844, -6313601.925658768974245 ], [ 5515564.817484389059246, -6313601.925658768974245 ], [ 5928858.311325960792601, -6313601.925658768974245 ], [ 6342151.805167532525957, -6324478.070233547128737 ], [ 6505293.973789204843342, -6009069.877564979717135 ], [ 6885959.033906442113221, -5552271.805424294434488 ], [ 7016472.768803781829774, -5835051.564368527382612 ], [ 7103481.925402007065713, -6204840.479910986497998 ], [ 7027348.913378559984267, -6726895.4195003407076 ], [ 6831578.311032551340759, -7292454.937388807535172 ], [ 6701064.57613521348685, -8075537.34677283745259 ], [ 7190491.082000232301652, -8423573.973165739327669 ], [ 7592908.431267025880516, -8684601.442960416898131 ], [ 7636413.009566138498485, -8891248.189881201833487 ], [ 7386261.684346239082515, -9315417.828297551721334 ], [ 7146986.503701119683683, -9826596.623312128707767 ], [ 7277500.238598457537591, -10098500.237681582570076 ], [ 7408013.973495797254145, -10348651.562901481986046 ], [ 7027348.913378559984267, -10598802.888121381402016 ], [ 7005596.624229003675282, -10903334.936215169727802 ], [ 6668436.142410879023373, -10620555.177270937711 ], [ 6494417.82921442668885, -10674935.900144828483462 ], [ 6113752.769097189418972, -10783697.345892610028386 ], [ 5961486.745050295256078, -11022972.526537731289864 ], [ 5656954.696956505067647, -11479770.598678415641189 ], [ 5124023.612792373634875, -11664665.056449644267559 ], [ 4841243.853848139755428, -12001825.538267768919468 ], [ 4536711.805754349566996, -11936568.670819099992514 ], [ 4547587.950329127721488, -12175843.851464219391346 ], [ 4395321.926282233558595, -12458623.610408455133438 ], [ 4025533.010739774443209, -12447747.465833675116301 ], [ 3829762.408393767662346, -12589137.345305792987347 ], [ 3514354.2157251983881, -12415119.032109342515469 ], [ 3318583.613379190675914, -12219348.429763333871961 ], [ 3068432.288159292191267, -11980073.249118212610483 ], [ 2731271.806341168470681, -11719045.779323536902666 ], [ 2568129.637719495221972, -11577655.89985141903162 ], [ 2557253.49314471706748, -11283999.996332406997681 ], [ 2709519.517191611230373, -10925087.225364726036787 ], [ 2666014.938892498612404, -10707564.333869162946939 ], [ 2394111.324523043818772, -10359527.707476260140538 ], [ 2122207.710153588093817, -10131128.671405918896198 ], [ 1676285.782587681896985, -10033243.370232913643122 ], [ 1741542.650036351755261, -9565569.153517451137304 ], [ 1530388.630722221685573, -9328036.356910448521376 ], [ 1555173.495146689005196, -9256779.871690107509494 ], [ 1589226.188556773820892, -9158878.378136115148664 ], [ 1822123.471014790004119, -9072664.726457215845585 ], [ 1907403.854801717214286, -9054390.358502874150872 ], [ 1915560.963232800597325, -9038076.141640707850456 ], [ 2071341.838880081661046, -8726514.390346147119999 ], [ 2091754.505344207864255, -8685689.057417893782258 ], [ 2255440.481194620020688, -8358317.105717070400715 ], [ 2231512.963130109012127, -8346353.346684814430773 ], [ 2037239.31033016811125, -8189876.545376121997833 ], [ 2091667.382549181813374, -8063832.588658405467868 ], [ 2186414.441500356886536, -7844418.346876735799015 ], [ 2216177.22048490960151, -7775494.016596718691289 ], [ 2222812.04747028555721, -7760129.154104269109666 ], [ 2138814.511285322718322, -7537782.734791131690145 ], [ 2037917.58969905693084, -7270702.648239249363542 ], [ 2013873.71113581978716, -7267496.797764151357114 ], [ 1908760.174007514491677, -7221337.747333962470293 ], [ 2110638.293614773545414, -7109379.437245252542198 ], [ 2295053.336197313852608, -7114803.40908591542393 ], [ 2497914.527891146950424, -7138269.593711068853736 ], [ 2984142.167704760096967, -7259826.503664472140372 ], [ 3017084.336368752643466, -7253238.069931673817337 ], [ 3310426.504948106594384, -7194569.636215803213418 ], [ 3309434.196912160143256, -7172738.859424985013902 ], [ 3302616.984642608556896, -7022760.189494848251343 ], [ 3299550.360373328439891, -6955294.455570682883263 ], [ 3232040.045161733869463, -6806771.762105175293982 ], [ 3082027.468877763487399, -6476744.09428044129163 ], [ 3068093.264761022292078, -6449947.547902092337608 ], [ 2937556.098720657639205, -6198914.536286006681621 ], [ 2818791.210276181809604, -5970520.520046629011631 ] ] ] ] } },
{ "type": "Feature", "properties": { "id": 9 }, "geometry": { "type": "MultiPolygon", "coordinates": [ [ [ [ 3993491.115309092681855, -12470888.834755834192038 ], [ 4013222.891728158574551, -12456638.107342064380646 ], [ 4258432.45279074087739, -12454597.449423409998417 ], [ 4395321.926282233558595, -12458623.610408455133438 ], [ 4547587.950329127721488, -12175843.851464219391346 ], [ 4536711.805754349566996, -11936568.670819099992514 ], [ 4841243.853848139755428, -12001825.538267768919468 ], [ 5107094.830644216388464, -11684849.373626293614507 ], [ 5646850.799078300595284, -11483276.032636160030961 ], [ 5656954.696956505067647, -11479770.598678415641189 ], [ 5961486.745050295256078, -11022972.526537731289864 ], [ 6100317.531681286171079, -10804809.861831886693835 ], [ 6669465.954511728137732, -10621418.89064584299922 ], [ 7001312.566454958170652, -10899741.85550145432353 ], [ 6918587.467630776576698, -11425389.875804524868727 ], [ 6385656.383466645143926, -12001825.538267768919468 ], [ 5874477.588452070020139, -12371614.453810228034854 ], [ 5211032.769390598870814, -12708774.935628352686763 ], [ 4775986.986399470828474, -12948050.11627347394824 ], [ 4340941.203408342786133, -12980678.549997806549072 ], [ 4308312.769684008322656, -12741403.36935268715024 ], [ 3868678.268495001830161, -12561031.446343790739775 ], [ 3993491.115309092681855, -12470888.834755834192038 ] ] ] ] } },
{ "type": "Feature", "properties": { "id": 11 }, "geometry": { "type": "MultiPolygon", "coordinates": [ [ [ [ 3503478.071150423493236, -4823570.118914157152176 ], [ 3677496.384346874896437, -4790941.685189822688699 ], [ 3840638.552968547679484, -4997588.432110608555377 ], [ 3960276.143291107844561, -5302120.480204398743808 ], [ 3884143.131267660763115, -5563147.949999075382948 ], [ 3578011.650148168671876, -5605692.868482765741646 ], [ 3351212.04710352839902, -5454386.504251293838024 ], [ 3318583.613379193935543, -5138978.3115827254951 ], [ 3503478.071150423493236, -4823570.118914157152176 ] ] ] ] } },
{ "type": "Feature", "properties": { "id": 11 }, "geometry": { "type": "MultiPolygon", "coordinates": [ [ [ [ -2358763.854655029252172, -2300304.577565613668412 ], [ -1988974.939112570136786, -1517222.168181583285332 ], [ -1488672.288672773167491, -1125680.963489567860961 ], [ -1271149.397177209146321, -842901.204545334447175 ], [ -1249397.108027652837336, -581873.734750657342374 ], [ -531571.566092290915549, -516616.867301988182589 ], [ -248791.807148057967424, -1060424.096040898468345 ], [ -466314.698643621988595, -1756497.348826703615487 ], [ -857855.903335637412965, -2126286.264369162730873 ], [ -1727947.469317893497646, -2343809.155864726752043 ], [ -2162993.252309021539986, -2452570.601612508762628 ], [ -2358763.854655029252172, -2300304.577565613668412 ] ] ] ] } },
{ "type": "Feature", "properties": { "id": 11 }, "geometry": { "type": "MultiPolygon", "coordinates": [ [ [ [ -9749104.093216819688678, -2691845.782257629092783 ], [ -9814360.960665488615632, -2343809.155864726752043 ], [ -9335810.599375247955322, -1974020.240322267636657 ], [ -9025675.161596534773707, -2044536.811287299497053 ], [ -9019584.520634658634663, -2023654.6137037249282 ], [ -8786395.541517585515976, -2216634.947598125319928 ], [ -8493171.284996751695871, -2398313.121170057915151 ], [ -8336885.601730520837009, -2566739.568679773248732 ], [ -8297613.733295055106282, -2986344.705716385506094 ], [ -8422214.455093879252672, -3474928.191641660407186 ], [ -8683241.924888554960489, -3866469.396333675831556 ], [ -9292306.021076135337353, -3735955.661436337046325 ], [ -9792608.671515932306647, -3474928.191641660407186 ], [ -9749104.093216819688678, -2691845.782257629092783 ] ] ] ] } },
{ "type": "Feature", "properties": { "id": 12 }, "geometry": { "type": "MultiPolygon", "coordinates": [ [ [ [ 2377797.107660868670791, -5149854.456157503649592 ], [ 2603477.107587527483702, -4540790.359969924204051 ], [ 2723114.697910087183118, -4432028.914222141727805 ], [ 3018256.45010330947116, -4135011.44540300546214 ], [ 3601119.372830231674016, -3923579.006363965570927 ], [ 4183237.107074055355042, -3714203.37228678073734 ], [ 4419793.251575487665832, -3648946.504838111344725 ], [ 4746077.588818834163249, -3681574.938562445808202 ], [ 5268132.528408187441528, -3812088.673459784127772 ], [ 6149100.238965222612023, -3442299.757917325478047 ], [ 6725535.901428466662765, -3224776.866421761456877 ], [ 7345476.14219082519412, -3616318.071113776415586 ], [ 7650008.190284615382552, -4203629.878151799552143 ], [ 7432485.298789050430059, -4997588.432110608555377 ], [ 6888346.480276517570019, -5557444.605892790481448 ], [ 6407883.101061535999179, -6197397.564838472753763 ], [ 5803782.648716015741229, -6204840.479910990223289 ], [ 4911501.819517072290182, -6226735.835303164087236 ], [ 4020094.938452389091253, -5987317.588415425270796 ], [ 3334897.830241363495588, -5780670.841494639404118 ], [ 2943356.625549347139895, -5661033.251172078773379 ], [ 2377797.107660868670791, -5149854.456157503649592 ] ] ] ] } },
{ "type": "Feature", "properties": { "id": 13 }, "geometry": { "type": "MultiPolygon", "coordinates": [ [ [ [ 5919271.293531998060644, -1330798.425107194809243 ], [ 6115522.212922678329051, -1249426.09267691266723 ], [ 6383505.106909236870706, -1173785.281561946729198 ], [ 6504654.200578918680549, -1288983.075413809157908 ], [ 6629409.976583728566766, -1081056.782072461675853 ], [ 6816772.464585859328508, -602197.041401337948628 ], [ 6909813.229647973552346, -244939.330095043231267 ], [ 6866050.051729079335928, 90727.442483694394468 ], [ 7214962.407293483614922, 146827.951759480172768 ], [ 7715265.057733281515539, 114199.51803514547646 ], [ 8063301.68412618432194, -70694.939736083848402 ], [ 8074177.828700962476432, -647130.602199328830466 ], [ 8172063.129873965866864, -973414.939442675095052 ], [ 8704994.214038098230958, -1147433.252639126032591 ], [ 8900764.816384105011821, -1332327.710410355590284 ], [ 9020402.406706666573882, -1691240.481378036551178 ], [ 9085659.274155335500836, -1995772.529471826273948 ], [ 9031278.551281444728374, -2224171.56554216844961 ], [ 8683241.924888541921973, -2365561.445014285389334 ], [ 8237319.997322635725141, -2463446.746187289245427 ], [ 7845778.79263062030077, -2452570.601612511090934 ], [ 7552122.88911160826683, -2539579.758210736326873 ], [ 7399856.865064713172615, -2583084.336509849410504 ], [ 7117077.10612048022449, -2833235.661729747895151 ], [ 6605898.311105904169381, -2648341.20395851880312 ], [ 6214357.10641388874501, -2354685.300439507234842 ], [ 5953329.63661921210587, -1919639.51744837872684 ], [ 5919271.293531998060644, -1330798.425107194809243 ] ] ] ] } },
{ "type": "Feature", "properties": { "id": 14 }, "geometry": { "type": "MultiPolygon", "coordinates": [ [ [ [ 4941848.191164840012789, 10098500.237681534141302 ], [ 5333389.395856853574514, 8314812.527417909353971 ], [ 5072361.926062177866697, 6748647.708649847656488 ], [ 4071756.625182583928108, 5704537.82947113737464 ], [ 2418582.649816296994686, 5269492.046480011194944 ], [ 243353.73486065492034, 5312996.624779123812914 ], [ -1844866.023496761918068, 5356501.203078236430883 ], [ -4150608.673349739983678, 5922060.720966704189777 ], [ -5673268.913818689063191, 6226592.769060492515564 ], [ -7152424.575988525524735, 6705143.130350735038519 ], [ -7761488.672176104038954, 7401216.383136540651321 ], [ -8240039.033466346561909, 7444720.961435653269291 ], [ -9110130.599448602646589, 7531730.11803387850523 ], [ -10067231.322029083967209, 7531730.11803387850523 ], [ -10197745.056926423683763, 8401821.684016134589911 ], [ -10067231.322029083967209, 8923876.62360548786819 ], [ -9197139.756046827882528, 9489436.141493953764439 ], [ -8022516.141970781609416, 10272518.55087798461318 ], [ -7239433.732586750760674, 11795178.791346933692694 ], [ -5629764.335519576445222, 12404242.887534514069557 ], [ -3933085.78185417689383, 13404848.188414108008146 ], [ -2975985.059273693710566, 14274939.754396365955472 ], [ -1670847.71030031144619, 15406058.79017329774797 ], [ -148187.469831362366676, 16058627.464659990742803 ], [ 330362.891458880156279, 16102132.042959103360772 ], [ 2418582.649816296994686, 16102132.042959103360772 ], [ 4637316.143071047961712, 15449563.368472410365939 ], [ 5333389.395856853574514, 13970407.70630257576704 ], [ 5811939.757147096097469, 12534756.622431851923466 ], [ 5333389.395856853574514, 10881582.647065564990044 ], [ 4941848.191164840012789, 10098500.237681534141302 ] ] ] ] } }
]
}
