{
"type": "FeatureCollection",
"name": "map056",
"crs": { "type": "name", "properties": { "name": "urn:ogc:def:crs:ESRI::102016" } },
"features": [
{ "type": "Feature", "properties": { "id": 1 }, "geometry": { "type": "MultiPolygon", "coordinates": [ [ [ [ 8375527.726363018155098, 12731479.821129424497485 ], [ 9284905.98213878646493, 12293631.031311461701989 ], [ 11036301.141410641372204, 10744319.928878668695688 ], [ 12551931.56770359352231, 8959244.093466971069574 ], [ 13360267.795059833675623, 7005764.877356057986617 ], [ 13393948.471199672669172, 5288050.394224047660828 ], [ 12922419.005241867154837, 4008184.700910000130534 ], [ 12248805.482444997876883, 3368251.85425297729671 ], [ 10598452.351592678576708, 2021024.808659244328737 ], [ 9419628.686698161065578, 1347411.285862376913428 ], [ 8240805.021803643554449, 707478.439205354079604 ], [ 7331426.766027875244617, -538706.577968848869205 ], [ 6186283.777273200452328, -1347042.805325089022517 ], [ 5209544.169217742979527, -1010236.043926656246185 ], [ 4569611.322560720145702, -572387.254108693450689 ], [ 4434888.618001345545053, -2189059.708821173757315 ], [ 4401207.941861502826214, -3401564.049855533987284 ], [ 3997039.828183382749557, -4580387.714750051498413 ], [ 3525510.362225577235222, -5287681.913686759769917 ], [ 2414048.049610745161772, -5759211.379644565284252 ], [ 1134182.356296699494123, -5893934.084203939884901 ], [ -819296.859814215451479, -6062337.46490315720439 ], [ -3075902.161183718591928, -5254001.237546917051077 ], [ -4962020.025014944374561, -4310942.305631302297115 ], [ -6309247.070608677342534, -2222740.384961016476154 ], [ -6814457.212706327438354, 539075.05850613489747 ], [ -6140843.689909461885691, 2054705.484799087047577 ], [ -4524171.235196981579065, 3806100.644070938229561 ], [ -2840137.428204815834761, 4378672.138448275625706 ], [ 22720.043681871145964, 4243949.433888901025057 ], [ 2144602.640491999685764, 3671377.939511567354202 ], [ 3424468.333806045353413, 3199848.473553758114576 ], [ 3693913.74292479455471, 3570335.911092035472393 ], [ 4434888.618001345545053, 3738739.291791252791882 ], [ 5546350.930616177618504, 3974504.024770155549049 ], [ 6960939.328489597886801, 4176588.081609215587378 ], [ 7398788.118307560682297, 5220689.041944360360503 ], [ 6152603.101133357733488, 6096386.621580285951495 ], [ 5681073.635175548493862, 7477294.343313863500953 ], [ 4973779.436238840222359, 9464454.23556461930275 ], [ 5142182.816938057541847, 11350572.099395846948028 ], [ 6253645.129552885890007, 12832521.849548954516649 ], [ 8375527.726363018155098, 12731479.821129424497485 ] ] ] ] } },
{ "type": "Feature", "properties": { "id": 2 }, "geometry": { "type": "MultiPolygon", "coordinates": [ [ [ [ 12013040.749466102570295, 12563076.440430212765932 ], [ 13697074.5564582683146, 10575916.54817945510149 ], [ 15145343.630471531301737, 8555075.979788858443499 ], [ 16728335.409044168889523, 3907142.672490477561951 ], [ 17267226.227281659841537, -269261.168850095942616 ], [ 16559932.028344951570034, -5085597.856847697868943 ], [ 15381108.363450434058905, -7948455.328734381124377 ], [ 12754015.624542653560638, -11585968.351837461814284 ], [ 9655393.419677067548037, -14246741.766885086894035 ], [ 4401207.941861506551504, -16435985.715974900871515 ], [ -482490.098415777087212, -17075918.56263192743063 ], [ -6208205.04218914359808, -16065498.278436627238989 ], [ -10485650.911949247121811, -13472086.215668685734272 ], [ -12742256.213318752124906, -11619649.027977302670479 ], [ -16177685.179582772776484, -5658169.351225033402443 ], [ -16817618.026239797472954, -3266841.345296155661345 ], [ -17221786.13991791754961, -1111278.072346184402704 ], [ -17053382.759218700230122, 1549495.342701440677047 ], [ -16716575.997820265591145, 3502974.558812353760004 ], [ -16413449.912561675533652, 5523815.127202954143286 ], [ -14561012.724870292469859, 9195008.826445877552032 ], [ -12876978.917878124862909, 11417933.451675537973642 ], [ -10485650.911949247121811, 13674538.753045041114092 ], [ -6713415.1842867936939, 15998505.406694231554866 ], [ -3783196.360120425000787, 16806841.634050469845533 ], [ -1290826.325772017240524, 17211009.74772858992219 ], [ 1572031.14611466601491, 17211009.74772858992219 ], [ 3862317.123624011874199, 16705799.605630941689014 ], [ 6826216.623930227011442, 15762740.673715326935053 ], [ 9049141.249159887433052, 14684959.037240341305733 ], [ 11676233.988067667931318, 12765160.497269270941615 ], [ 12013040.749466102570295, 12563076.440430212765932 ] ], [ [ 6253645.129552885890007, 12832521.849548954516649 ], [ 5142182.816938057541847, 11350572.099395846948028 ], [ 4973779.436238840222359, 9464454.23556461930275 ], [ 5681073.635175548493862, 7477294.343313863500953 ], [ 6152603.101133357733488, 6096386.621580285951495 ], [ 7398788.118307560682297, 5220689.041944360360503 ], [ 6960939.328489597886801, 4176588.081609215587378 ], [ 5546350.930616177618504, 3974504.024770155549049 ], [ 4434888.618001345545053, 3738739.291791252791882 ], [ 3693913.74292479455471, 3570335.911092035472393 ], [ 3424468.333806045353413, 3199848.473553758114576 ], [ 2144602.640491999685764, 3671377.939511567354202 ], [ 22720.043681871145964, 4243949.433888901025057 ], [ -2840137.428204815834761, 4378672.138448275625706 ], [ -4524171.235196981579065, 3806100.644070938229561 ], [ -6140843.689909461885691, 2054705.484799087047577 ], [ -6814457.212706327438354, 539075.05850613489747 ], [ -6309247.070608677342534, -2222740.384961016476154 ], [ -4962020.025014944374561, -4310942.305631302297115 ], [ -3075902.161183718591928, -5254001.237546917051077 ], [ -819296.859814215451479, -6062337.46490315720439 ], [ 1134182.356296699494123, -5893934.084203939884901 ], [ 2414048.049610745161772, -5759211.379644565284252 ], [ 3525510.362225577235222, -5287681.913686759769917 ], [ 3997039.828183382749557, -4580387.714750051498413 ], [ 4401207.941861502826214, -3401564.049855533987284 ], [ 4434888.618001345545053, -2189059.708821173757315 ], [ 4569611.322560720145702, -572387.254108693450689 ], [ 5209544.169217742979527, -1010236.043926656246185 ], [ 6186283.777273200452328, -1347042.805325089022517 ], [ 7331426.766027875244617, -538706.577968848869205 ], [ 8240805.021803643554449, 707478.439205354079604 ], [ 9419628.686698161065578, 1347411.285862376913428 ], [ 10598452.351592678576708, 2021024.808659244328737 ], [ 12248805.482444997876883, 3368251.85425297729671 ], [ 12922419.005241867154837, 4008184.700910000130534 ], [ 13393948.471199672669172, 5288050.394224047660828 ], [ 13360267.795059833675623, 7005764.877356057986617 ], [ 12551931.56770359352231, 8959244.093466971069574 ], [ 11036301.141410641372204, 10744319.928878668695688 ], [ 9284905.98213878646493, 12293631.031311461701989 ], [ 8375527.726363018155098, 12731479.821129424497485 ], [ 6253645.129552885890007, 12832521.849548954516649 ] ] ] ] } }
]
}
