{
"type": "FeatureCollection",
"name": "map010",
"crs": { "type": "name", "properties": { "name": "urn:ogc:def:crs:ESRI::102016" } },
"features": [
{ "type": "Feature", "properties": { "id": 1 }, "geometry": { "type": "MultiPolygon", "coordinates": [ [ [ [ -6471306.021993029862642, -1925077.589735735673457 ], [ -6971608.672432826831937, -1566164.818768054712564 ], [ -7189131.563928390853107, -1109366.746627370361239 ], [ -7200007.708503169938922, -543807.228738903533667 ], [ -7200007.708503169938922, 119637.590322567149997 ], [ -7189131.563928390853107, 619940.240762364584953 ], [ -7156503.13020405638963, 1163747.469501274637878 ], [ -6971608.672432826831937, 1772811.565688854083419 ], [ -6667076.624339037574828, 2088219.758357422193512 ], [ -5361939.275365652516484, 3143205.782110908534378 ], [ -4709370.600878961384296, 3382480.962756027467549 ], [ -3752269.878298480063677, 3382480.962756027467549 ], [ -2425380.240175537765026, 2882178.312316230498254 ], [ -1968582.168034855276346, 3230214.938709132838994 ], [ -1490031.806744612753391, 3600003.85425159195438 ], [ -1120242.89120215550065, 3578251.565102035179734 ], [ -728701.686510136350989, 2784293.011143225710839 ], [ -1022357.590029148384929, 1957706.023460082244128 ], [ -1500907.951319389045238, 989729.156304821837693 ], [ -1914201.445160960778594, 10876.144574783742428 ], [ -2283990.36070341989398, -826586.987683138810098 ], [ -2729912.288269326090813, -1631421.686216725967824 ], [ -2947435.179764891043305, -2120848.192081744782627 ], [ -3099701.203811785206199, -2566770.119647650979459 ], [ -3273719.517008237540722, -2925682.890615331940353 ], [ -3730517.589148921892047, -2990939.75806400179863 ], [ -4480971.564808618277311, -2686407.709970211610198 ], [ -5383691.564515208825469, -2218733.493254749104381 ], [ -6471306.021993029862642, -1925077.589735735673457 ] ] ] ] } },
{ "type": "Feature", "properties": { "id": 2 }, "geometry": { "type": "MultiPolygon", "coordinates": [ [ [ [ -2642903.131671102717519, -1935953.734310515224934 ], [ -2305742.64985297806561, -1424774.939295940101147 ], [ -1827192.2885627374053, -891843.855131807737052 ], [ -1305137.348973384127021, -391541.204692009836435 ], [ -761330.120234472677112, -108761.445747776888311 ], [ -380665.060117237269878, -271903.614369450137019 ], [ 10876.144574778154492, -685197.108211021870375 ], [ 0.0, -1022357.590029146522284 ], [ -217522.891495563089848, -1403022.650146383792162 ], [ -630816.385337134823203, -1914201.445160958915949 ], [ -1087614.457477819174528, -2370999.517301643267274 ], [ -1511784.095894169062376, -2795169.155717994086444 ], [ -1870696.86686185002327, -2936559.035190110094845 ], [ -2175228.914955640211701, -3034444.336363114416599 ], [ -2403627.951025983318686, -3001815.902638779953122 ], [ -2675531.565395437180996, -2893054.456890997476876 ], [ -2816921.444867555052042, -2675531.565395433455706 ], [ -2740788.43284410610795, -2175228.914955635555089 ], [ -2642903.131671102717519, -1935953.734310515224934 ] ] ] ] } },
{ "type": "Feature", "properties": { "id": 3 }, "geometry": { "type": "MultiPolygon", "coordinates": [ [ [ [ -6488945.397811971604824, -1912423.25490910327062 ], [ -6454991.805130869150162, -2545017.830498091876507 ], [ -6759523.853224657475948, -3154081.92668567225337 ], [ -7172817.347066229209304, -4111182.64926615357399 ], [ -7172817.347066229209304, -4546228.43225728161633 ], [ -7085808.190468003973365, -5851365.781230667605996 ], [ -6716019.274925544857979, -6895475.660409374162555 ], [ -6106955.17873796634376, -7852576.382989857345819 ], [ -6128707.467887522652745, -8570401.924925217404962 ], [ -6389734.937682198360562, -9331732.045159691944718 ], [ -7346835.660262681543827, -9875539.273898603394628 ], [ -9217532.527124533429742, -9766777.828150819987059 ], [ -10044119.514807676896453, -9483998.069206587970257 ], [ -11088229.393986383453012, -8787924.816420782357454 ], [ -12132339.273165091872215, -7852576.382989857345819 ], [ -13306962.887241138145328, -7308769.15425094589591 ], [ -14111797.585774725303054, -7112998.551904939115047 ], [ -15721466.982841899618506, -6134145.540174899622798 ], [ -15830228.42858968116343, -5285806.263342199847102 ], [ -15438687.223897665739059, -4393962.408210387453437 ], [ -15068898.308355208486319, -3828402.890321919694543 ], [ -14329320.477270290255547, -3567375.420527243986726 ], [ -12632641.92360488884151, -2632026.987096317112446 ], [ -10832639.996479094028473, -1870696.866861844435334 ], [ -10136566.74369328841567, -1500907.951319385319948 ], [ -9375236.623458813875914, -565559.517888458445668 ], [ -8831429.394719906151295, 543807.228738917969167 ], [ -7852576.382989866659045, 1566164.818768069148064 ], [ -6634448.190614709630609, 2632026.987096331547946 ], [ -6684692.632044158875942, 2069974.607519974699244 ], [ -6612695.901465153321624, 1642297.830791514832526 ], [ -6743209.636362491175532, 1316013.493548168800771 ], [ -6841094.937535495497286, 924472.2888561533764 ], [ -7025989.395306725054979, 511178.795014581643045 ], [ -7200007.708503169938922, -65256.867448663339019 ], [ -6884599.515834607183933, -478550.361290235072374 ], [ -6754085.780937268398702, -1000605.300879588350654 ], [ -6488945.397811971604824, -1912423.25490910327062 ] ] ] ] } },
{ "type": "Feature", "properties": { "id": 4 }, "geometry": { "type": "MultiPolygon", "coordinates": [ [ [ [ -543807.228738912381232, -5829613.492081110365689 ], [ -989729.156304819509387, -5720852.046333328820765 ], [ -1326889.638122943229973, -5329310.841641313396394 ], [ -1305137.348973386920989, -4785503.612902402877808 ], [ -1239880.481524717994034, -4209067.950439157895744 ], [ -946224.578005705960095, -3784898.312022808007896 ], [ -500302.650439799763262, -3447737.830204683355987 ], [ -54380.72287389356643, -3306347.950732566881925 ], [ 511178.795014573261142, -3099701.203811781015247 ], [ 1196375.903225599788129, -3001815.902638777159154 ], [ 1946829.878885296173394, -3023568.191788333468139 ], [ 2392751.806451203301549, -3045320.480937889777124 ], [ 3001815.902638781815767, -3284595.66158301057294 ], [ 3502118.553078580647707, -3578251.565102022141218 ], [ 3589127.709676805883646, -3774022.167448029853404 ], [ 3643508.432550696656108, -4252572.528738270513713 ], [ 3589127.709676805883646, -4600609.155131173320115 ], [ 3360728.673606462776661, -4959521.926098854281008 ], [ 2925682.890615334734321, -4992150.359823188744485 ], [ 2773416.866568440571427, -5242301.685043087229133 ], [ 2534141.68592331930995, -5372815.419940426014364 ], [ 1946829.878885296173394, -5688223.612608993425965 ], [ 1337765.782697716727853, -5688223.612608993425965 ], [ 891843.85513181053102, -5688223.612608993425965 ], [ 206646.746920784004033, -5796985.058356775902212 ], [ -543807.228738912381232, -5829613.492081110365689 ] ] ] ] } },
{ "type": "Feature", "properties": { "id": 5 }, "geometry": { "type": "MultiPolygon", "coordinates": [ [ [ [ -1511784.095894174650311, -6580067.467740805819631 ], [ -946224.57800570782274, -7102122.40733015909791 ], [ -456798.072140688076615, -7580672.768620400689542 ], [ 130513.734897335059941, -7700310.358942961320281 ], [ 717825.541935358196497, -7700310.358942961320281 ], [ 1272508.915249045938253, -7645929.636069070547819 ], [ 1479155.662169832736254, -7667681.925218626856804 ], [ 1870696.866861848160625, -7852576.382989855483174 ], [ 2175228.914955636486411, -8135356.141934089362621 ], [ 2153476.625806080177426, -8385507.467153987847269 ], [ 1827192.288562735542655, -8809677.105570338666439 ], [ 1566164.818768057972193, -9212094.454837132245302 ], [ 1337765.782697714865208, -9592759.514954369515181 ], [ 935348.433430921286345, -9864663.12932382337749 ], [ 543807.228738906793296, -9995176.864221163094044 ], [ 391541.20469201169908, -9995176.864221163094044 ], [ -108761.445747786201537, -9668892.526977816596627 ], [ -500302.650439801625907, -9364360.478884026408195 ], [ -859215.421407481655478, -9212094.454837132245302 ], [ -1446527.228445504792035, -9081580.719939794391394 ], [ -2033839.035483527928591, -8885810.117593785747886 ], [ -2305742.649852983653545, -8526897.346626104786992 ], [ -2425380.240175543352962, -8048346.985335864126682 ], [ -2458008.673899877816439, -7580672.768620400689542 ], [ -2360123.372726874426007, -7178255.419353607110679 ], [ -2088219.758357419632375, -6688828.913488587364554 ], [ -1511784.095894174650311, -6580067.467740805819631 ] ] ] ] } },
{ "type": "Feature", "properties": { "id": 6 }, "geometry": { "type": "MultiPolygon", "coordinates": [ [ [ [ 1606950.360923475585878, -9984300.719646384939551 ], [ 2052872.288489382714033, -9135961.442813685163856 ], [ 2368280.481157950125635, -8668287.226098222658038 ], [ 2933839.999046416953206, -8352879.033429654315114 ], [ 3640789.396407000720501, -8167984.575658424757421 ], [ 4358614.938342361710966, -8146232.286508868448436 ], [ 4706651.564735264517367, -7972213.973312417045236 ], [ 5554990.841567964293063, -7983090.117887195199728 ], [ 6425082.407550220377743, -8189736.864807981066406 ], [ 7066774.937462135218084, -8483392.768326992169023 ], [ 8010280.479324141517282, -9364360.478884026408195 ], [ 8227803.370819706469774, -10310585.056889731436968 ], [ 8108165.780497146770358, -10941401.442226868122816 ], [ 7803633.732403356581926, -11474332.526391 ], [ 7325083.371113115921617, -12105148.911728136241436 ], [ 6672514.696626422926784, -12692460.71876615844667 ], [ 5780670.841494610533118, -13094878.068032952025533 ], [ 5008464.576685357838869, -13171011.080056399106979 ], [ 4225382.167301326990128, -13290648.670378960669041 ], [ 3812088.673459755256772, -13268896.381229404360056 ], [ 2963749.396627054549754, -13105754.212607730180025 ], [ 2322056.866715140640736, -12822974.453663496300578 ], [ 1658612.047653670655563, -12094272.767153356224298 ], [ 1549850.601905888644978, -11311190.357769325375557 ], [ 1484593.734457219252363, -10538984.092960074543953 ], [ 1606950.360923475585878, -9984300.719646384939551 ] ] ] ] } },
{ "type": "Feature", "properties": { "id": 7 }, "geometry": { "type": "MultiPolygon", "coordinates": [ [ [ [ 4584294.938269008882344, -7906957.105863749049604 ], [ 3638070.360263305716217, -7928709.395013305358589 ], [ 2931120.962902721948922, -7743814.937242075800896 ], [ 1854382.649999679997563, -7667681.925218628719449 ], [ 929910.361143532209098, -7374026.02169961668551 ], [ 473112.289002847857773, -7145626.98562927544117 ], [ 146827.951759501360357, -6764961.925512038171291 ], [ 81571.084310832433403, -6416925.29911913536489 ], [ 179456.385483835823834, -6340792.287095687352121 ], [ 244713.252932505682111, -6090640.961875788867474 ], [ 581873.734750629402697, -5862241.925805446691811 ], [ 1114804.818914761766791, -5840489.636655889451504 ], [ 1615107.469354558736086, -5960127.226978451013565 ], [ 2332933.011289920657873, -6221154.696773126721382 ], [ 3170396.143547842279077, -6210278.55219834856689 ], [ 3975230.842081430368125, -6155897.829324457794428 ], [ 4867074.697213242761791, -6264659.275072240270674 ], [ 5378253.492227817885578, -6264659.275072240270674 ], [ 5889432.287242393009365, -6264659.275072240270674 ], [ 6259221.202784852124751, -6264659.275072240270674 ], [ 6683390.841201202012599, -6340792.287095687352121 ], [ 7096684.335042773745954, -6514810.600292138755322 ], [ 7303331.081963560543954, -6710581.202638146467507 ], [ 7390340.238561785779893, -7058617.829031049273908 ], [ 7335959.515687895007432, -7569796.624045625329018 ], [ 7064055.901318439282477, -7896080.961288970895112 ], [ 6542000.961729086004198, -7928709.395013305358589 ], [ 5943813.010116285644472, -7841700.23841508012265 ], [ 5149854.456157476641238, -7765567.22639163210988 ], [ 4584294.938269008882344, -7906957.105863749049604 ] ] ] ] } }
]
}
