{
"type": "FeatureCollection",
"name": "map051",
"crs": { "type": "name", "properties": { "name": "urn:ogc:def:crs:ESRI::102016" } },
"features": [
{ "type": "Feature", "properties": { "id": 1 }, "geometry": { "type": "MultiPolygon", "coordinates": [ [ [ [ -1967210.631498958915472, -473704.552955542691052 ], [ -2162687.288327210582793, -881655.836771025322378 ], [ -2392159.885473419912159, -1391594.941540378611535 ], [ -2604634.512460650876164, -1646564.493925055488944 ], [ -2868103.049924816004932, -1740053.329799436964095 ], [ -3616013.736919867806137, -2003521.867263603024185 ], [ -4695384.842014999128878, -1935529.986627688631415 ], [ -5171328.006466396152973, -1850540.135832796804607 ], [ -5944735.648699915036559, -1476584.792335270904005 ], [ -6276196.066799994558096, -1340601.03106344351545 ], [ -6879624.007443729788065, -1102629.448837745003402 ], [ -7423559.052531039342284, -881655.836771025322378 ], [ -7840009.321426011621952, -618187.299306859262288 ], [ -7984492.067777328193188, -193238.0453323982656 ], [ -8179968.724605580791831, 180717.298165127635002 ], [ -8196966.694764559157193, 1370575.209293619263917 ], [ -7789015.410949075594544, 2696416.881693938281387 ], [ -6956114.873159132897854, 3563313.359801839105785 ], [ -5919238.693461447022855, 4039256.524253235198557 ], [ -4559401.080743171274662, 4107248.404889149125665 ], [ -3488528.960727529600263, 3648303.210596730932593 ], [ -2536642.631824736483395, 3189358.016304313205183 ], [ -2094695.407691297121346, 1897512.284221951384097 ], [ -1907717.735942534171045, 418688.880390826612711 ], [ -1967210.631498958915472, -473704.552955542691052 ] ] ] ] } },
{ "type": "Feature", "properties": { "id": 2 }, "geometry": { "type": "MultiPolygon", "coordinates": [ [ [ [ -8179968.724605580791831, 180717.298165127635002 ], [ -7495800.425706697627902, -278227.896127290092409 ], [ -7053853.201573258265853, -686179.179942772723734 ], [ -6689583.053433269262314, -1177575.177179898601025 ], [ -6475922.216167991049588, -2521959.9571124445647 ], [ -6713893.798393689095974, -3439850.345697280950844 ], [ -7104847.112050193361938, -3881797.569830720312893 ], [ -7546794.33618363365531, -3983785.390784590505064 ], [ -7971743.590158094651997, -3609830.047287064604461 ], [ -8311702.993337663821876, -3201878.763471581973135 ], [ -8515678.635245405137539, -2895915.300609970465302 ], [ -8838640.068265995010734, -2555955.897430401295424 ], [ -9144603.531127607449889, -2012020.852343090809882 ], [ -9382575.113353304564953, -1502081.747573737986386 ], [ -9535556.844784110784531, -1009140.612963362596929 ], [ -9569552.785102069377899, -295225.86628626845777 ], [ -9552554.814943090081215, 61731.50705227907747 ], [ -9161601.501286584883928, 367694.969913891516626 ], [ -8179968.724605580791831, 180717.298165127635002 ] ] ] ] } },
{ "type": "Feature", "properties": { "id": 3 }, "geometry": { "type": "MultiPolygon", "coordinates": [ [ [ [ -8678963.012846812605858, -2724037.008397962898016 ], [ -8409441.321751784533262, -3448349.330776767339557 ], [ -8460435.23222872056067, -3805306.704115314409137 ], [ -8579421.023341570049524, -4400235.659679559990764 ], [ -8749400.724931353703141, -5165144.31683359015733 ], [ -8579421.023341570049524, -5760073.272397835738957 ], [ -8171469.739526087418199, -6236016.436849231831729 ], [ -7610536.724279798567295, -6898937.273049391806126 ], [ -7083599.649351466447115, -7595854.049567507579923 ], [ -6896621.977602703496814, -8377760.676880516111851 ], [ -7219583.410623293370008, -9142669.33403454720974 ], [ -7610536.724279798567295, -9533622.647691050544381 ], [ -8222463.650003023445606, -9839586.110552662983537 ], [ -9565303.292562318965793, -10111553.633096318691969 ], [ -10908142.935121616348624, -9805590.170234706252813 ], [ -11554065.801162797957659, -9584616.558167986571789 ], [ -12692929.80181435495615, -8921695.72196782566607 ], [ -13508832.369445320218801, -7969809.393065033480525 ], [ -14273741.026599349454045, -6983927.123844283632934 ], [ -14528710.578984025865793, -5998044.854623533785343 ], [ -14630698.399937896057963, -4910174.764448913745582 ], [ -14477716.668507091701031, -3992284.375864077359438 ], [ -14154755.235486499965191, -3380357.450140853412449 ], [ -13542828.30976327508688, -2530458.942191930953413 ], [ -12505952.130065590143204, -1884536.076150750275701 ], [ -11384086.099573014304042, -1680560.434243008960038 ], [ -10347209.919875327497721, -1374596.971381396753713 ], [ -9752280.964311081916094, -1544576.672971181105822 ], [ -9403822.576052024960518, -1850540.135832795407623 ], [ -9037130.46015952527523, -2203084.089619680773467 ], [ -8757899.710010845214128, -2479465.031714998185635 ], [ -8678963.012846812605858, -2724037.008397962898016 ] ] ] ] } },
{ "type": "Feature", "properties": { "id": 4 }, "geometry": { "type": "MultiPolygon", "coordinates": [ [ [ [ -8570268.270179042592645, -4354471.893866925500333 ], [ -8451936.247149230912328, -3745813.808558890130371 ], [ -8094978.873810683377087, -3788308.733956336043775 ], [ -7874005.261743963696063, -3822304.674274292774498 ], [ -7593538.754120819270611, -4094272.196817948017269 ], [ -7330070.216656653210521, -4366239.71936160326004 ], [ -7194086.455384826287627, -4952669.689846359193325 ], [ -7109096.604589933529496, -5462608.794615712948143 ], [ -6998609.798556573688984, -5802568.197795282118022 ], [ -7185587.470305336639285, -6219018.466690253466368 ], [ -7491550.933166949078441, -6355002.227962081320584 ], [ -7797514.396028560586274, -6236016.436849232763052 ], [ -8001490.037936301901937, -6100032.675577404908836 ], [ -8341449.441115871071815, -5734576.317159367725253 ], [ -8570922.038262080401182, -5241635.182548993267119 ], [ -8570268.270179042592645, -4354471.893866925500333 ] ] ] ] } },
{ "type": "Feature", "properties": { "id": 5 }, "geometry": { "type": "MultiPolygon", "coordinates": [ [ [ [ -1984184.601700071012601, -509128.490766559087206 ], [ -1219299.94450390804559, -65753.269140059594065 ], [ -760354.750211490318179, -14759.358663124032319 ], [ 55547.817419474944472, -473704.552955542225391 ], [ 514493.011711893603206, -813663.95613511139527 ], [ 1024432.116481246426702, -1408592.911699356976897 ], [ 1415385.430137751623988, -1986523.8971046237275 ], [ 1636359.042204471305013, -2445469.091397042386234 ], [ 1772342.803476298227906, -3057396.017120266333222 ], [ 1551369.191409578546882, -3533339.181571662425995 ], [ 1160415.87775307521224, -3703318.883161447010934 ], [ 616480.832665763795376, -3873298.584751231595874 ], [ 55547.817419474944472, -3822304.674274295568466 ], [ -556379.108303748071194, -3584333.09204859752208 ], [ -1236297.914662886410952, -3278369.629186986014247 ], [ -2375161.91531444247812, -2530458.942191934213042 ], [ -2808445.20179291209206, -1718884.415946180699393 ], [ -2732119.288652990013361, -1459586.822176292072982 ], [ -2647129.43785809725523, -1221615.239950594026595 ], [ -2460151.766109334304929, -881655.836771024856716 ], [ -1984184.601700071012601, -509128.490766559087206 ] ] ] ] } },
{ "type": "Feature", "properties": { "id": 6 }, "geometry": { "type": "MultiPolygon", "coordinates": [ [ [ [ -583236.607931240461767, -3572247.217216225806624 ], [ -267413.615601114928722, -3397355.420299834571779 ], [ 327515.339963130652905, -3652324.972684511914849 ], [ 656162.926702383439988, -3860897.930364788044244 ], [ 973438.206004312261939, -4060276.256499994546175 ], [ 1177413.847912052646279, -4570215.361269347369671 ], [ 922444.295527376234531, -4893176.794289938174188 ], [ 616480.832665763795376, -5114150.406356657855213 ], [ 395507.220599044114351, -5573095.600649075582623 ], [ 21551.877101518213749, -5862061.093351708725095 ], [ -471389.257508857175708, -5998044.854623537510633 ], [ -811348.660688424482942, -5998044.854623537510633 ], [ -1168306.034026972949505, -5828065.153033751994371 ], [ -1253295.884821864776313, -5471107.779695205390453 ], [ -1321287.76545777823776, -4910174.76444891653955 ], [ -1049320.24291412346065, -4196260.017771821469069 ], [ -583236.607931240461767, -3572247.217216225806624 ] ] ] ] } },
{ "type": "Feature", "properties": { "id": 7 }, "geometry": { "type": "MultiPolygon", "coordinates": [ [ [ [ 819111.807562956935726, -4967805.813375351950526 ], [ 803458.504414525814354, -4629708.256825771182775 ], [ 922444.295527375303209, -4272750.883487224578857 ], [ 979885.711926682735793, -4076395.021305921021849 ], [ 1185912.832991540431976, -3796807.719035827554762 ], [ 1431721.317198326811194, -3585359.996446119621396 ], [ 1780841.788555786944926, -3354860.494902388192713 ], [ 2112302.206655866466463, -3201878.763471581973135 ], [ 2265283.938086671754718, -3193379.778392092790455 ], [ 2792221.013015003874898, -3269870.644107495434582 ], [ 3013194.625081723555923, -3660823.957764000166208 ], [ 3021693.610161213204265, -3983785.390784590505064 ], [ 3055689.550479169934988, -4468227.540315476246178 ], [ 2885709.848889385350049, -5054657.510800233110785 ], [ 2384269.729199521243572, -5394616.913979801349342 ], [ 1925324.534907103516161, -5649586.46636447776109 ], [ 1695851.937760894186795, -5717578.347000392153859 ], [ 1406886.445058261044323, -5726077.332079880870879 ], [ 1066927.041878691874444, -5513602.705092649906874 ], [ 819111.807562956935726, -4967805.813375351950526 ] ] ] ] } },
{ "type": "Feature", "properties": { "id": 8 }, "geometry": { "type": "MultiPolygon", "coordinates": [ [ [ [ 3871592.118110135197639, -5819566.167954262346029 ], [ 4475020.058753869496286, -5896057.033669665455818 ], [ 4789482.506694971583784, -6015042.824782514944673 ], [ 5010456.118761691264808, -6270012.377167191356421 ], [ 5239928.715907900594175, -6601472.795267270877957 ], [ 5299421.611464324407279, -7051919.004480199888349 ], [ 5069949.014318115077913, -7493866.228613639250398 ], [ 4644999.760343655012548, -7723338.825759848579764 ], [ 4135060.65557430125773, -7859322.587031675502658 ], [ 3140679.401274061761796, -8097294.169257374480367 ], [ 2426764.654596967622638, -8275772.855926647782326 ], [ 1457880.355535196140409, -8377760.676880518905818 ], [ 939442.265686353668571, -8445752.557516433298588 ], [ 556987.937109338119626, -8462750.527675410732627 ], [ -29442.033375417813659, -8479748.497834388166666 ], [ -471389.257508857641369, -8513744.438152346760035 ], [ -1142809.078788506332785, -8513744.438152346760035 ], [ -1678245.138796327169985, -8590235.303867749869823 ], [ -2196683.228645169641823, -8683724.139742130413651 ], [ -2817109.139447882771492, -8420255.602277964353561 ], [ -2885101.0200837966986, -7901817.512429121881723 ], [ -2698123.34833503421396, -7400377.392739257775247 ], [ -2434654.81087086815387, -7017923.064162243157625 ], [ -2111693.377850277349353, -6762953.511777566745877 ], [ -1491267.467047564219683, -6372000.198121061548591 ], [ -811348.660688426345587, -6244515.421928724274039 ], [ -241916.660362648312002, -6117030.645736385136843 ], [ 438002.145996489562094, -5921553.988908132538199 ], [ 1151916.892673583701253, -5870560.078431198373437 ], [ 2018813.370781484991312, -5760073.272397838532925 ], [ 2486257.550153392367065, -5717578.347000392153859 ], [ 3871592.118110135197639, -5819566.167954262346029 ] ] ] ] } },
{ "type": "Feature", "properties": { "id": 9 }, "geometry": { "type": "MultiPolygon", "coordinates": [ [ [ [ 4227632.588494047522545, -7834636.738253076560795 ], [ 4833039.805227352306247, -8505245.453072857111692 ], [ 5257989.059201813302934, -8658227.18450366333127 ], [ 5682938.313176274299622, -8641229.214344685897231 ], [ 6243871.328422563150525, -8539241.393390815705061 ], [ 6821802.313827829435468, -8437253.572436943650246 ], [ 7263749.537961268797517, -7995306.348303504288197 ], [ 7688698.791935730725527, -7706340.855600871145725 ], [ 8368617.598294869065285, -7162405.810513560660183 ], [ 9014540.464336048811674, -7145407.840354582294822 ], [ 9558475.509423360228539, -7298389.5717853885144 ], [ 9711457.240854166448116, -8063298.228939418680966 ], [ 9643465.36021825298667, -8981188.61752425506711 ], [ 9286507.986879704520106, -9814089.155314199626446 ], [ 8538597.299884652718902, -10799971.424534948542714 ], [ 7399733.299233097583055, -11870843.544550590217113 ], [ 6294865.238899499177933, -12567760.321068705990911 ], [ 4748049.954432459548116, -13060701.455679081380367 ], [ 3048252.938534615561366, -13128693.336314994841814 ], [ 1195474.191205964423716, -12771735.962976448237896 ], [ -708298.466599621344358, -12074819.186458332464099 ], [ -2034140.138999939896166, -11071938.947078604251146 ], [ -2153125.930112788919359, -9831087.125473177060485 ], [ -1779170.586615263251588, -9049180.498160168528557 ], [ -1184241.631051017669961, -8811208.915934469550848 ], [ -266351.242466181516647, -8743217.035298556089401 ], [ 585379.846050644060597, -8461488.665055796504021 ], [ 926930.97635204938706, -8446308.614820180460811 ], [ 1714203.342187666799873, -8350779.309864468872547 ], [ 3164795.190692936070263, -8091522.869225506670773 ], [ 3722893.644965087063611, -7957960.845980889163911 ], [ 4227632.588494047522545, -7834636.738253076560795 ] ] ] ] } },
{ "type": "Feature", "properties": { "id": 10 }, "geometry": { "type": "MultiPolygon", "coordinates": [ [ [ [ 7277465.077340095303953, -7985979.781525902450085 ], [ 6966285.060179146938026, -8292770.826085626147687 ], [ 6501322.128129105083644, -8493808.899324955418706 ], [ 6058389.478047790005803, -8572965.366186229512095 ], [ 5318405.167194987647235, -8655810.540183937177062 ], [ 4951315.341213162988424, -8547824.646027749404311 ], [ 4639579.883719929493964, -8290950.172565191984177 ], [ 4388169.971462774090469, -8012463.769543016329408 ], [ 4393137.979992710985243, -7790501.967186766676605 ], [ 4484581.416968294419348, -7400377.39273925870657 ], [ 4756548.939511949196458, -6890438.287969905883074 ], [ 5011518.491896626539528, -6728957.571459610015154 ], [ 5218549.518940445035696, -6570591.732980947010219 ], [ 5725433.238573720678687, -6227517.451769745908678 ], [ 6099388.582071246579289, -6006543.839703026227653 ], [ 6345859.149376434274018, -5598592.555887543596327 ], [ 6634824.642079068347812, -5275631.12286695279181 ], [ 6736812.463032938539982, -5165144.316833592951298 ], [ 7289246.493199737742543, -5615590.526046521961689 ], [ 7433729.239551055245101, -6388998.168280040845275 ], [ 7527218.075425436720252, -6813947.422254502773285 ], [ 7399733.299233097583055, -7349383.482262323610485 ], [ 7425230.254471565596759, -7697841.870521381497383 ], [ 7277465.077340095303953, -7985979.781525902450085 ] ] ] ] } },
{ "type": "Feature", "properties": { "id": 11 }, "geometry": { "type": "MultiPolygon", "coordinates": [ [ [ [ 6768168.631151233799756, -5190711.653914664871991 ], [ 6304264.792111814953387, -5667438.388601396232843 ], [ 5990437.580386093817651, -6070923.977062434889376 ], [ 5645109.363044226542115, -6281883.087898908182979 ], [ 5302608.730869131162763, -6261513.392087703570724 ], [ 5014242.416614603251219, -6275481.474065842106938 ], [ 4673683.834986928850412, -6202020.496531278826296 ], [ 4197740.67053553275764, -6074535.720338940620422 ], [ 3855003.419913556426764, -5818344.914099299348891 ], [ 3509322.879096905235201, -5462608.794615715742111 ], [ 3330844.192427631467581, -5131148.376515636220574 ], [ 3177862.460996825713664, -4680702.167302707210183 ], [ 3052227.483050159178674, -4418893.079452071338892 ], [ 3029299.746272168122232, -4092172.830365697387606 ], [ 3126868.550519890151918, -3924292.495228166691959 ], [ 3466827.953699459321797, -3915793.510148677974939 ], [ 4214738.640694510191679, -4162264.077453864738345 ], [ 5039140.193404965102673, -4442730.585077009163797 ], [ 5430093.507061469368637, -4272750.883487224578857 ], [ 5770052.910241038538516, -3932791.480307656340301 ], [ 5991026.52230775821954, -3711817.868240935727954 ], [ 6271493.029930902644992, -3652324.972684511914849 ], [ 6679444.313746385276318, -3711817.868240935727954 ], [ 7019403.716925954446197, -4085773.211738461628556 ], [ 6993906.761687486432493, -4884677.809210448525846 ], [ 6768168.631151233799756, -5190711.653914664871991 ] ] ] ] } },
{ "type": "Feature", "properties": { "id": 12 }, "geometry": { "type": "MultiPolygon", "coordinates": [ [ [ [ 6359567.510244657285511, -3665169.167730267625302 ], [ 6029966.511942606419325, -3703557.870439604390413 ], [ 5748805.447542315348983, -3954038.943006379064173 ], [ 5502334.880237127654254, -4200509.51031156629324 ], [ 5252952.498488967306912, -4349768.713301355950534 ], [ 4973332.563268619589508, -4420342.422247118316591 ], [ 4449227.403924975544214, -4242038.605150827206671 ], [ 3816259.493074782658368, -4030947.085624636616558 ], [ 3448141.865329814143479, -3916260.662357918918133 ], [ 3111152.449519908521324, -3951334.174413179513067 ], [ 2905894.938453170470893, -3779809.748876850120723 ], [ 2820905.087658278178424, -3499343.241253706160933 ], [ 3041878.699724997859448, -3099890.942517712712288 ], [ 3313846.222268653102219, -2708937.628861208446324 ], [ 3670803.59560720063746, -2343481.270443171728402 ], [ 3764292.43148158211261, -2105509.688217473682016 ], [ 3611310.700050775893033, -1672061.449163523036987 ], [ 3747294.461322603747249, -1230114.225030083442107 ], [ 4070255.894343194086105, -822162.941214600810781 ], [ 4597192.969271525740623, -669181.209783794824034 ], [ 5158125.984517814591527, -1094130.463758256053552 ], [ 5591574.223571765236557, -1595570.583448120160028 ], [ 5965529.567069290205836, -1748552.314878926146775 ], [ 6424474.76136170886457, -1961026.941866156645119 ], [ 6492466.641997622326016, -2581452.852668869774789 ], [ 6534961.567395068705082, -3014901.091722820419818 ], [ 6458470.701679665595293, -3431351.360617792233825 ], [ 6359567.510244657285511, -3665169.167730267625302 ] ] ] ] } },
{ "type": "Feature", "properties": { "id": 13 }, "geometry": { "type": "MultiPolygon", "coordinates": [ [ [ [ 6529475.92110282741487, -3044767.388202798552811 ], [ 6271493.029930902644992, -2572953.867589380592108 ], [ 6042020.432784693315625, -2063014.762820027302951 ], [ 5893385.969828175380826, -1719039.025098470039666 ], [ 6016523.477546226233244, -584191.358988902531564 ], [ 6364981.865805284120142, 231711.208642062731087 ], [ 6815428.075018213130534, 563171.626742142252624 ], [ 7163886.463277271017432, 622664.522298566997051 ], [ 7758815.418841516599059, 554672.641662653069943 ], [ 8379241.32964423019439, 257208.16388053027913 ], [ 8685204.792505841702223, 61731.507052278146148 ], [ 9016665.21060592122376, -252730.940888823010027 ], [ 9356624.613785490393639, -669181.209783794824034 ], [ 9577598.225852210074663, -1179120.314553148113191 ], [ 9543602.28553425334394, -1757051.299958415329456 ], [ 9322628.673467533662915, -2326483.300284193363041 ], [ 9033663.180764900520444, -2802426.464735589921474 ], [ 8685204.792505841702223, -3125387.897756180725992 ], [ 8209261.62805444560945, -3482345.27109472732991 ], [ 7860803.239795387722552, -3516341.211412684991956 ], [ 7299870.224549098871648, -3482345.27109472732991 ], [ 6529475.92110282741487, -3044767.388202798552811 ] ] ] ] } },
{ "type": "Feature", "properties": { "id": 14 }, "geometry": { "type": "MultiPolygon", "coordinates": [ [ [ [ 8888382.000348158180714, -131026.356798124033958 ], [ 8523421.372417373582721, 165093.136553244432434 ], [ 8171880.487774631008506, 356627.745598831330426 ], [ 7758815.418841516599059, 554672.641662653069943 ], [ 7916046.64281206484884, 1175098.552465362474322 ], [ 7644079.120268410071731, 2432948.344229768961668 ], [ 7542091.299314538948238, 3656802.195676215924323 ], [ 7389109.567883733659983, 4353718.972194332629442 ], [ 7100144.075181099586189, 4863658.076963686384261 ], [ 6726188.731683573685586, 5883536.286502392962575 ], [ 6369231.358345026150346, 7294367.809697603806853 ], [ 6012273.985006479546428, 8042278.496692655608058 ], [ 5553328.790714060887694, 8739195.273210771381855 ], [ 5383349.089124276302755, 9249134.377980124205351 ], [ 5825296.313257716596127, 9521101.900523779913783 ], [ 6097263.835801371373236, 9606091.751318672671914 ], [ 6675194.821206638589501, 9283130.318298082798719 ], [ 7593085.209791474975646, 8042278.496692655608058 ], [ 8374991.837104482576251, 7158384.048425775952637 ], [ 9241888.31521238386631, 6274489.600158897228539 ], [ 9870813.21109458617866, 5679560.644594651646912 ], [ 10414748.25618189573288, 4676680.405214923433959 ], [ 10720711.719043508172035, 3707796.10615315195173 ], [ 10720711.719043508172035, 2823901.657886272296309 ], [ 10924687.360951250419021, 1889013.299142457544804 ], [ 10720711.719043508172035, 954124.940398642793298 ], [ 10091786.823161305859685, 172218.31308563426137 ], [ 9445863.95712012425065, -116747.179616998881102 ], [ 8888382.000348158180714, -131026.356798124033958 ] ] ] ] } },
{ "type": "Feature", "properties": { "id": 15 }, "geometry": { "type": "MultiPolygon", "coordinates": [ [ [ [ 7224333.618302248418331, 4644500.059691071510315 ], [ 7442288.518225031904876, 4111459.309528416022658 ], [ 7570167.256921955384314, 3319890.704387223348022 ], [ 7643317.142295766621828, 2442092.079901495017111 ], [ 7779683.303699981421232, 1805778.995858752168715 ], [ 7874387.97484393324703, 1367769.891817971598357 ], [ 7843104.108050501905382, 887271.253135950304568 ], [ 7713632.458275897428393, 559836.408584438031539 ], [ 7236155.230441902764142, 614405.234622609103099 ], [ 6803100.621024738997221, 554100.481350717833266 ], [ 6604717.036505326628685, 408120.107836433453485 ], [ 6273158.587665805593133, 16710.362266698270105 ], [ 6075505.90363999735564, -446086.1661839755252 ], [ 5978927.834473845548928, -930676.589908721740358 ], [ 5935573.454639122821391, -1330234.918502781074494 ], [ 5907636.330683818086982, -1587706.265016351360828 ], [ 5793774.856206267140806, -1678289.024071325780824 ], [ 5465466.58480064291507, -1449681.354281527688727 ], [ 5106827.122125833295286, -1055267.689218875952065 ], [ 4642110.15500230435282, -703209.380791960051283 ], [ 4455218.320724374614656, -710399.656136193545535 ], [ 4016572.603849107865244, -889973.41341765713878 ], [ 3794038.879259792156518, -992142.642804387956858 ], [ 4066006.401803447399288, -303724.851365760434419 ], [ 4006513.506247022654861, 401690.91023184498772 ], [ 3683552.073226432316005, 971122.910557623021305 ], [ 3394586.580523799173534, 1897512.284221948124468 ], [ 3216107.893854524940252, 2679418.911534956656396 ], [ 3165113.983377589844167, 3478323.509006943553686 ], [ 3080124.132582697551697, 4047755.509332721121609 ], [ 2986635.296708316076547, 4260230.136319952085614 ], [ 2952639.356390359345824, 4498201.718545650132 ], [ 3581564.252272561658174, 4770169.24108930490911 ], [ 4210489.148154764436185, 4965645.897917557507753 ], [ 5051888.671024197712541, 4957146.912838067859411 ], [ 5850793.268496183678508, 4965645.897917557507753 ], [ 6760184.672001531347632, 4855159.091884197667241 ], [ 7224333.618302248418331, 4644500.059691071510315 ] ] ] ] } },
{ "type": "Feature", "properties": { "id": 16 }, "geometry": { "type": "MultiPolygon", "coordinates": [ [ [ [ 2965642.803561978042126, 4407177.588344319723547 ], [ 3110053.005732522346079, 3847232.05922889476642 ], [ 3219424.9317707256414, 2664887.126378268469125 ], [ 3390427.756550315301865, 1915731.894010543590412 ], [ 3663692.206580612342805, 1034791.30656922259368 ], [ 4006513.506247022654861, 401690.91023184498772 ], [ 4051381.85101482225582, -130319.463443490676582 ], [ 3912256.008043764159083, -692905.535569958388805 ], [ 3846684.197560550179332, -967972.231728340848349 ], [ 3696576.193605002015829, -1394948.59511228883639 ], [ 3619155.917047228198498, -1694289.563986804103479 ], [ 3693685.478513518348336, -1905456.654807959683239 ], [ 3763672.615995121188462, -2107087.400364829227328 ], [ 3586430.05648981127888, -2429863.703349070623517 ], [ 3211122.183498977217823, -2856603.434592617210001 ], [ 3101371.595281420275569, -3193379.778392096515745 ], [ 2887808.7207419318147, -3438987.357778213918209 ], [ 2671696.743201774545014, -3252375.185586220119148 ], [ 2364797.850644789636135, -3207825.346344077493995 ], [ 1988004.549868332222104, -2938410.226007420103997 ], [ 1640708.522803974803537, -2465041.754094808828086 ], [ 1439116.101311119506136, -2035810.675695464713499 ], [ 1299586.758429705165327, -1561574.643130165990442 ], [ 968126.340329625178128, -465205.567876056302339 ], [ 849140.549216776154935, 478181.775947247631848 ], [ 560175.056514142546803, 979621.895637111738324 ], [ -119743.749844995327294, 1481062.015326975379139 ], [ -434206.197786096483469, 2220473.717242537532002 ], [ -527695.03366047795862, 2662420.941375977359712 ], [ -655179.809852816280909, 3112867.150588905904442 ], [ -434206.197786096483469, 4141244.345207100734115 ], [ -77248.824447549181059, 4693678.375373899936676 ], [ 432690.280321804340929, 4965645.897917555645108 ], [ 849140.549216776154935, 5212116.465222742408514 ], [ 1393075.594304086640477, 5144124.584586828947067 ], [ 2208978.161935051903129, 4855159.091884195804596 ], [ 2965642.803561978042126, 4407177.588344319723547 ] ] ] ] } },
{ "type": "Feature", "properties": { "id": 17 }, "geometry": { "type": "MultiPolygon", "coordinates": [ [ [ [ 9877574.667814871296287, 5667094.208766626194119 ], [ 9230817.205619202926755, 6285777.790332335978746 ], [ 8557399.602172896265984, 6972399.660512883216143 ], [ 8076585.770518945530057, 7495712.645435513928533 ], [ 7447413.945575189776719, 8239204.464985040947795 ], [ 6921839.59451284725219, 8949703.124754503369331 ], [ 6398039.38819257542491, 9438011.295570647343993 ], [ 5515083.3578563593328, 10354002.438313726335764 ], [ 4138247.774979105219245, 11305888.767216518521309 ], [ 2846402.042896742932498, 12104793.364688506349921 ], [ 1724536.012404165696353, 13022683.753273341804743 ], [ 1146605.026998898712918, 13617612.70883758738637 ], [ 296706.519049976370297, 14127551.813606942072511 ], [ 160722.757778148748912, 14654488.888535272330046 ], [ 568674.041593631496653, 14943454.381237907335162 ], [ 1265590.818111747736111, 15011446.261873820796609 ], [ 1962507.5946298642084, 14960452.351396884769201 ], [ 3067375.654963463079184, 14790472.649807101115584 ], [ 4206239.655615018680692, 14552501.067581402137876 ], [ 5192121.924835768528283, 14161547.753924898803234 ], [ 6670945.32866689376533, 13770594.440268393605947 ], [ 7911797.150272320024669, 13175665.484704148024321 ], [ 8931675.359811026602983, 12359762.917073182761669 ], [ 9951553.56934973411262, 11424874.558329369872808 ], [ 10801452.077298656105995, 10387998.378631684929132 ], [ 11617354.644929621368647, 9249134.377980127930641 ], [ 12416259.242401607334614, 8195260.228123463690281 ], [ 12960194.287488918751478, 6699438.854133360087872 ], [ 13249159.78019155189395, 5764550.495389547199011 ], [ 13249159.78019155189395, 5118627.629348365589976 ], [ 12875204.436694025993347, 4336721.002035357058048 ], [ 12416259.242401607334614, 4098749.419809658080339 ], [ 11957314.048109190538526, 4064753.479491701349616 ], [ 11022425.68936537578702, 4540696.643943097442389 ], [ 9877574.667814871296287, 5667094.208766626194119 ] ] ] ] } }
]
}
