{
"type": "FeatureCollection",
"name": "map049",
"crs": { "type": "name", "properties": { "name": "urn:ogc:def:crs:ESRI::102016" } },
"features": [
{ "type": "Feature", "properties": { "id": 1 }, "geometry": { "type": "MultiPolygon", "coordinates": [ [ [ [ -7103253.552347807213664, -1978024.912025130353868 ], [ -7188243.40314269810915, -1332102.045983948744833 ], [ -7018263.701552914455533, -567193.388829917646945 ], [ -6967269.791075978428125, 27735.566734327934682 ], [ -7069257.612029848620296, 741650.313411423005164 ], [ -6763294.149168238043785, 1404571.149611582048237 ], [ -6202361.133921949192882, 2067491.985811742022634 ], [ -5624430.148516681045294, 2594429.060740074142814 ], [ -4825525.551044693216681, 3240351.926781254820526 ], [ -4485566.147865124046803, 3563313.359801845625043 ], [ -4077614.864049641415477, 3563313.359801845625043 ], [ -3890637.192300878465176, 3036376.284873513504863 ], [ -3975627.043095771223307, 2322461.538196418434381 ], [ -4281590.505957383662462, 911630.015001207590103 ], [ -4604551.938977973535657, 112725.417529219761491 ], [ -5063497.13327039219439, -499201.508194004185498 ], [ -5182482.924383241683245, -1009140.612963357008994 ], [ -4791529.610726736485958, -1502081.74757373239845 ], [ -4536560.05834206007421, -1825043.18059432413429 ], [ -5046499.163111412897706, -2080012.732979000546038 ], [ -5777411.879947487264872, -2198998.524091850034893 ], [ -6440332.716147646307945, -2249992.434568784199655 ], [ -7103253.552347807213664, -1978024.912025130353868 ] ] ] ] } },
{ "type": "Feature", "properties": { "id": 1 }, "geometry": { "type": "MultiPolygon", "coordinates": [ [ [ [ -2989744.773875020444393, 2526437.180104160681367 ], [ -2190840.176403034478426, 2747410.792170880362391 ], [ -1612909.190997764468193, 3240351.926781254820526 ], [ -1102970.086228411644697, 3444327.568688997067511 ], [ -661022.862094972282648, 3342339.747735125944018 ], [ -559035.041141103953123, 2917390.493760664947331 ], [ -610028.951618038117886, 2271467.627719483338296 ], [ -881996.474161691963673, 1693536.642314216122031 ], [ -1391935.578931044787169, 1727532.582632172852755 ], [ -1850880.773223463445902, 2424449.359150289557874 ], [ -2173842.206244055181742, 2407451.388991311192513 ], [ -2989744.773875020444393, 2526437.180104160681367 ] ] ] ] } },
{ "type": "Feature", "properties": { "id": 2 }, "geometry": { "type": "MultiPolygon", "coordinates": [ [ [ [ -5170996.887248443439603, -1023623.007611580425873 ], [ -4920204.244830204173923, -308144.323607086786069 ], [ -4604551.938977973535657, 112725.417529219761491 ], [ -4568454.401376741938293, 202019.326332266675308 ], [ -4553599.703556419350207, 238765.157782539143227 ], [ -4347282.369424898177385, 749129.089581565000117 ], [ -4281590.505957383662462, 911630.015001207590103 ], [ -4177856.463474634103477, 1389959.210893886163831 ], [ -4134103.304727755486965, 1591709.887337825493887 ], [ -4087250.896211025770754, 1807751.548831633524969 ], [ -4040861.560814714059234, 2021657.928714627400041 ], [ -4011788.675161419901997, 2155716.234782594721764 ], [ -3741904.953409818932414, 2441447.329309268854558 ], [ -3333953.669594336301088, 2645422.971217010170221 ], [ -2953377.480907679069787, 2536496.21858448907733 ], [ -2989744.773875020444393, 2526437.180104160681367 ], [ -2499093.633544458542019, 2454883.888805953320116 ], [ -2173842.206244055181742, 2407451.388991311192513 ], [ -1974667.786570446332917, 2417934.253184658940881 ], [ -1828742.856693799607456, 2390832.522938577923924 ], [ -1653263.26339429593645, 2124363.510891183279455 ], [ -1517383.772599150193855, 1918027.987831888254732 ], [ -1391935.578931044787169, 1727532.582632172852755 ], [ -1369272.323249861830845, 1726021.698920093942434 ], [ -1226205.369881007820368, 1540554.910883410833776 ], [ -563284.533680848777294, 945625.955319164786488 ], [ -308314.981296172365546, -108248.194537498988211 ], [ -87341.369229452684522, -516199.478352981619537 ], [ 116634.272678289562464, -1281108.135507012717426 ], [ 558581.496811728924513, -1553075.658050667494535 ], [ 1017526.691104147583246, -1587071.598368624225259 ], [ 1153510.45237597450614, -1893035.061230236664414 ], [ 1340488.124124737456441, -2351980.255522655323148 ], [ 1612455.646668393164873, -2742933.569179159589112 ], [ 1561461.736191457137465, -2997903.12156383600086 ], [ 1357486.094283716753125, -3150884.852994642220438 ], [ 1289494.213647803291678, -3507842.226333189755678 ], [ 1544463.766032479703426, -3779809.748876844532788 ], [ 1782435.34825817681849, -3932791.480307650752366 ], [ 1782435.34825817681849, -4119769.152056414633989 ], [ 1544463.766032479703426, -4357740.734282111749053 ], [ 1340488.124124737456441, -4510722.465712917968631 ], [ 1340488.124124737456441, -4646706.226984746754169 ], [ 1221502.333011887967587, -4782689.988256573677063 ], [ 1391482.034601673483849, -5054657.510800229385495 ], [ 1731441.437781242653728, -5224637.212390013039112 ], [ 1918419.109530005604029, -5496604.734933668747544 ], [ 1935417.079688983038068, -5802568.1977952811867 ], [ 1493469.855555543676019, -5870560.078431194648147 ], [ 898540.899991298094392, -5853562.108272215351462 ], [ 303611.944427052512765, -5819566.167954258620739 ], [ -155333.249865366145968, -5921553.988908130675554 ], [ -580282.503839828073978, -6023541.809862000867724 ], [ -1209207.399722030386329, -6091533.690497914329171 ], [ -2127097.78830686584115, -5428612.854297755286098 ], [ -2892006.445460896939039, -4408734.644759047776461 ], [ -3775900.893727775663137, -3762811.778717866167426 ], [ -4353831.879133043810725, -2844921.390133029781282 ], [ -4539959.65237385686487, -1826742.97761022252962 ], [ -4536560.05834206007421, -1825043.18059432413429 ], [ -4788375.123943821527064, -1506077.430832091951743 ], [ -4791529.610726736485958, -1502081.74757373239845 ], [ -5170996.887239360250533, -1023623.007623033714481 ], [ -5170996.887248443439603, -1023623.007611580425873 ] ] ] ] } },
{ "type": "Feature", "properties": { "id": 3 }, "geometry": { "type": "MultiPolygon", "coordinates": [ [ [ [ -6975730.895751953125, -70977.321152038290165 ], [ -7028462.483648301102221, -613087.908259156509303 ], [ -7169645.624027580022812, -1248412.03996591665782 ], [ -7169645.624027580022812, -1248412.039965916890651 ], [ -7188243.40314269810915, -1332102.045983948744833 ], [ -7103253.552347807213664, -1978024.912025130353868 ], [ -7226488.836000397801399, -2436970.106317545287311 ], [ -6886529.43282082863152, -3201878.7634715763852 ], [ -6937523.343297762796283, -3745813.808558885939419 ], [ -7107503.044887548312545, -4255752.91332824062556 ], [ -7481458.388385074213147, -4612710.286666787229478 ], [ -7719429.970610771328211, -4527720.435871894471347 ], [ -7804419.821405664086342, -4306746.823805174790323 ], [ -7889409.672200556844473, -3779809.748876842670143 ], [ -7906407.642359534278512, -3252872.673948510549963 ], [ -8059389.37379034049809, -2912913.270768941380084 ], [ -8331356.896333996206522, -2419972.136158566921949 ], [ -8756306.150308458134532, -2131006.643455932848155 ], [ -9317239.165554746985435, -1808045.210435342974961 ], [ -9504216.837303509935737, -1145124.374235183000565 ], [ -9487218.867144530639052, -703177.150101743638515 ], [ -9436224.956667594611645, 231711.208642072044313 ], [ -9130261.493805984035134, 1234591.448021800257266 ], [ -8501336.597923781722784, 2220473.717242550570518 ], [ -7532452.29886200837791, 3155362.075986365787685 ], [ -6869531.462661849334836, 3461325.538847977761179 ], [ -6172614.686143733561039, 3172360.046145344153047 ], [ -6189612.656302710995078, 2662420.941375990398228 ], [ -6222831.965225473977625, 2043299.185180303640664 ], [ -6763294.149168238043785, 1404571.149611582048237 ], [ -7069257.612029848620296, 741650.313411423005164 ], [ -7037386.417981764301658, 518551.955074829224031 ], [ -6975730.895751953125, -70977.321152038290165 ] ] ] ] } },
{ "type": "Feature", "properties": { "id": 4 }, "geometry": { "type": "MultiPolygon", "coordinates": [ [ [ [ -7494379.922261580824852, -4608095.453139463439584 ], [ -7243486.806159375235438, -5173643.301913077011704 ], [ -6801539.582025935873389, -6108531.66065689176321 ], [ -6172614.686143733561039, -7604353.03464699536562 ], [ -6172614.686143733561039, -8607233.274026725441217 ], [ -6461580.17884636670351, -9321148.020703820511699 ], [ -7005515.22393367625773, -9695103.364201346412301 ], [ -7991397.493154427036643, -9780093.214996237307787 ], [ -8824298.030944371595979, -9746097.274678280577064 ], [ -10218131.583980605006218, -9338145.990862797945738 ], [ -11577969.196698881685734, -8947192.677206294611096 ], [ -13413749.973868552595377, -8131290.1095753274858 ], [ -14586609.914838066324592, -7315387.541944362223148 ], [ -15589490.154217794537544, -6363501.213041568174958 ], [ -16269408.960576932877302, -5394616.913979796692729 ], [ -16473384.602484675124288, -4255752.913328239694238 ], [ -16252410.990417955443263, -3048897.032040770631284 ], [ -15453506.392945967614651, -2215996.494250826071948 ], [ -14144662.690704626962543, -1332102.045983946416527 ], [ -12801823.048145329579711, -754171.060578679200262 ], [ -11170017.912883397191763, -703177.150101743638515 ], [ -10184135.643662646412849, -1162122.344394161831588 ], [ -9368595.395736655220389, -1625964.030699489638209 ], [ -9317239.165554746985435, -1808045.210435342974961 ], [ -8993832.268488610163331, -1994249.181473421631381 ], [ -8740963.343545703217387, -2141439.75205460563302 ], [ -8331356.896333996206522, -2419972.136158566921949 ], [ -8088148.017924400046468, -2860788.228275957982987 ], [ -7902485.03386130835861, -3374473.537393510807306 ], [ -7890522.844882485456765, -3745301.395737046375871 ], [ -7889409.672200556844473, -3779809.748876842670143 ], [ -7815452.986620416864753, -4238341.199473707936704 ], [ -7804419.821405664086342, -4306746.823805174790323 ], [ -7719429.970610771328211, -4527720.435871894471347 ], [ -7494379.922261580824852, -4608095.453139463439584 ] ] ] ] } },
{ "type": "Feature", "properties": { "id": 5 }, "geometry": { "type": "MultiPolygon", "coordinates": [ [ [ [ 1865599.157165965531021, -5419775.713313246145844 ], [ 1865599.157165964134037, -5419775.713313244283199 ], [ 1731441.437781242653728, -5224637.212390013039112 ], [ 1636252.804890966508538, -5177042.895944875665009 ], [ 1636252.804890966042876, -5177042.895944874733686 ], [ 1556093.956141258357093, -5136963.471570021472871 ], [ 1500269.043619137490168, -5109051.01530896127224 ], [ 1500269.043619137024507, -5109051.01530896127224 ], [ 1323203.671322630951181, -4945412.129553761333227 ], [ 1255255.445184716489166, -4836694.967733099125326 ], [ 1239168.762671501142904, -4810956.275711954571307 ], [ 1313637.348254142329097, -4677392.827979712747037 ], [ 1313637.348254142794758, -4677392.827979711815715 ], [ 1340488.124124737456441, -4646706.226984746754169 ], [ 1340488.124124737456441, -4621859.99649634025991 ], [ 1424798.056113274302334, -4447490.016721515916288 ], [ 1544463.766032479703426, -4357740.734282111749053 ], [ 1718692.960162012372166, -4183511.540152579080313 ], [ 1782435.34825817681849, -4119769.152056414633989 ], [ 1782435.34825817681849, -4085773.211738455109298 ], [ 1782435.34825817681849, -3932791.480307650752366 ], [ 1649274.354593980824575, -3847187.984380667097867 ], [ 1457265.239281381014735, -3686797.987009006086737 ], [ 1325804.846367866266519, -3546573.567901256959885 ], [ 1339781.425146575784311, -3243834.365964632946998 ], [ 1471712.453752055298537, -3065215.083393387962133 ], [ 1531545.308711659396067, -3020340.442173684481531 ], [ 1773936.363178692758083, -3337862.524743402376771 ], [ 2028905.915563369169831, -3371858.465061360038817 ], [ 2181887.646994175389409, -3592832.077128079719841 ], [ 2555842.990491701290011, -3592832.077128079719841 ], [ 2946796.304148206487298, -3575834.10696910135448 ], [ 3116776.005737990140915, -3983785.390784583985806 ], [ 2997790.214625140652061, -4408734.644759044982493 ], [ 2776816.602558420971036, -4629708.25682576559484 ], [ 2504849.080014767125249, -4816685.928574528545141 ], [ 2555842.990491701290011, -5190641.272072054445744 ], [ 2725822.692081486806273, -5309627.063184903003275 ], [ 2759818.632399443536997, -5462608.794615709222853 ], [ 2368865.31874293833971, -5615590.526046515442431 ], [ 1934501.804372730199248, -5786093.242102730087936 ], [ 1918419.109530005604029, -5496604.734933668747544 ], [ 1865599.157165965763852, -5419775.713313247077167 ], [ 1865599.157165965531021, -5419775.713313246145844 ] ] ] ] } },
{ "type": "Feature", "properties": { "id": 6 }, "geometry": { "type": "MultiPolygon", "coordinates": [ [ [ [ 88537.627886101137847, -5867360.460518915206194 ], [ 652872.515167173231021, -5839523.914853693917394 ], [ 898540.899991298094392, -5853562.108272215351462 ], [ 1180234.422589218476787, -5861610.494632156565785 ], [ 1493469.855555543676019, -5870560.078431194648147 ], [ 1662712.650924568530172, -5844522.725297498516738 ], [ 1819516.666233064606786, -5820399.03063465282321 ], [ 1928391.907051030080765, -5803648.993585735559464 ], [ 2300873.438107024878263, -5904556.018749149516225 ], [ 2861806.453353313729167, -5785570.22763630002737 ], [ 3422739.46859960258007, -5700580.376841407269239 ], [ 3660711.050825301557779, -5581594.585728558711708 ], [ 4306633.916866483166814, -5938551.959067106246948 ], [ 4680589.260364009067416, -6210519.48161076195538 ], [ 5020548.663543578237295, -6448491.063836459070444 ], [ 5139534.454656425863504, -6771452.496857050806284 ], [ 4986552.723225619643927, -7264393.631467426195741 ], [ 5173530.394974382594228, -7587355.064488016068935 ], [ 5598479.648948844522238, -7672344.915282908827066 ], [ 5003550.693384598940611, -8165286.049893284216523 ], [ 4595599.409569116309285, -8352263.721642047166824 ], [ 4119656.245117720216513, -8233277.93052919767797 ], [ 3847688.72257406450808, -8063298.228939412161708 ], [ 3371745.558122668415308, -8063298.228939412161708 ], [ 2946796.304148206487298, -8403257.632118981331587 ], [ 2708824.721922507509589, -8658227.184503657743335 ], [ 2453855.169537831097841, -8726219.065139573067427 ], [ 2249879.527630088850856, -8250275.900688175112009 ], [ 2045903.885722348466516, -8233277.93052919767797 ], [ 2181887.646994175389409, -7604353.034646993502975 ], [ 1994909.975245412439108, -7230397.691149467602372 ], [ 1467972.900317080318928, -7145407.840354576706886 ], [ 958033.795547727495432, -7604353.034646993502975 ], [ 482090.631096331402659, -7825326.646713715046644 ], [ 142131.22791676223278, -7570357.094329036772251 ], [ -248822.085739742964506, -7298389.571785382926464 ], [ -503791.638124419376254, -7162405.810513554140925 ], [ -724765.250191139057279, -7417375.362898230552673 ], [ -775759.160668075084686, -7706340.85560086555779 ], [ -707767.28003216162324, -8114292.139416348189116 ], [ -979734.802575816400349, -8165286.049893284216523 ], [ -1506671.877504148520529, -8063298.228939412161708 ], [ -1710647.519411889836192, -8063298.228939412161708 ], [ -2016610.982273502275348, -7859322.587031671777368 ], [ -2220586.624181243591011, -7757334.766077799722552 ], [ -2492554.14672489836812, -7451371.303216189146042 ], [ -2594541.967678769491613, -7026422.049241727218032 ], [ -2424562.266088984906673, -6669464.675903178751469 ], [ -1829633.310524739325047, -6329505.27272360958159 ], [ -1014172.567388879833743, -6070448.843759195879102 ], [ -580282.503839828073978, -6023541.809862000867724 ], [ -323448.575000491982792, -5961901.666940560564399 ], [ 88537.627886101137847, -5867360.460518915206194 ] ] ] ] } },
{ "type": "Feature", "properties": { "id": 7 }, "geometry": { "type": "MultiPolygon", "coordinates": [ [ [ [ 2430116.625005464535207, -8670829.127897383645177 ], [ 2453855.169537831097841, -9032182.528001183643937 ], [ 2657830.811445573344827, -9338145.990862796083093 ], [ 2181887.646994175389409, -9440133.811816668137908 ], [ 1722942.452701756730676, -9576117.573088495060802 ], [ 1196005.377773426473141, -9661107.423883387818933 ], [ -44846.443832000717521, -9729099.304519301280379 ], [ -1013730.742893773131073, -9644109.453724408522248 ], [ -1829633.310524739325047, -9304150.050544839352369 ], [ -2288578.504817157052457, -8811208.915934463962913 ], [ -2713527.758791618980467, -8301269.811165111139417 ], [ -2730525.728950597345829, -8029302.288621455430984 ], [ -2696529.788632639683783, -7791330.706395756453276 ], [ -2282482.681036006193608, -7687701.702116191387177 ], [ -2220586.624181243591011, -7757334.766077799722552 ], [ -2179791.495799695607275, -7777732.330268573947251 ], [ -1914623.161319631151855, -7927314.467667585238814 ], [ -1710647.519411889836192, -8063298.228939412161708 ], [ -1591661.728299040347338, -8063298.228939412161708 ], [ -992419.346004382474348, -8162830.976971626281738 ], [ -979734.802575816400349, -8165286.049893284216523 ], [ -707767.28003216162324, -8114292.139416348189116 ], [ -722927.631795574794523, -8023330.02883586846292 ], [ -769085.460974784684367, -7668523.224005553871393 ], [ -693357.833247645990923, -7381136.035655738785863 ], [ -490557.924332828028128, -7169463.791202402673662 ], [ -434742.353357943880837, -7199232.095722341910005 ], [ -390863.947102833073586, -7222633.912391734309494 ], [ -79491.988105077674845, -7416184.422313844785094 ], [ 166608.304945690790191, -7588714.902100733481348 ], [ 471211.930194584710989, -7817167.621037404984236 ], [ 482090.631096331402659, -7825326.646713715046644 ], [ 715817.179851057240739, -7716810.749077591113746 ], [ 958033.795547727495432, -7604353.034646993502975 ], [ 1081057.778466300340369, -7493631.450020277872682 ], [ 1392843.750443142605945, -7213024.075241120532155 ], [ 1749611.681744293775409, -7190833.450262190774083 ], [ 2025506.321531574474648, -7291590.38372179120779 ], [ 2173347.145588407758623, -7643852.853648668155074 ], [ 2087277.870310287456959, -8041923.251809977926314 ], [ 2045903.885722348466516, -8233277.93052919767797 ], [ 2238130.902171415742487, -8249296.848566618748009 ], [ 2265705.223985, -8287202.525516301393509 ], [ 2297499.79517470812425, -8361389.85829228721559 ], [ 2430116.625005464535207, -8670829.127897383645177 ] ] ] ] } },
{ "type": "Feature", "properties": { "id": 8 }, "geometry": { "type": "MultiPolygon", "coordinates": [ [ [ [ 3439737.438758581876755, -3847801.629512756131589 ], [ 3949676.543527934700251, -3558836.136810122989118 ], [ 3728702.931461215019226, -3354860.494902381673455 ], [ 3303753.677486753091216, -3014901.091722812503576 ], [ 3575721.200030408799648, -2521959.95711243711412 ], [ 3779696.841938151046634, -2266990.404727760702372 ], [ 3728702.931461215019226, -1740053.329799428582191 ], [ 3796694.812097128480673, -1264110.165348031558096 ], [ 4085660.304799761623144, -771169.030737656634301 ], [ 4459615.648297289386392, -414211.65739910909906 ], [ 4493611.588615246117115, -227233.985650345683098 ], [ 4306633.916866483166814, 588668.581980619579554 ], [ 4306633.916866483166814, 1336579.268975671380758 ], [ 4085660.304799761623144, 1846518.373745025601238 ], [ 4187648.125753633677959, 2339459.508355400525033 ], [ 4442617.678138310089707, 2203475.747083573136479 ], [ 4935558.812748685479164, 1676538.672155240550637 ], [ 5326512.126405188813806, 1319581.298816693015397 ], [ 5309514.156246211379766, 809642.194047340191901 ], [ 5088540.544179491698742, 316701.059436964802444 ], [ 4765579.111158899962902, -125246.164696475490928 ], [ 4765579.111158899962902, -363217.746922173537314 ], [ 5071542.574020512402058, -737173.090419699437916 ], [ 5411501.977200081571937, -1077132.493599268607795 ], [ 5700467.469902714714408, -1519079.717732707969844 ], [ 6023428.902923306450248, -1349100.016142923384905 ], [ 6193408.604513090103865, -1757051.299958406947553 ], [ 6516370.037533681839705, -1859039.120912277139723 ], [ 6567363.948010616004467, -2182000.553932867944241 ], [ 6873327.410872228443623, -2283988.374886738136411 ], [ 6958317.261667121201754, -2606949.807907329872251 ], [ 6601359.88832857273519, -2997903.121563833206892 ], [ 6329392.365784918889403, -3388856.435220338404179 ], [ 6159412.664195133373141, -3745813.808558885008097 ], [ 5751461.380379650741816, -4170763.062533346936107 ], [ 5309514.156246211379766, -4357740.734282109886408 ], [ 4918560.84258970618248, -4493724.495553936809301 ], [ 4629595.349887073040009, -4357740.734282109886408 ], [ 3983672.483845891430974, -4102771.18189743347466 ], [ 3592719.170189388096333, -4102771.18189743347466 ], [ 3439737.438758581876755, -3847801.629512756131589 ] ] ] ] } },
{ "type": "Feature", "properties": { "id": 9 }, "geometry": { "type": "MultiPolygon", "coordinates": [ [ [ [ 5269957.007641039788723, -7944549.389509376138449 ], [ 5598479.648948844522238, -7672344.915282908827066 ], [ 5395818.176287305541337, -7631812.620750600472093 ], [ 5145988.040837117470801, -7539781.907341830432415 ], [ 5145988.040837115608156, -7539781.90734182856977 ], [ 5034338.773824396543205, -7110416.35731581132859 ], [ 5139534.454656425863504, -6771452.496857050806284 ], [ 5020548.663543578237295, -6448491.063836459070444 ], [ 4936129.214431872591376, -6389397.449458265677094 ], [ 5309514.156246211379766, -6261513.392087697051466 ], [ 5734463.410220673307776, -6210519.481610761024058 ], [ 6091420.783559219911695, -6380499.183200545608997 ], [ 6431380.186738789081573, -6346503.242882588878274 ], [ 6533368.007692659273744, -6108531.660656890831888 ], [ 6720345.679441422224045, -5751574.287318343296647 ], [ 6890325.381031207740307, -5462608.794615709222853 ], [ 7026309.1423030346632, -5904556.018749149516225 ], [ 7026309.1423030346632, -6601472.795267266221344 ], [ 7111298.993097927421331, -6958430.168605813756585 ], [ 6873327.410872228443623, -7621351.004805972799659 ], [ 7808215.769616045057774, -7366381.452421296387911 ], [ 8641116.307405989617109, -6975428.138764792121947 ], [ 9440020.904877975583076, -6822446.407333985902369 ], [ 9830974.218534480780363, -7196401.750831511802971 ], [ 10017951.890283241868019, -8165286.049893283285201 ], [ 9813976.248375501483679, -8947192.677206292748451 ], [ 9151055.412175342440605, -9644109.453724408522248 ], [ 8471136.605816204100847, -10256036.379447633400559 ], [ 7961197.501046851277351, -10561999.842309245839715 ], [ 7485254.336595453321934, -10765975.484216986224055 ], [ 7026309.1423030346632, -11020945.036601662635803 ], [ 6805335.530236314982176, -10765975.484216986224055 ], [ 6601359.88832857273519, -10629991.722945159301162 ], [ 6601359.88832857273519, -10239038.409288654103875 ], [ 6482374.097215725108981, -9984068.856903977692127 ], [ 6074422.81340024061501, -10103054.648016827180982 ], [ 5904443.111810456961393, -10035062.767380913719535 ], [ 6193408.604513090103865, -9831087.125473171472549 ], [ 6363388.306102875620127, -9593115.543247474357486 ], [ 5921441.081969436258078, -9185164.25943199172616 ], [ 5547485.738471910357475, -9423135.841657688841224 ], [ 5377506.036882124841213, -9406137.871498711407185 ], [ 5241522.27561029791832, -9083176.438478119671345 ], [ 5003550.693384598940611, -8930194.707047313451767 ], [ 4934485.770156153477728, -8196940.806372988037765 ], [ 5003550.693384598940611, -8165286.049893284216523 ], [ 5256669.063152736984193, -7955559.400656826794147 ], [ 5269957.007641039788723, -7944549.389509376138449 ] ] ] ] } },
{ "type": "Feature", "properties": { "id": 10 }, "geometry": { "type": "MultiPolygon", "coordinates": [ [ [ [ 5443141.76323857717216, -9412701.444134356454015 ], [ 5547485.738471910357475, -9423135.841657688841224 ], [ 5847749.881927276961505, -9232058.659458819776773 ], [ 6073228.067893859930336, -9325275.323362229391932 ], [ 6320323.161259200423956, -9553363.101853312924504 ], [ 6219824.3689493406564, -9794105.055262420326471 ], [ 6182215.667107791639864, -9838988.022465147078037 ], [ 5904443.111810456961393, -10035062.767380913719535 ], [ 6074422.81340024061501, -10103054.648016827180982 ], [ 6482374.097215725108981, -9984068.856903977692127 ], [ 6594411.812935122288764, -10224149.676302688196301 ], [ 6601359.88832857273519, -10595995.782627202570438 ], [ 6601359.88832857273519, -10629991.722945159301162 ], [ 6783635.993863152340055, -10751509.126634877175093 ], [ 6818795.851783524267375, -10781506.624463766813278 ], [ 7026309.1423030346632, -11020945.036601662635803 ], [ 7111298.993097927421331, -11479890.230894081294537 ], [ 6550365.977851638570428, -12040823.24614037014544 ], [ 5887445.141651477664709, -12550762.350909724831581 ], [ 5156532.424815405160189, -12924717.694407250732183 ], [ 4748581.140999922528863, -13264677.097586819902062 ], [ 4544605.499092180281878, -13230681.157268863171339 ], [ 4340629.857184439897537, -12788733.933135421946645 ], [ 4017668.424163848161697, -12669748.142022574320436 ], [ 3592719.170189388096333, -12448774.529955852776766 ], [ 3201765.856532882899046, -12159809.037253219634295 ], [ 2623834.871127614751458, -11887841.514709563925862 ], [ 2300873.438107024878263, -11700863.842960800975561 ], [ 2929798.333989227190614, -11581878.051847953349352 ], [ 3898682.633050998672843, -11275914.588986340910196 ], [ 4629595.349887073040009, -11054940.976919621229172 ], [ 5156532.424815405160189, -10969951.126124728471041 ], [ 5037546.633702555671334, -10816969.394693922251463 ], [ 4714585.20068196579814, -10850965.335011878982186 ], [ 4408621.737820353358984, -10833967.364852899685502 ], [ 4527607.528933202847838, -10511005.931832309812307 ], [ 4595599.409569116309285, -10273034.349606610834599 ], [ 5020548.663543578237295, -10120052.618175806477666 ], [ 5292516.186087232083082, -10052060.737539891153574 ], [ 5683469.499743737280369, -10069058.707698870450258 ], [ 5632475.589266801252961, -9746097.274678278714418 ], [ 5275518.215928254649043, -9712101.334360321983695 ], [ 5443141.763238576240838, -9412701.444134356454015 ], [ 5443141.76323857717216, -9412701.444134356454015 ] ] ] ] } },
{ "type": "Feature", "properties": { "id": 11 }, "geometry": { "type": "MultiPolygon", "coordinates": [ [ [ [ 1892499.739526160527021, -9525878.37699237652123 ], [ 2096233.310606688261032, -9465512.874449998140335 ], [ 2542907.949785356409848, -9362772.318361414596438 ], [ 2657830.811445573344827, -9338145.990862796083093 ], [ 2592454.003141810186207, -9240080.778407152742147 ], [ 2450665.683041687589139, -8983631.455782109871507 ], [ 2431471.953872782643884, -8691460.245099890977144 ], [ 2438592.856673043686897, -8690607.001788403838873 ], [ 2453855.169537831097841, -8726219.065139573067427 ], [ 2708824.721922507509589, -8658227.184503657743335 ], [ 3060807.079604769125581, -8312049.011753731407225 ], [ 3405741.498440625146031, -8063298.22893941309303 ], [ 3884358.500894556753337, -8086216.840389720164239 ], [ 4119656.245117720216513, -8233277.93052919767797 ], [ 4351628.543757895939052, -8291271.005189241841435 ], [ 4595599.409569116309285, -8352263.721642047166824 ], [ 4634228.942900281399488, -8334558.518865263089538 ], [ 4696690.934083214960992, -8305930.106239751912653 ], [ 4934485.770156153477728, -8196940.806372988037765 ], [ 4982770.819595169275999, -8709577.311133898794651 ], [ 5003550.693384598940611, -8930194.707047313451767 ], [ 5094615.630987212993205, -8988736.452648993581533 ], [ 5303594.863108496181667, -9230598.833786342293024 ], [ 5377506.036882124841213, -9406137.871498711407185 ], [ 5443141.763238576240838, -9412701.444134356454015 ], [ 5345651.546459725126624, -9586833.066272484138608 ], [ 5275518.215928254649043, -9712101.334360321983695 ], [ 5632475.589266801252961, -9746097.274678278714418 ], [ 5655905.223810258321464, -9894484.960120173171163 ], [ 5460699.875735691748559, -10059373.071872433647513 ], [ 5292516.186087232083082, -10052060.737539891153574 ], [ 5188528.603938187472522, -10078057.633077152073383 ], [ 5020548.663543578237295, -10120052.618175806477666 ], [ 4870070.882391147315502, -10174224.619390681385994 ], [ 4595599.409569116309285, -10273034.349606610834599 ], [ 4594316.543896740302444, -10277524.379459926858544 ], [ 4505551.626190333627164, -10570871.953562956303358 ], [ 4484378.27196373231709, -10628342.486463727429509 ], [ 4466953.79639031086117, -10675637.491591585800052 ], [ 4408621.737820353358984, -10833967.364852899685502 ], [ 4714585.20068196579814, -10850965.335011878982186 ], [ 4911901.363869888707995, -10830195.212571045383811 ], [ 4985518.36398673709482, -10997534.039161611348391 ], [ 4629595.349887073040009, -11054940.976919621229172 ], [ 4556431.638885642401874, -11077060.238385170698166 ], [ 4040663.695984468329698, -11232990.081587851047516 ], [ 3898682.633050998672843, -11275914.588986340910196 ], [ 3364209.934072338975966, -11444695.441295390948653 ], [ 3108352.175082502886653, -11525492.628344813361764 ], [ 2959084.509275729302317, -11572629.785968005657196 ], [ 2375829.931339811533689, -11686682.884781625121832 ], [ 2776816.602558420971036, -11105934.887396555393934 ], [ 2691826.75176353007555, -10850965.335011878982186 ], [ 2334869.378424981608987, -10273034.349606610834599 ], [ 1994909.975245412439108, -10205042.468970697373152 ], [ 1552962.751111973077059, -9899079.006109084933996 ], [ 1760560.911250316305086, -9564971.363148180767894 ], [ 1892499.739526160527021, -9525878.37699237652123 ] ] ] ] } },
{ "type": "Feature", "properties": { "id": 12 }, "geometry": { "type": "MultiPolygon", "coordinates": [ [ [ [ 1171218.337759239599109, -1936499.870807342231274 ], [ 1467972.900317080318928, -1417091.896778837777674 ], [ 1552962.751111973077059, -737173.090419699437916 ], [ 1128013.497137511149049, -295225.866286259144545 ], [ 975031.765706704929471, 129723.387688201852143 ], [ 1128013.497137511149049, 741650.313411425799131 ], [ 1518966.810794016346335, 1217593.477862822823226 ], [ 1077019.586660576984286, 1812522.433427068404853 ], [ 465092.660937352105975, 2118485.896288680844009 ], [ -27848.473673023283482, 2526437.180104163475335 ], [ -78842.384149957448244, 2798404.702647818718106 ], [ 57141.377121869474649, 3223353.956622280180454 ], [ 584078.45205020159483, 3308343.807417172472924 ], [ 907039.885070791468024, 3427329.598530021496117 ], [ 1179007.407614447176456, 3903272.762981418520212 ], [ 1535964.780952993780375, 4260230.13631996512413 ], [ 2113895.766358261927962, 4192238.255684051662683 ], [ 2555842.990491701290011, 3920270.733140396885574 ], [ 2810812.542876377701759, 3750291.031550612300634 ], [ 3269757.737168796360493, 3716295.09123265510425 ], [ 3898682.633050998672843, 3716295.09123265510425 ], [ 3983672.483845891430974, 3563313.359801849350333 ], [ 4068662.334640784189105, 3308343.807417172472924 ], [ 3524727.289553472772241, 3240351.926781258545816 ], [ 3507729.319394495338202, 2985382.374396581668407 ], [ 3473733.379076538607478, 2747410.79217088362202 ], [ 3473733.379076538607478, 2339459.508355400525033 ], [ 3490731.349235516041517, 1982502.135016852989793 ], [ 3728702.931461215019226, 2050494.015652766916901 ], [ 4124618.024320339784026, 2034814.018094484228641 ], [ 4085660.304799761623144, 1846518.373745025601238 ], [ 4167310.984656034037471, 1658093.727922860067338 ], [ 4201717.802693014033139, 1578693.378606752725318 ], [ 4261364.299427182413638, 1441047.61691251792945 ], [ 4306633.916866483166814, 911630.015001210384071 ], [ 4306633.916866483166814, 588668.581980619579554 ], [ 4341022.387629347853363, 438609.800469935522415 ], [ 4414733.997605355456471, 116959.138756449567154 ], [ 4493611.588615246117115, -227233.985650345683098 ], [ 4459615.648297289386392, -414211.65739910909906 ], [ 4208964.499142190441489, -653469.572501702234149 ], [ 4085660.304799761623144, -771169.030737656634301 ], [ 3879037.191433631349355, -1123643.753538703080267 ], [ 3796694.812097128480673, -1264110.165348031558096 ], [ 3749780.414458348415792, -1592510.948819495271891 ], [ 3728702.931461215019226, -1740053.329799428582191 ], [ 3763242.105877036694437, -2096958.132096246350557 ], [ 3620496.340936986729503, -2465991.030979214701802 ], [ 3575721.200030408799648, -2521959.95711243711412 ], [ 3461678.300878101494163, -2728662.711825993843377 ], [ 3303753.677486753091216, -3014901.091722812503576 ], [ 3322409.986197826918215, -3029826.138691671658307 ], [ 3699682.00679954374209, -3331643.755173044744879 ], [ 3836012.80057987710461, -3453915.758704223670065 ], [ 3558543.387750303838402, -3780478.2584174470976 ], [ 3439737.438758581876755, -3847801.629512756131589 ], [ 3465234.393997048959136, -3890296.554910201113671 ], [ 3112362.586186327040195, -3999547.603469095658511 ], [ 3116776.005737990140915, -3983785.390784583985806 ], [ 3008652.822774074506015, -3724289.751671185251325 ], [ 2946796.304148206487298, -3575834.10696910135448 ], [ 2929830.405631036497653, -3576571.754730717279017 ], [ 2836981.113315092865378, -3580608.680483584292233 ], [ 2709273.724907839205116, -3586161.175631726160645 ], [ 2487851.109855787828565, -3592832.077128079719841 ], [ 2232881.557471111416817, -3592832.077128079719841 ], [ 2028905.915563369169831, -3371858.465061360038817 ], [ 1859668.483412842266262, -3349293.474107956048101 ], [ 1704469.858079846482724, -3246864.325918266084045 ], [ 1567661.044778023846447, -3067650.536824434064329 ], [ 1585978.039305369369686, -2875321.605994276702404 ], [ 1612455.646668393164873, -2742933.569179159589112 ], [ 1533117.350283046951517, -2628884.768125224392861 ], [ 1342566.856781122507527, -2354968.433716208674014 ], [ 1171218.337759239599109, -1936499.870807342231274 ] ] ] ] } },
{ "type": "Feature", "properties": { "id": 13 }, "geometry": { "type": "MultiPolygon", "coordinates": [ [ [ [ 6540354.717846971936524, -6095193.395816840231419 ], [ 6362378.52569739241153, -6353403.408986728638411 ], [ 6040945.295462366193533, -6356463.236487758345902 ], [ 5734463.410220673307776, -6210519.481610761024058 ], [ 5512605.045763975009322, -6237142.485345564782619 ], [ 5309514.156246211379766, -6261513.392087697051466 ], [ 5233447.374560767784715, -6287566.206713234074414 ], [ 5062867.674732889048755, -6345989.623611202463508 ], [ 4895060.293242396786809, -6360649.204625632613897 ], [ 4643699.071073038503528, -6183690.253035510890186 ], [ 4412763.315999105572701, -6015736.976618104614317 ], [ 4390521.19662403780967, -5999560.8897998733446 ], [ 4306633.916866483166814, -5938551.959067106246948 ], [ 4196124.56710612308234, -5877481.002620591782033 ], [ 4121778.648582516703755, -5836395.100278598256409 ], [ 4074649.948532330337912, -5810350.292356126941741 ], [ 4005213.137230017688125, -5771977.317689059302211 ], [ 3868023.164329236373305, -5696161.806349154561758 ], [ 3733698.621364704333246, -5621929.822079281322658 ], [ 3660711.050825301557779, -5581594.585728558711708 ], [ 3606317.546316569671035, -5608791.33798292465508 ], [ 3362567.569746881723404, -5709697.331213031895459 ], [ 3077065.756780413445085, -5752955.181662497110665 ], [ 2861806.453353313729167, -5785570.22763630002737 ], [ 2811775.960341452155262, -5796182.756456998176873 ], [ 2705697.976089316885918, -5818684.147055936045945 ], [ 2534266.920285511761904, -5855048.310408257879317 ], [ 2154220.0614970237948, -5864826.918833963572979 ], [ 1980586.849178658798337, -5768003.266658139415085 ], [ 2164523.377191357780248, -5695801.811953577212989 ], [ 2504417.164379579015076, -5562548.499493047595024 ], [ 2759818.632399443536997, -5462608.794615709222853 ], [ 2758018.847323787398636, -5454509.761775257065892 ], [ 2725822.692081486806273, -5309627.063184903003275 ], [ 2714414.658417744096369, -5301641.439620283432305 ], [ 2664019.048844811040908, -5266364.512919230386615 ], [ 2571814.237620944157243, -5201821.145062523894012 ], [ 2526156.880335758440197, -4972943.130928467027843 ], [ 2534065.750208447687328, -4796599.467816373333335 ], [ 2776816.602558420971036, -4629708.25682576559484 ], [ 2802313.557796889916062, -4604211.301587300375104 ], [ 2997790.214625140652061, -4408734.644759044982493 ], [ 2999996.924400971736759, -4400853.538416790775955 ], [ 3078379.255638516508043, -4120916.641139846295118 ], [ 3154266.612221302930266, -3986573.887003721669316 ], [ 3465234.393997049890459, -3890296.554910204838961 ], [ 3592719.170189388096333, -4102771.18189743347466 ], [ 3652212.06574581284076, -4102771.18189743347466 ], [ 3958175.528607425279915, -4102771.18189743347466 ], [ 4481369.791053178720176, -4299230.645268730819225 ], [ 4897686.564788243733346, -4483901.306000307202339 ], [ 4918560.84258970618248, -4493724.495553936809301 ], [ 5166779.936336206272244, -4407387.419468197971582 ], [ 5309514.156246211379766, -4357740.734282109886408 ], [ 5467827.747827260755002, -4290761.907074742950499 ], [ 5751461.380379650741816, -4170763.062533346936107 ], [ 5771841.960753446444869, -4149533.29131064331159 ], [ 5880019.407247555442154, -4036848.451212612446398 ], [ 5905674.438541373237967, -4010124.460281552281231 ], [ 5970944.251939433626831, -3942135.071325238794088 ], [ 6154487.357271465472877, -3750944.336604372598231 ], [ 6388885.261341344565153, -3754312.793638377450407 ], [ 6737343.649600402452052, -3890296.554910204838961 ], [ 6813834.515315805561841, -4204759.002851306460798 ], [ 6660852.783884999342263, -4799687.958415552973747 ], [ 6558864.962931129150093, -5165144.316833589226007 ], [ 6550365.97785163950175, -5454109.809536222368479 ], [ 6533368.007692661136389, -5641087.48128498531878 ], [ 6659627.841195604763925, -5867490.160333085805178 ], [ 6540354.717846971936524, -6095193.395816840231419 ] ] ] ] } },
{ "type": "Feature", "properties": { "id": 14 }, "geometry": { "type": "MultiPolygon", "coordinates": [ [ [ [ 5828259.96796862129122, -1451820.5082243361976 ], [ 5704933.585164116695523, -1516729.130753022851422 ], [ 5516495.268266259692609, -1237710.468171070795506 ], [ 5411501.977200081571937, -1077132.493599268607795 ], [ 5285079.574142680503428, -950710.090541867772117 ], [ 5014458.425473003648221, -667403.575528299901634 ], [ 5000435.132791990414262, -650263.995584838790819 ], [ 4851252.667436673305929, -467929.871261674445122 ], [ 4765579.111158899962902, -278227.896127283573151 ], [ 4765579.111158899962902, -125246.164696475490928 ], [ 4978563.923123178072274, 166206.73588621977251 ], [ 5088540.544179491698742, 316701.059436964802444 ], [ 5215901.201530321501195, 600813.295065739774145 ], [ 5309514.156246211379766, 809642.194047340191901 ], [ 5310280.574157097376883, 832634.731373924994841 ], [ 5326512.126405188813806, 1319581.298816693015397 ], [ 5290187.727030661888421, 1352747.054767347872257 ], [ 5190235.165848216973245, 1444008.088890449842438 ], [ 5091688.235303004272282, 1533985.721127384109423 ], [ 4870897.902263931930065, 1745658.955776873510331 ], [ 4562194.200594781897962, 2075652.567905965261161 ], [ 4442617.678138310089707, 2203475.747083573136479 ], [ 4393983.779954209923744, 2229413.826115093193948 ], [ 4187648.125753633677959, 2339459.508355400525033 ], [ 4176920.216422966681421, 2287607.946590510662645 ], [ 4153788.169196941424161, 2175803.051664724480361 ], [ 4129647.640347996260971, 2059123.828894823556766 ], [ 3840129.916429551783949, 2046081.011744244489819 ], [ 3728702.931461215019226, 2050494.015652766916901 ], [ 3646479.25977238221094, 2027001.538027386181056 ], [ 3547698.60299945063889, 1998778.493235120084137 ], [ 3473733.379076538607478, 2415950.374070801772177 ], [ 3496213.194611787330359, 2904769.500917624216527 ], [ 3507729.319394495338202, 2985382.374396581668407 ], [ 3516914.616322217043489, 3123161.828312414698303 ], [ 3558200.215405, 3244536.042512699496001 ], [ 3641533.853722863364965, 3254952.747302432544529 ], [ 3808201.130358590744436, 3275786.156881898175925 ], [ 3967197.528153343126178, 3295660.706606242340058 ], [ 4046695.727050719317049, 3305597.981468414422125 ], [ 4068662.334640784189105, 3308343.807417172472924 ], [ 3983672.483845891430974, 3563313.359801849350333 ], [ 3950899.27487191837281, 3622305.135955000761896 ], [ 3898682.633050998672843, 3716295.09123265510425 ], [ 3861279.299632585141808, 3716295.09123265510425 ], [ 3747825.647890065796673, 3835280.88234550319612 ], [ 3297379.438677136320621, 3877775.807742949109524 ], [ 3076405.826610416639596, 3937268.703299373853952 ], [ 2804438.304066761396825, 4209236.225843029096723 ], [ 2787440.333907783031464, 4540696.643943108618259 ], [ 3093403.796769395004958, 4795666.19632778596133 ], [ 3560847.976141302380711, 4940148.942679102532566 ], [ 4028292.155513210222125, 4880656.047122677788138 ], [ 4776202.84250826202333, 4770169.241089317947626 ], [ 5039671.37997242808342, 4464205.778227705508471 ], [ 5031172.3948929393664, 4056254.494412222877145 ], [ 4980178.484416004270315, 3750291.031550610437989 ], [ 4895188.633621111512184, 3444327.568688998464495 ], [ 4776202.84250826202333, 3376335.688053084537387 ], [ 4750705.887269794940948, 3206355.986463299952447 ], [ 4759204.872349283657968, 2976883.389317091088742 ], [ 4708210.961872348561883, 2832400.642965774051845 ], [ 5056669.350131407380104, 2755909.777250370942056 ], [ 5056669.350131407380104, 2985382.374396580271423 ], [ 5133160.215846810489893, 3129865.12074789730832 ], [ 5413626.723469953984022, 3036376.284873515833169 ], [ 5821578.00728543754667, 3274347.867099213879555 ], [ 5898068.873000840656459, 3478323.50900695566088 ], [ 6085046.544749603606761, 3580311.329960826318711 ], [ 6475999.858406107872725, 3401832.643291552551091 ], [ 6985938.963175461627543, 3044875.26995300501585 ], [ 7206912.575242181308568, 2594429.060740075539798 ], [ 7283403.440957584418356, 2296964.582957952748984 ], [ 7189914.605083202943206, 1829520.403586045373231 ], [ 7402389.232070433907211, 1557552.88104239013046 ], [ 7470381.112706347368658, 1158100.582306396216154 ], [ 7385391.261911455541849, 954124.940398654900491 ], [ 7206912.575242181308568, 928627.985160186886787 ], [ 6977439.978095971979201, 1073110.731511503458023 ], [ 6875452.157142101787031, 826640.164206316694617 ], [ 6764965.351108741946518, 690656.40293448837474 ], [ 6994437.948254950344563, 189216.283244623802602 ], [ 6832957.231744655407965, -414211.657399110961705 ], [ 6679975.500313849188387, -805164.971055616158992 ], [ 6518494.78380355425179, -1034637.568201824557036 ], [ 6365513.052372748032212, -1213116.254871098790318 ], [ 6033549.735747255384922, -1373390.014920401386917 ], [ 6023428.902923306450248, -1349100.016142923384905 ], [ 5955036.039802621118724, -1385096.259890652261674 ], [ 5828259.96796862129122, -1451820.5082243361976 ] ] ] ] } },
{ "type": "Feature", "properties": { "id": 15 }, "geometry": { "type": "MultiPolygon", "coordinates": [ [ [ [ 6873327.410872228443623, -2283988.374886738136411 ], [ 6558732.884108946658671, -2127337.149222291540354 ], [ 6516370.037533681839705, -1859039.120912277139723 ], [ 6515861.596990514546633, -1858878.560740750515833 ], [ 6339301.809715912677348, -1803122.838443508604541 ], [ 6195340.678577131591737, -1757661.428610209608451 ], [ 6040087.416577631607652, -1389080.448913304135203 ], [ 6303955.799733311869204, -1242836.443351917434484 ], [ 6365513.052372748032212, -1213116.254871098790318 ], [ 6518494.78380355425179, -1034637.568201825022697 ], [ 6679975.500313849188387, -805164.971055616158992 ], [ 6755212.417410966940224, -612892.849585203803144 ], [ 6832957.231744655407965, -414211.657399110961705 ], [ 6913069.841934879310429, -114843.482477747020312 ], [ 6994437.948254950344563, 189216.283244623802602 ], [ 6816528.552272711880505, 577981.25965025741607 ], [ 6790182.339779884554446, 721692.696683587506413 ], [ 6848911.806928083300591, 793975.117789062787779 ], [ 6855434.547578410245478, 802003.106281773070805 ], [ 7266405.470798606052995, 520676.7013447037898 ], [ 7419387.202229412272573, 520676.7013447037898 ], [ 7606364.873978175222874, 435686.850549811497331 ], [ 7920827.321919276379049, 61731.507052285596728 ], [ 8192794.844462932087481, 44733.536893306765705 ], [ 8711232.934311775490642, -142244.134855456184596 ], [ 9323159.860035000368953, -516199.478352982085198 ], [ 9654620.27813507989049, -907152.792009486816823 ], [ 9986080.696235159412026, -1374596.971381394192576 ], [ 10011577.651473628357053, -1782548.255196877289563 ], [ 9824599.979724865406752, -2309485.330125208944082 ], [ 9586628.397499166429043, -2674941.688543246127665 ], [ 9204174.068922150880098, -2938410.226007412187755 ], [ 8796222.785106668248773, -3074393.987279240041971 ], [ 8337277.590814248658717, -3108389.927597196772695 ], [ 7912328.336839787662029, -3108389.927597196772695 ], [ 7461882.127626858651638, -2904414.285689455457032 ], [ 6958317.261667121201754, -2606949.807907329872251 ], [ 6873327.410872228443623, -2283988.374886738136411 ] ] ] ] } },
{ "type": "Feature", "properties": { "id": 16 }, "geometry": { "type": "MultiPolygon", "coordinates": [ [ [ [ 6127541.470147058367729, 7600331.272559229284525 ], [ 3509854.065664377063513, 7328363.750015575438738 ], [ 2252004.273899968713522, 6886416.525882132351398 ], [ 382227.55641233921051, 6036518.017933212220669 ], [ -943614.115987978875637, 5390595.151892028748989 ], [ -4547183.789691410958767, 5560574.853481814265251 ], [ -7096879.313538180664182, 6784428.704928264021873 ], [ -8694688.508482154458761, 8858181.064323633909225 ], [ -8932660.09070785343647, 10489986.199585566297174 ], [ -8524708.806892370805144, 11951811.633257713168859 ], [ -7096879.313538180664182, 13243657.365340076386929 ], [ -4513187.849373456090689, 13855584.29106330126524 ], [ -1793512.623936902731657, 14059559.93297104164958 ], [ -59719.667721100151539, 14297531.515196740627289 ], [ 450219.437048252671957, 13889580.231381257995963 ], [ 1368109.825633089989424, 13447633.007247818633914 ], [ 2421983.975489754229784, 13277653.305658033117652 ], [ 3611841.886618245393038, 12733718.260570723563433 ], [ 4767703.857428781688213, 11679844.110714059323072 ], [ 5753586.126649532467127, 10286010.557677825912833 ], [ 7045431.858731895685196, 8416233.840190194547176 ], [ 6569488.694280497729778, 7906294.73542084172368 ], [ 6127541.470147058367729, 7600331.272559229284525 ] ] ] ] } },
{ "type": "Feature", "properties": { "id": 2 }, "geometry": { "type": "MultiPolygon", "coordinates": [ [ [ [ 4593532.875525823794305, 11838647.064802050590515 ], [ 4244123.811755432747304, 12157225.917063288390636 ], [ 3611841.886618245393038, 12733718.260570723563433 ], [ 2549726.992282085586339, 13219256.4979815389961 ], [ 2549726.992282077670097, 13219256.497981542721391 ], [ 2549726.992282076738775, 13219256.497981542721391 ], [ 2421983.975489754229784, 13277653.305658033117652 ], [ 1947419.956690212478861, 13354195.889335379004478 ], [ 1947419.956690204096958, 13354195.889335380867124 ], [ 902009.583768191398121, 13672051.642219806089997 ], [ 902009.583768172073178, 13672051.642219815403223 ], [ 342427.431162048480473, 13975813.836090222001076 ], [ -59719.667721100151539, 14297531.515196740627289 ], [ 1266122.004679221659899, 15385401.605371361598372 ], [ 2863931.199623193591833, 15793352.889186844229698 ], [ 5073667.320290394127369, 15181425.963463621214032 ], [ 8507257.292404040694237, 13685604.589473515748978 ], [ 10207054.308301888406277, 11713840.051032016053796 ], [ 11464904.100066293030977, 9742075.512590512633324 ], [ 12790745.772466614842415, 7838302.854784928262234 ], [ 13504660.519143708050251, 6104509.898569125682116 ], [ 13504660.519143708050251, 5050635.748712461441755 ], [ 13062713.295010268688202, 4268729.121399451047182 ], [ 12280806.667697258293629, 4200737.240763537585735 ], [ 10886973.114661026746035, 4778668.226168803870678 ], [ 9357155.800352964550257, 6138505.838887080550194 ], [ 8099306.008588559925556, 7226375.929061703383923 ], [ 7027343.757470084354281, 8396853.731695396825671 ], [ 7045431.858731895685196, 8416233.840190194547176 ], [ 5753586.126649532467127, 10286010.557677825912833 ], [ 4767703.857428781688213, 11679844.110714059323072 ], [ 4593532.875525824725628, 11838647.06480204872787 ], [ 4593532.875525823794305, 11838647.064802050590515 ] ] ] ] } },
{ "type": "Feature", "properties": { "id": 17 }, "geometry": { "type": "MultiPolygon", "coordinates": [ [ [ [ 7854128.932809839956462, 141048.510317560925614 ], [ 7689092.352646534331143, 337308.227268519927748 ], [ 7617592.27756579220295, 422335.343580753658898 ], [ 7606364.873978175222874, 435686.850549811497331 ], [ 7477657.641027838923037, 494190.138254509773105 ], [ 7419387.202229412272573, 520676.7013447037898 ], [ 7266405.470798606052995, 520676.7013447037898 ], [ 7091239.392097401432693, 640585.046202304190956 ], [ 6900537.475569123402238, 771128.307441164273769 ], [ 6953418.48118094727397, 1015058.780633527901955 ], [ 7109028.795950131490827, 990258.512862588278949 ], [ 7206912.575242181308568, 928627.985160186886787 ], [ 7359214.387866635806859, 950385.386963680619374 ], [ 7385391.261911455541849, 954124.940398654900491 ], [ 7470381.112706347368658, 1158100.582306396216154 ], [ 7426828.020666802302003, 1413974.998038727091625 ], [ 7402389.232070433907211, 1557552.88104239013046 ], [ 7190816.559230517596006, 1828365.902277482440695 ], [ 7192075.607021133415401, 1840325.413275697734207 ], [ 7283403.440957584418356, 2296964.582957952748984 ], [ 7252713.384575602598488, 2416314.802221215330064 ], [ 7206912.575242181308568, 2594429.060740075539798 ], [ 7074328.408002153970301, 2864696.786267824005336 ], [ 6985938.963175461627543, 3044875.26995300501585 ], [ 6924335.58139125443995, 3087997.637201949954033 ], [ 6894165.884852347895503, 3109116.424779184628278 ], [ 6777171.947128957137465, 3191012.181185558438301 ], [ 6475999.858406107872725, 3401832.643291552551091 ], [ 6466214.558416279964149, 3406299.84546082187444 ], [ 6322991.819418473169208, 3471684.139351124875247 ], [ 6266533.280498644337058, 3497458.689727568533272 ], [ 6139935.961880112066865, 3555253.117792550474405 ], [ 5957561.768557274714112, 3707796.106153157539666 ], [ 5923565.828239317983389, 4200737.240763532929122 ], [ 6246527.261259907856584, 5033637.778553477488458 ], [ 6297521.171736843883991, 6206497.71952299028635 ], [ 6246527.261259907856584, 6920412.466200085356832 ], [ 6171736.192560400813818, 7630927.618845389224589 ], [ 6569488.694280497729778, 7906294.73542084172368 ], [ 6642050.547936720773578, 7984039.578623937442899 ], [ 7094384.474074117839336, 8323651.834356379695237 ], [ 7412790.649123544804752, 7975983.472221430391073 ], [ 7456125.737516857683659, 7928665.799433402717113 ], [ 8099306.008588559925556, 7226375.929061703383923 ], [ 8401810.210494292899966, 6964750.673359447158873 ], [ 9546009.110188238322735, 5970636.230144615285099 ], [ 10886973.114661026746035, 4778668.226168803870678 ], [ 11283189.759178942069411, 4614383.276002839207649 ], [ 11243930.487999573349953, 3860777.837583963759243 ], [ 11498900.040384251624346, 2534936.165183643810451 ], [ 11107946.726727746427059, 1260088.403260260820389 ], [ 10581009.651799414306879, 461183.805788272991776 ], [ 9731111.143850492313504, 121224.402608703821898 ], [ 8949204.516537481918931, 121224.402608703821898 ], [ 8212644.673824574798346, 37574.582041566813132 ], [ 8192794.844462932087481, 44733.536893306765705 ], [ 8186470.938112687319517, 45128.781040197092807 ], [ 7854128.932809839956462, 141048.510317560925614 ] ] ] ] } }
]
}
