{
"type": "FeatureCollection",
"name": "map050",
"crs": { "type": "name", "properties": { "name": "urn:ogc:def:crs:ESRI::102016" } },
"features": [
{ "type": "Feature", "properties": { "id": 1 }, "geometry": { "type": "MultiPolygon", "coordinates": [ [ [ [ 7000812.187064595520496, 5577572.82364079169929 ], [ 5063043.588941052556038, 7141386.078266808763146 ], [ 3533226.27463299036026, 7719317.063672076910734 ], [ 2683327.76668407022953, 7379357.660492507740855 ], [ 167628.183155257254839, 6733434.794451326131821 ], [ -2212087.639101726934314, 6767430.734769282862544 ], [ -4081864.356589356437325, 6767430.734769282862544 ], [ -6495576.119164297357202, 6767430.734769282862544 ], [ -9079267.583329021930695, 7073394.1976308953017 ], [ -9623202.628416333347559, 7549337.362082291394472 ], [ -9827178.270324075594544, 8433231.810349171981215 ], [ -9657198.568734290078282, 9079154.67639035359025 ], [ -8875291.941421281546354, 9419114.079569922760129 ], [ -7379470.567431177943945, 9725077.542431535199285 ], [ -6903527.402979779988527, 10574976.050380457192659 ], [ -4999754.745174193754792, 11628850.20023712143302 ], [ -3707909.013091830536723, 12716720.290411744266748 ], [ -1940120.116558071225882, 14144549.783765934407711 ], [ -206327.160342268645763, 14994448.291714856401086 ], [ 1357486.094283748418093, 15470391.456166252493858 ], [ 3329250.63272524997592, 15368403.635212382301688 ], [ 4893063.887351267039776, 14824468.590125072747469 ], [ 6286897.44038750231266, 14076557.903130019083619 ], [ 7816714.754695564508438, 13124671.574227225035429 ], [ 9108560.486777924001217, 12002805.543734647333622 ], [ 10502394.039814159274101, 10880939.513242069631815 ], [ 11794239.77189652249217, 9487105.960205836221576 ], [ 12576146.399209529161453, 8263252.108759388327599 ], [ 12916105.802389100193977, 6835422.615405196323991 ], [ 12712130.160481359809637, 5237613.420461222529411 ], [ 12168195.115394048392773, 4659682.435055954381824 ], [ 11046329.084901470690966, 5101629.659189393743873 ], [ 10366410.278542332351208, 5543576.883322834968567 ], [ 9482515.830275449901819, 6359479.450953800231218 ], [ 8428641.680418785661459, 7039398.257312938570976 ], [ 7408763.470880080014467, 6121507.86872810125351 ], [ 7000812.187064595520496, 5577572.82364079169929 ] ] ] ] } },
{ "type": "Feature", "properties": { "id": null }, "geometry": { "type": "MultiPolygon", "coordinates": [ [ [ [ 1493469.855555576272309, -2623947.778066314291209 ], [ 1731441.437781274318695, -3040398.046961286570877 ], [ 1756938.393019742332399, -3635327.002525532152504 ], [ 1773936.363178720697761, -4060276.256499993614852 ], [ 1816431.288576166145504, -4230255.958089778199792 ], [ 1790934.333337699063122, -4697700.137461686506867 ], [ 1807932.303496677428484, -5020661.570482276380062 ], [ 1875924.184132590889931, -5284130.107946442440152 ], [ 1850427.228894123807549, -5717578.347000393085182 ], [ 1646451.586986381560564, -5981046.884464559145272 ], [ 1374484.064442726783454, -6032040.794941495172679 ], [ 1017526.691104179248214, -5862061.09335171058774 ], [ 669068.302845120429993, -5811067.182874774560332 ], [ -36347.458752484992146, -5981046.884464559145272 ], [ -393304.832091032527387, -6159525.571133833378553 ], [ -724765.250191112980247, -6278511.362246681936085 ], [ -1064724.653370681684464, -6134028.61589536536485 ], [ -1277199.280357912648469, -5811067.182874774560332 ], [ -1251702.325119444634765, -5471107.779695205390453 ], [ -1090221.608609149698168, -4901675.77936942782253 ], [ -1013730.742893746588379, -4238754.943169267848134 ], [ -954237.847337321843952, -3788308.733956338372082 ], [ -639775.399396220222116, -3482345.271094726398587 ], [ -282818.026057672686875, -3116888.912676689680666 ], [ 40143.406962918117642, -2725935.59902018494904 ], [ 473591.646016868762672, -2283988.37488674512133 ], [ 601076.422209206968546, -2071513.747899514390156 ], [ 652070.332686142064631, -1901534.046309729805216 ], [ 949534.810468264855444, -1969525.926945643732324 ], [ 1221502.333011920563877, -2198998.52409185282886 ], [ 1493469.855555576272309, -2623947.778066314291209 ] ] ] ] } },
{ "type": "Feature", "properties": { "id": 3 }, "geometry": { "type": "MultiPolygon", "coordinates": [ [ [ [ -755719.732640496222302, -6265355.707205694168806 ], [ -464345.853559192270041, -6185027.476276249624789 ], [ -13894.933482812601142, -5975636.637411626055837 ], [ 390153.743245134421159, -5878275.510489229112864 ], [ 742534.777248020749539, -5821818.374250808730721 ], [ 1121116.908505568979308, -5911389.768304753117263 ], [ 1357658.901743774535134, -6024028.812703899107873 ], [ 1576150.548140191705897, -5994228.32924821972847 ], [ 2071400.840960843488574, -5921553.988908135332167 ], [ 2564341.975571218878031, -5760073.27239784039557 ], [ 3193266.871453421190381, -5632588.496205501258373 ], [ 3524727.289553500711918, -5598592.55588754452765 ], [ 4111157.260038258507848, -5590093.570808054879308 ], [ 4442617.678138338029385, -5870560.078431200236082 ], [ 4527607.528933230787516, -6134028.615895366296172 ], [ 4213145.080992128700018, -6380499.183200553059578 ], [ 3541725.259712480008602, -6660965.690823698416352 ], [ 3210264.841612399555743, -6890438.287969907745719 ], [ 2989291.229545679874718, -7204900.735911008901894 ], [ 2266877.497789095155895, -7230397.691149476915598 ], [ 1773936.363178720697761, -7213399.720990497618914 ], [ 1586958.691429957747459, -7213399.720990497618914 ], [ 1060021.616501625627279, -7604353.0346470028162 ], [ 533084.541573293507099, -7782831.721316276118159 ], [ 82638.332360363565385, -7740336.795918830670416 ], [ -359308.891773075796664, -7476868.258454663679004 ], [ -758761.19050906971097, -7238896.676228965632617 ], [ -1107219.57876812806353, -7000925.094003267586231 ], [ -1277199.280357912648469, -6652466.70574420876801 ], [ -1056225.668291192501783, -6380499.183200553059578 ], [ -755719.732640496222302, -6265355.707205694168806 ] ] ] ] } },
{ "type": "Feature", "properties": { "id": 4 }, "geometry": { "type": "MultiPolygon", "coordinates": [ [ [ [ -1260454.523593903984874, -6686793.457110426388681 ], [ -1090114.724821133771911, -7012606.457674385979772 ], [ -753689.627745300065726, -7241918.032769083976746 ], [ -202788.428764836629853, -7570178.534478806890547 ], [ 107115.649304185295478, -7742645.976762587204576 ], [ 470937.587514628539793, -7776968.801122062839568 ], [ 873841.282442934578285, -7667414.115537849254906 ], [ 1219870.984198007266968, -7485755.11667871940881 ], [ 1456108.545306816231459, -7310482.087468957528472 ], [ 1637952.601906892843544, -7213399.720990493893623 ], [ 1994354.815887516364455, -7221000.357290801592171 ], [ 2173388.661914713680744, -7910316.497508610598743 ], [ 2360366.333663477562368, -8462750.527675410732627 ], [ 2589838.930809685960412, -8896198.766729360446334 ], [ 2496350.094935304485261, -9338145.990862801671028 ], [ 2079899.826040332205594, -9567618.588009011000395 ], [ 1824930.273655655793846, -9737598.289598794654012 ], [ 1272496.243488855659962, -9882081.035950111225247 ], [ 643571.347606653347611, -10043561.752460407093167 ], [ 176127.168234745040536, -10094555.662937343120575 ], [ -665272.354634688235819, -9941573.931506536900997 ], [ -1447178.981947697233409, -9763095.244837261736393 ], [ -1957118.086717050988227, -9414636.856578204780817 ], [ -2263081.549578662961721, -9066178.468319145962596 ], [ -2645535.878155678045005, -8598734.28894723765552 ], [ -2560546.027360786218196, -8029302.288621459156275 ], [ -2356570.385453044436872, -7493866.228613638319075 ], [ -2169592.713704281486571, -7034921.034321219660342 ], [ -2008111.997193986084312, -6796949.452095521613955 ], [ -1260454.523593903984874, -6686793.457110426388681 ] ] ] ] } },
{ "type": "Feature", "properties": { "id": 5 }, "geometry": { "type": "MultiPolygon", "coordinates": [ [ [ [ -5892148.178520563058555, 2917390.493760665878654 ], [ -4787280.11818696372211, 3529317.419483890291303 ], [ -3546428.296581536531448, 3920270.733140395022929 ], [ -2492554.146724872291088, 3886274.792822437826544 ], [ -1200708.414642509073019, 3631305.240437760949135 ], [ -571783.518760306760669, 2883394.55344270914793 ], [ -333811.93653460778296, 2016498.075334807857871 ], [ -78842.384149931371212, 894632.044842229690403 ], [ -44846.443831974640489, -737173.090419702231884 ], [ -469795.697806436568499, -2097010.7031379789114 ], [ -928740.892098853364587, -2793927.479656095616519 ], [ -2152594.743545303121209, -3252872.67394851334393 ], [ -3427442.505468687042594, -3269870.644107492640615 ], [ -4668294.327074114233255, -3031899.061881793662906 ], [ -5943142.08899749815464, -2623947.77806631103158 ], [ -6844034.507423356175423, -2131006.643455935642123 ], [ -7217989.850920883007348, -1655063.479004538618028 ], [ -7285981.731556796468794, -975144.67264540027827 ], [ -7133000.000125991180539, 197715.268324112519622 ], [ -6759044.656628464348614, 1319581.298816691152751 ], [ -6504075.104243787005544, 1982502.135016850661486 ], [ -5892148.178520563058555, 2917390.493760665878654 ] ] ] ] } },
{ "type": "Feature", "properties": { "id": 6 }, "geometry": { "type": "MultiPolygon", "coordinates": [ [ [ [ 1732578.906348645221442, -3066938.980199940036982 ], [ 1628407.587894541909918, -2860088.80965950479731 ], [ 1470625.818474723026156, -2588253.970127481035888 ], [ 1365985.079363238066435, -1400093.92661986220628 ], [ 1162009.437455495819449, -431209.627558089792728 ], [ 703064.243163077160716, 554672.641662660520524 ], [ 346106.869824530556798, 1302583.32865771278739 ], [ -95840.354308908805251, 1965504.164857872296125 ], [ -180830.205103801563382, 2747410.792170881293714 ], [ 567080.481891250237823, 3563313.359801847487688 ], [ 1382983.049522215500474, 3818282.912186523899436 ], [ 2674828.781604578718543, 3988262.613776308484375 ], [ 3252759.767009846866131, 3835280.882345502264798 ], [ 3898682.633051028475165, 3291345.837258191779256 ], [ 4510609.558774251490831, 2067491.985811742953956 ], [ 4697587.230523014441133, 520676.7013447037898 ], [ 4374625.797502424567938, -737173.090419702231884 ], [ 4187648.125753661617637, -1417091.896778840571642 ], [ 3643713.080666350200772, -2351980.255522655323148 ], [ 3286755.707327803596854, -3456848.315856255590916 ], [ 3099778.035579040646553, -3728815.838399910368025 ], [ 2827810.513035384938121, -3830803.659353781491518 ], [ 2606836.900968665257096, -3847801.629512758925557 ], [ 2198885.617153182625771, -3660823.957763996906579 ], [ 1732578.906348645221442, -3066938.980199940036982 ] ] ] ] } },
{ "type": "Feature", "properties": { "id": 7 }, "geometry": { "type": "MultiPolygon", "coordinates": [ [ [ [ -7872411.702041553333402, -4799687.958415551111102 ], [ -6784541.611866932362318, -6023541.809862001799047 ], [ -6019632.954712903127074, -7077415.959718666039407 ], [ -5696671.521692311391234, -7927314.467667588964105 ], [ -5900647.16360005363822, -9100174.408637102693319 ], [ -6784541.611866932362318, -9627111.483565434813499 ], [ -8450342.687446821480989, -9627111.483565434813499 ], [ -9657198.568734291940928, -9304150.05054484307766 ], [ -10898050.390339719131589, -8862202.826411403715611 ], [ -11458983.405586007982492, -8233277.930529199540615 ], [ -11204013.853201331570745, -7536361.154011083766818 ], [ -10762066.629067892208695, -6448491.063836462795734 ], [ -10711072.718590956181288, -5683582.406682431697845 ], [ -10575088.957319129258394, -4731696.077779637649655 ], [ -10422107.225888323038816, -3745813.808558887802064 ], [ -10150139.703344667330384, -3388856.435220339335501 ], [ -9674196.538893271237612, -3541838.166651145555079 ], [ -9181255.404282895848155, -3932791.480307650752366 ], [ -8926285.851898219436407, -4306746.823805176652968 ], [ -8331356.896333971992135, -4612710.286666788160801 ], [ -7872411.702041553333402, -4799687.958415551111102 ] ] ] ] } },
{ "type": "Feature", "properties": { "id": 8 }, "geometry": { "type": "MultiPolygon", "coordinates": [ [ [ [ -7878350.992791219614446, -4797268.247369390912354 ], [ -8474232.023170575499535, -4539231.650007963180542 ], [ -9011155.829842906445265, -4182270.856152968481183 ], [ -9224792.540989357978106, -3898262.027057697530836 ], [ -9534589.852594858035445, -3652560.71095678396523 ], [ -9985072.709893314167857, -3441913.683115417137742 ], [ -10150139.703344667330384, -3388856.435220339335501 ], [ -10524095.046842193230987, -3575834.106969104148448 ], [ -10465137.500999048352242, -4023120.025939122773707 ], [ -10591407.008671749383211, -4845922.437247973866761 ], [ -10709712.880978237837553, -5674063.543393405154347 ], [ -11034034.151611547917128, -6499484.974313398823142 ], [ -11339997.614473158493638, -7162405.810513558797538 ], [ -11713952.957970686256886, -7825326.646713718771935 ], [ -12546853.495760630816221, -8437253.572436941787601 ], [ -13583729.675458315759897, -8743217.035298554226756 ], [ -14382634.272930301725864, -8182284.020052265375853 ], [ -15079551.049448419362307, -6958430.168605816550553 ], [ -15623486.094535730779171, -5479606.764774691313505 ], [ -15963445.497715298086405, -4646706.226984746754169 ], [ -15436508.422786965966225, -3677821.92792297527194 ], [ -14484622.09388417378068, -3167882.823153621051461 ], [ -12478861.615124715492129, -2300986.345045718364418 ], [ -11407989.49510907381773, -1689059.419322494417429 ], [ -10592086.927478106692433, -1077132.493599269539118 ], [ -9759186.389688162133098, -295225.86628626100719 ], [ -9198253.374441873282194, 690656.402934489771724 ], [ -8586326.448718650266528, 1693536.642314218450338 ], [ -7804419.821405639871955, 2594429.060740076936781 ], [ -7073507.104569567367435, 3036376.284873516764492 ], [ -6478578.149005319923162, 3172360.046145344153047 ], [ -6053628.895030859857798, 3104368.1655094306916 ], [ -5912965.873054538853467, 2885585.682667091023177 ], [ -6333709.889792261645198, 2242782.32376223616302 ], [ -6705378.384863647632301, 1459113.605405213776976 ], [ -6992766.746314417570829, 618415.029758831253275 ], [ -7186790.04509933758527, -214675.076471547596157 ], [ -7278997.417085533030331, -1044987.817358033033088 ], [ -7224805.868657899089158, -1586903.301634375937283 ], [ -6891516.219018863514066, -2070575.374152562813833 ], [ -6733547.701389998197556, -3167882.823153619654477 ], [ -6954521.31345671787858, -4153765.09237437043339 ], [ -7294480.716636287048459, -4697700.137461680918932 ], [ -7878350.992791219614446, -4797268.247369390912354 ] ] ] ] } },
{ "type": "Feature", "properties": { "id": 9 }, "geometry": { "type": "MultiPolygon", "coordinates": [ [ [ [ 4193623.588825238402933, -1395362.940154924523085 ], [ 4373865.284020588733256, -739938.59399001323618 ], [ 4601312.964040948078036, 145713.768730339361355 ], [ 4597622.495758024044335, 1347657.688945985399187 ], [ 4381424.985566014423966, 2325861.132228218019009 ], [ 3929278.979337187949568, 3230153.144685872364789 ], [ 3408744.381337457336485, 3703925.417648566886783 ], [ 3269757.737168826162815, 4243232.166160989552736 ], [ 3762698.871779201552272, 4872157.062043191865087 ], [ 4816573.021635865792632, 4940148.942679106257856 ], [ 5989432.962605379521847, 5025138.793473998084664 ], [ 6533368.007692690938711, 5161122.55474582593888 ], [ 7000812.187064595520496, 5577572.82364079169929 ], [ 7412519.928373780101538, 6124888.680472431704402 ], [ 7923398.147516557946801, 6584679.077700932510197 ], [ 8428641.680418785661459, 7039398.257312938570976 ], [ 9002716.58699481934309, 6669027.349844529293478 ], [ 9597062.055699810385704, 6253744.473639006726444 ], [ 10111019.849899720400572, 5779321.894377551972866 ], [ 10717422.843336699530482, 5315418.716206495650113 ], [ 11373540.010461805388331, 4311224.046796903014183 ], [ 11560517.682210568338633, 2917390.493760669603944 ], [ 10965588.726646322757006, 1472563.03024750109762 ], [ 10285669.920287184417248, -329221.806604215875268 ], [ 9588753.143769066780806, -1570073.628209643065929 ], [ 8857840.42693299241364, -2504961.986953457817435 ], [ 8228915.53105079010129, -2861919.360292006283998 ], [ 7786968.306917350739241, -2776929.509497113525867 ], [ 7056055.590081276372075, -2589951.837748350575566 ], [ 6427130.694199074059725, -2046016.792661039158702 ], [ 5985183.470065634697676, -1553075.658050663769245 ], [ 5458246.395137302577496, -1383095.956460880115628 ], [ 4193623.588825238402933, -1395362.940154924523085 ] ] ] ] } },
{ "type": "Feature", "properties": { "id": 10 }, "geometry": { "type": "MultiPolygon", "coordinates": [ [ [ [ 2857556.960813597775996, -4884677.809210442006588 ], [ 2687577.259223813191056, -5207639.242231032811105 ], [ 2347617.8560442449525, -5360620.973661839030683 ], [ 1871366.969719279091805, -5361602.752972745336592 ], [ 1531715.288413278758526, -5275631.122866947203875 ], [ 1412729.497300429269671, -5190641.272072054445744 ], [ 1208753.855392687954009, -4765692.018097593449056 ], [ 1361735.586823494173586, -4408734.644759045913815 ], [ 1809682.094542453065515, -4203259.181954924948514 ], [ 1956664.542387739755213, -4085773.211738455109298 ], [ 2211634.094772417098284, -4034779.301261520013213 ], [ 2653581.318905856460333, -4221756.973010282963514 ], [ 2857556.960813597775996, -4561716.376189852133393 ], [ 2857556.960813597775996, -4884677.809210442006588 ] ] ] ] } },
{ "type": "Feature", "properties": { "id": 11 }, "geometry": { "type": "MultiPolygon", "coordinates": [ [ [ [ 6648104.306265793740749, -5394616.913979795761406 ], [ 6206157.0821323543787, -6040539.780020977370441 ], [ 5441248.424978323280811, -6210519.48161076195538 ], [ 5169280.902434668503702, -6159525.571133826859295 ], [ 4502935.640106813050807, -6057545.760533472523093 ], [ 4371563.232189294882119, -5810437.08570508658886 ], [ 4137635.994587630033493, -5612498.653888292610645 ], [ 3979573.802780182566494, -5592000.57743498403579 ], [ 3639439.493985789828002, -5596930.060171134769917 ], [ 3503701.010591396596283, -5600749.097319555468857 ], [ 3282506.214788059704006, -5411614.884138774126768 ], [ 2845020.496921943034977, -4908497.090604585595429 ], [ 2743570.572688683401793, -4371739.062648328021169 ], [ 2771592.226436058990657, -3835128.142938344739377 ], [ 3129659.745719262398779, -3685351.532741406001151 ], [ 3357577.243626167066395, -3237638.798742272425443 ], [ 3506449.735807224176824, -2776842.989610427524894 ], [ 3693149.508572533726692, -2267011.395058902446181 ], [ 3898686.831117257475853, -1913744.121935158967972 ], [ 4100462.686321293469518, -1566941.870803222991526 ], [ 4439288.472704268991947, -1392979.963104611961171 ], [ 4982348.009005190804601, -1387712.224421228747815 ], [ 5498971.032407918013632, -1396232.936225594719872 ], [ 5755734.903979970142245, -1479059.991571417544037 ], [ 6108415.952470674179494, -1690527.273040900938213 ], [ 6522271.025293665938079, -2128300.322256362065673 ], [ 6967222.905247100628912, -2513123.56978365778923 ], [ 7192039.351353105157614, -2980905.15140485484153 ], [ 7260031.231989018619061, -3728815.838399907574058 ], [ 6954067.769127406179905, -4646706.226984743960202 ], [ 6648104.306265793740749, -5394616.913979795761406 ] ] ] ] } },
{ "type": "Feature", "properties": { "id": 12 }, "geometry": { "type": "MultiPolygon", "coordinates": [ [ [ [ 6645602.718204661272466, -5398273.081146066077054 ], [ 7158043.41103514842689, -5360620.973661839030683 ], [ 7599990.635168587788939, -5666584.436523451469839 ], [ 7973945.978666113689542, -5989545.869544042274356 ], [ 8636866.814866272732615, -6550478.884790331125259 ], [ 9299787.651066433638334, -7264393.631467426195741 ], [ 9673742.994563959538937, -8148288.079734306782484 ], [ 9605751.11392804607749, -9032182.528001185506582 ], [ 9316785.621225411072373, -9185164.25943199172616 ], [ 8738854.635820144787431, -9372141.931180754676461 ], [ 8109929.739937940612435, -9593115.543247474357486 ], [ 7073053.560240255668759, -9457131.781975647434592 ], [ 6308144.90308622457087, -9270154.110226884484291 ], [ 5849199.708793805912137, -8981188.617524249479175 ], [ 5475244.365296280011535, -8165286.049893284216523 ], [ 5186278.872593646869063, -7383379.422580275684595 ], [ 5101289.021798754110932, -6482487.004154417663813 ], [ 5227779.577095001935959, -6170494.072632639668882 ], [ 6002181.440224612131715, -6295509.332405654713511 ], [ 6342076.700120562687516, -5841888.030653594993055 ], [ 6645602.718204661272466, -5398273.081146066077054 ] ] ] ] } },
{ "type": "Feature", "properties": { "id": 13 }, "geometry": { "type": "MultiPolygon", "coordinates": [ [ [ [ 9572168.637749092653394, -9049961.485978279262781 ], [ 9452769.382497239857912, -9746097.274678278714418 ], [ 9180801.85995358414948, -10426016.081037417054176 ], [ 8602870.874548316001892, -11411898.35025816783309 ], [ 7582992.665009608492255, -12380782.649319939315319 ], [ 6512120.544993966817856, -13145691.306473970413208 ], [ 5645224.066886065527797, -13519646.64997149631381 ], [ 4387374.275121659040451, -13604636.500766387209296 ], [ 3129524.483357253484428, -13332668.978222733363509 ], [ 2007658.452864675782621, -12516766.410591766238213 ], [ 1531715.288413278758526, -11683865.872801821678877 ], [ 1684697.019844084978104, -10833967.364852899685502 ], [ 1803682.810956933535635, -10222040.439129674807191 ], [ 1880827.444755376782268, -9700333.508865647017956 ], [ 2037731.784684408456087, -9595730.615579627454281 ], [ 2504143.589040939696133, -9301304.018727069720626 ], [ 2542929.045906347222626, -9117954.586272418498993 ], [ 2514485.091476537752897, -8753863.736877858638763 ], [ 2334239.489745300728828, -8385557.57973534334451 ], [ 2087717.994893963681534, -7580467.28278717957437 ], [ 2041921.879055086523294, -7222640.600848304107785 ], [ 2501507.171933704987168, -7222116.643826725892723 ], [ 2756159.510332833044231, -7213128.914236168377101 ], [ 3021059.563016401603818, -7159691.953664212487638 ], [ 3305946.415637295227498, -6824197.198260365054011 ], [ 3605065.88814561907202, -6634506.947300994768739 ], [ 4177009.321170193143189, -6395593.867683134041727 ], [ 4594409.030414817854762, -6071545.168266925960779 ], [ 4909979.083004636690021, -6119841.113347750157118 ], [ 5172359.780048369430006, -6160102.860686396248639 ], [ 5148798.422685574740171, -6365303.573163800872862 ], [ 5116043.787709511816502, -6638887.522808445617557 ], [ 5152300.925892653875053, -7023213.187549751251936 ], [ 5279396.650907384231687, -7635345.175664507783949 ], [ 5496973.477795059792697, -8212695.022617894224823 ], [ 5731433.284263379871845, -8724243.691276047378778 ], [ 6021416.864215910434723, -9089621.641308538615704 ], [ 6640341.952698320150375, -9351357.833465397357941 ], [ 7154414.782266732305288, -9467802.106175841763616 ], [ 7938441.103612775914371, -9570625.230286797508597 ], [ 8292309.781266589649022, -9529036.069267138838768 ], [ 9061083.971457224339247, -9267891.263768758624792 ], [ 9572168.637749092653394, -9049961.485978279262781 ] ] ] ] } }
]
}
