{
"type": "FeatureCollection",
"name": "map009",
"crs": { "type": "name", "properties": { "name": "urn:ogc:def:crs:ESRI::102016" } },
"features": [
{ "type": "Feature", "properties": { "id": 1 }, "geometry": { "type": "MultiPolygon", "coordinates": [ [ [ [ -7739736.383026534691453, -3355290.601319078356028 ], [ -7141548.431413733400404, -4312391.32389956060797 ], [ -6652121.92554871365428, -5421758.070526937954128 ], [ -6053933.973935912363231, -7064055.90131844766438 ], [ -5836411.082440348342061, -7901519.033576370216906 ], [ -5945172.528188129886985, -9195780.237974978983402 ], [ -6575988.913525266572833, -9804844.334162557497621 ], [ -7772364.81675086915493, -10109376.382256347686052 ], [ -9643061.68361272290349, -10044119.514807678759098 ], [ -11731281.441970139741898, -9739587.466713888570666 ], [ -12601373.007952395826578, -9478559.996919211000204 ], [ -13950014.935224894434214, -8456202.406890058889985 ], [ -15298656.862497391179204, -7107560.479617562144995 ], [ -15603188.910591181367636, -6454991.805130869150162 ], [ -15798959.512937190011144, -5454386.504251273348927 ], [ -15537932.043142512440681, -3866469.396333654411137 ], [ -15015877.103553157299757, -3018130.119500954635441 ], [ -14515574.453113360330462, -2496075.179911600425839 ], [ -13319198.549887757748365, -1865258.794574463739991 ], [ -12383850.116456830874085, -1669488.192228456027806 ], [ -11426749.393876347690821, -1538974.457331117242575 ], [ -10382639.514697641134262, -1517222.16818156093359 ], [ -9773575.418510060757399, -1560726.746480674482882 ], [ -9229768.189771149307489, -1734745.059677125886083 ], [ -8859979.274228692054749, -1974020.240322246216238 ], [ -8490190.358686231076717, -2213295.420967366546392 ], [ -7739736.383026534691453, -3355290.601319078356028 ] ] ] ] } },
{ "type": "Feature", "properties": { "id": 2 }, "geometry": { "type": "MultiPolygon", "coordinates": [ [ [ [ -9012245.298275584354997, -1615107.469354565255344 ], [ -9251520.478920705616474, -1484593.734457226470113 ], [ -9556052.527014495804906, -1125680.963489545509219 ], [ -9632185.539037942886353, -451359.999853297136724 ], [ -9577804.816164052113891, 5438.072287388145924 ], [ -9327653.490944152697921, 592749.87932541128248 ], [ -9012245.298275584354997, 1114804.818914765492082 ], [ -8403181.202088005840778, 1647735.903078897856176 ], [ -7630974.937278752215207, 2278552.288416034076363 ], [ -6967530.118217281065881, 2648341.203958493191749 ], [ -6358466.02202970162034, 2822359.517154944594949 ], [ -6043057.829361133277416, 2757102.649706275667995 ], [ -6075686.263085467740893, 2278552.288416034076363 ], [ -6445475.178627926856279, 1517222.168181559536606 ], [ -6662998.070123491808772, 1038671.806891318410635 ], [ -6967530.118217281065881, 451359.999853294808418 ], [ -7293814.455460627563298, -168580.240909063257277 ], [ -7707107.949302199296653, -614502.168474969919771 ], [ -8174782.166017662733793, -1212690.120087771676481 ], [ -8577199.515284456312656, -1538974.457331117242575 ], [ -9012245.298275584354997, -1615107.469354565255344 ] ] ] ] } },
{ "type": "Feature", "properties": { "id": 3 }, "geometry": { "type": "MultiPolygon", "coordinates": [ [ [ [ -7957320.430899247527122, -934541.38912235700991 ], [ -7882125.95736313611269, -838362.411343609681353 ], [ -7882125.95736313611269, -838362.411343609332107 ], [ -7522213.49153096973896, -581873.734750634990633 ], [ -7228557.588011958636343, -570997.59017585683614 ], [ -6662998.070123491808772, -1103928.674339989200234 ], [ -6412846.744903592392802, -1854382.649999685585499 ], [ -6380218.311179257929325, -2909368.673753172159195 ], [ -6499855.901501818560064, -3518432.769940751604736 ], [ -6652121.92554871365428, -3986106.986656215041876 ], [ -6902273.250768612138927, -4083992.28782921936363 ], [ -7141548.431413732469082, -3975230.842081436887383 ], [ -7369947.467484075576067, -3659822.649412868544459 ], [ -7641851.081853530369699, -3257405.300146074965596 ], [ -7870250.117923872545362, -2865864.095454059541225 ], [ -8011639.997395989485085, -2496075.179911600425839 ], [ -8185658.310592440888286, -1984896.38489702437073 ], [ -8167681.65472571644932, -1203608.070760864298791 ], [ -7957320.430899247527122, -934541.38912235700991 ] ] ] ] } },
{ "type": "Feature", "properties": { "id": 4 }, "geometry": { "type": "MultiPolygon", "coordinates": [ [ [ [ -6361185.058173395693302, -1549850.601905895397067 ], [ -6480822.648495955392718, -886405.782844425179064 ], [ -6600460.238818515092134, -320846.264955957885832 ], [ -6437318.070196842774749, 592749.879325411748141 ], [ -6198042.889551721513271, 1277946.987536438973621 ], [ -5654235.660812811926007, 2126286.264369138516486 ], [ -5001666.986326118931174, 2844111.806304500438273 ], [ -3979309.396296966820955, 3474928.191641637124121 ], [ -3000456.384566927328706, 3735955.661436313763261 ], [ -1738823.613892655819654, 3779460.239735426846892 ], [ -781722.89131217263639, 3453175.902492080349475 ], [ -629456.867265278473496, 2322056.866715146694332 ], [ -498943.132367940619588, 777644.337096640374511 ], [ -433686.264919269829988, -396979.276979406364262 ], [ -433686.264919269829988, -1441089.156158114783466 ], [ -912236.626209512352943, -2245923.854691701941192 ], [ -1651814.457294430583715, -2789731.083430612459779 ], [ -2695924.336473139002919, -3246529.155571297742426 ], [ -3522511.32415628246963, -3420547.468767749145627 ], [ -4262089.155241200700402, -3420547.468767749145627 ], [ -4653630.359933216124773, -3290033.733870410360396 ], [ -5480217.347616359591484, -2789731.083430612459779 ], [ -6361185.058173395693302, -1549850.601905895397067 ] ] ] ] } },
{ "type": "Feature", "properties": { "id": 5 }, "geometry": { "type": "MultiPolygon", "coordinates": [ [ [ [ -705589.879288726486266, -6074326.745013632811606 ], [ -999245.782807738520205, -5780670.841494620777667 ], [ -1140635.662279854528606, -5193359.03445659764111 ], [ -1031874.216532072983682, -4790941.685189804062247 ], [ -814351.325036508962512, -4247134.456450892612338 ], [ -531571.566092275083065, -3703327.227711982559413 ], [ -63897.349376811645925, -2844111.806304504163563 ], [ 588671.325109880417585, -2050153.252345694694668 ], [ 1012840.963526230305433, -1756497.348826682893559 ], [ 1556648.192265141755342, -1789125.782551017589867 ], [ 1828551.806634597480297, -2061029.39692047284916 ], [ 2002570.119831047952175, -2452570.601612488739192 ], [ 2176588.433027498424053, -3029006.264075733721256 ], [ 2524625.059420401230454, -3398795.179618192836642 ], [ 2992299.276135865598917, -3507556.625365974847227 ], [ 3351212.047103546559811, -3714203.372286760713905 ], [ 3351212.047103546559811, -3986106.986656215973198 ], [ 3003175.420710643753409, -4323267.468474340625107 ], [ 2579005.782294293865561, -4671304.094867243431509 ], [ 2622510.360593406483531, -5095473.733283594250679 ], [ 2481120.481121288612485, -5530519.516274722293019 ], [ 2056950.842704938724637, -5813299.275218955241144 ], [ 1393506.023643467575312, -5780670.841494620777667 ], [ 697432.770857662893832, -5856803.853518068790436 ], [ 316767.710740425623953, -5900308.431817181408405 ], [ -248791.807148042134941, -6052574.455864076502621 ], [ -705589.879288726486266, -6074326.745013632811606 ] ] ] ] } },
{ "type": "Feature", "properties": { "id": 6 }, "geometry": { "type": "MultiPolygon", "coordinates": [ [ [ [ 3201652.731076772790402, -4130992.574057153426111 ], [ 3413749.878408521413803, -4062239.998679663520306 ], [ 3351212.047103546559811, -3822964.818034543190151 ], [ 3761786.504801423288882, -3692451.08313720440492 ], [ 4142451.564918661490083, -3725079.516861538868397 ], [ 4718887.227381906472147, -3942602.408357103355229 ], [ 5153933.010373034514487, -4127496.866128332912922 ], [ 5686864.094537167809904, -4105744.576978776603937 ], [ 6078405.299229183234274, -3855593.251758877653629 ], [ 6328556.624449080787599, -3605441.92653897870332 ], [ 6785354.696589767001569, -3561937.348239866085351 ], [ 7111639.033833113498986, -3855593.251758877653629 ], [ 7242152.768730451352894, -4377648.191348232328892 ], [ 6948496.865211439318955, -5117226.022433150559664 ], [ 6513451.082220311276615, -5726290.118620730005205 ], [ 6111033.732953517697752, -6106955.178737967275083 ], [ 5686864.094537167809904, -6324478.070233531296253 ], [ 5012543.130900918506086, -6367982.648532643914223 ], [ 4479612.046736785210669, -6172212.046186636202037 ], [ 3968433.251722210086882, -5867679.998092846944928 ], [ 3566015.902455415576696, -5389129.636802605353296 ], [ 3294112.288085960783064, -4703932.528591577894986 ], [ 3201652.731076772790402, -4130992.574057153426111 ] ] ] ] } },
{ "type": "Feature", "properties": { "id": 7 }, "geometry": { "type": "MultiPolygon", "coordinates": [ [ [ [ -306279.121091085718945, -6055311.947004221379757 ], [ -248791.807148042134941, -6052574.455864076502621 ], [ 133643.43925860786112, -5949611.120293055661023 ], [ 599352.470315771992318, -5868013.030722856521606 ], [ 1031874.216532092541456, -5987317.588415406644344 ], [ 1488672.288672777824104, -6204840.479910971596837 ], [ 1608309.87899533752352, -6803028.431523772887886 ], [ 1369034.698350217193365, -7216321.925365344621241 ], [ 1053626.505681648850441, -7433844.816860908642411 ], [ 498943.132367960177362, -7509977.82888435665518 ], [ 9516.62650294136256, -7586110.840907803736627 ], [ -610423.614259417168796, -7662243.852931251749396 ], [ -1045469.397250545676798, -7683996.142080808058381 ], [ -1643657.348863346967846, -7738376.864954698830843 ], [ -2220093.011326592415571, -7738376.864954698830843 ], [ -2361482.890798709355295, -7553482.40718346927315 ], [ -2209216.866751814261079, -7096684.335042784921825 ], [ -1817675.662059798371047, -6520248.672579539008439 ], [ -1350001.445344335399568, -6215716.624485749751329 ], [ -657145.513606385560706, -6072019.870457330718637 ], [ -306279.121091085718945, -6055311.947004221379757 ] ] ] ] } },
{ "type": "Feature", "properties": { "id": 8 }, "geometry": { "type": "MultiPolygon", "coordinates": [ [ [ [ -2230969.155901370570064, -7934147.467300706543028 ], [ -1719790.360886794514954, -7868890.599852037616074 ], [ -1230363.855021775234491, -7847138.310702481307089 ], [ -643052.047983751632273, -7803633.732403367757797 ], [ -88368.674670062959194, -7716624.575805142521858 ], [ 477190.843218403868377, -7683996.142080808058381 ], [ 977493.493658201768994, -7749253.009529476985335 ], [ 1510424.577822334133089, -8119041.925071936100721 ], [ 2108612.529435135424137, -8641096.864661291241646 ], [ 2456649.155828038230538, -9087018.792227197438478 ], [ 2391392.288379369303584, -9554693.008942659944296 ], [ 2054231.806561244651675, -9880977.346186006441712 ], [ 1466919.999523221515119, -10054995.659382458776236 ], [ 836103.614186084829271, -10218137.828004131093621 ], [ -99244.819244841113687, -10239890.117153687402606 ], [ -1360877.58991911355406, -10120252.52683112770319 ], [ -2241845.300476148724556, -9891853.490760784596205 ], [ -2720395.661766390316188, -9261037.105423647910357 ], [ -2829157.107514171861112, -8673725.298385623842478 ], [ -2774776.38464028108865, -8271307.949118831194937 ], [ -2513748.914845603983849, -8010280.479324153624475 ], [ -2230969.155901370570064, -7934147.467300706543028 ] ] ] ] } },
{ "type": "Feature", "properties": { "id": 9 }, "geometry": { "type": "MultiPolygon", "coordinates": [ [ [ [ 2674172.047323602251709, -6041698.311289297416806 ], [ 3239731.565212070010602, -5965565.29926585033536 ], [ 3827043.372250093147159, -6009069.877564962953329 ], [ 4033690.119170879013836, -6193964.335336193442345 ], [ 4294717.588965556584299, -6433239.515981312841177 ], [ 4501364.335886341519654, -6629010.118327321484685 ], [ 5262694.456120816059411, -6618133.973752543330193 ], [ 6034900.720930070616305, -6389734.937682200223207 ], [ 6807106.985739323310554, -6183088.190761415287852 ], [ 6992001.443510551936924, -6226592.769060527905822 ], [ 7383542.648202567361295, -6444115.660556090995669 ], [ 7524932.527674685232341, -6596381.684602987021208 ], [ 7524932.527674685232341, -6890037.588121998123825 ], [ 7361790.35905301105231, -7205445.780790566466749 ], [ 7013753.732660108245909, -7542606.262608691118658 ], [ 6546079.515944645740092, -7847138.310702481307089 ], [ 5850006.263158840127289, -8097289.635922379791737 ], [ 5121304.57664870005101, -8336564.816567500121891 ], [ 4479612.046736785210669, -8630220.720086511224508 ], [ 3914052.528848318383098, -8902124.334455966949463 ], [ 3098341.685739953070879, -9065266.503077641129494 ], [ 2434896.866678481921554, -8684601.442960403859615 ], [ 2032479.51741168834269, -8249555.659969274885952 ], [ 1923718.071663905866444, -7999404.334749375469983 ], [ 1956346.505388240329921, -7368587.949412239715457 ], [ 2162993.252309027127922, -6520248.672579539008439 ], [ 2674172.047323602251709, -6041698.311289297416806 ] ] ] ] } },
{ "type": "Feature", "properties": { "id": 10 }, "geometry": { "type": "MultiPolygon", "coordinates": [ [ [ [ 2402268.432954146526754, -10435660.719499696046114 ], [ 3011332.529141725972295, -9663454.454690443351865 ], [ 3718281.92650230973959, -9239284.816274093464017 ], [ 4359974.45641422457993, -8945628.912755081430078 ], [ 4958162.408027026802301, -8651973.009236071258783 ], [ 5545474.215065049007535, -8467078.551464840769768 ], [ 6078405.299229182302952, -8325688.671992723830044 ], [ 7013753.732660107314587, -8184298.792520606890321 ], [ 7688074.696296356618404, -8554087.708063066005707 ], [ 7840340.720343252643943, -9217532.527124537155032 ], [ 7720703.130020691081882, -9793968.189587783068419 ], [ 7437923.371076457202435, -10457413.008649252355099 ], [ 6774478.552014987915754, -11371009.152930622920394 ], [ 6024024.57635529153049, -12056206.261141650378704 ], [ 5273570.60069559328258, -12567385.056156225502491 ], [ 4762391.805681018158793, -12861040.95967523753643 ], [ 4316469.878115111961961, -13176449.152343805879354 ], [ 3837919.516824870370328, -13252582.164367252960801 ], [ 3076589.396590395830572, -12980678.549997799098492 ], [ 2543658.312426263466477, -12349862.164660662412643 ], [ 2369639.999229812063277, -11849559.514220863580704 ], [ 2282630.842631585896015, -11153486.261435057967901 ], [ 2402268.432954146526754, -10435660.719499696046114 ] ] ] ] } },
{ "type": "Feature", "properties": { "id": 11 }, "geometry": { "type": "MultiPolygon", "coordinates": [ [ [ [ 2769338.312352910637856, -2941997.107477510347962 ], [ 2138521.927015773952007, -1963144.095747470855713 ], [ 1616466.987426418811083, -1267070.84296166524291 ], [ 1050907.469537952914834, 168580.240909057669342 ], [ 376586.505901703611016, 1582479.035630225203931 ], [ -167220.722837207838893, 2952873.252052280120552 ], [ 311329.638453034684062, 3931726.263782318681479 ], [ 1812237.589772427454591, 4823570.118914132006466 ], [ 2921604.336399804800749, 5236863.612755704671144 ], [ 4705292.046663431450725, 5911184.57639195304364 ], [ 6184447.708833267912269, 6367982.648532638326287 ], [ 6075686.263085486367345, 5824175.419793726876378 ], [ 6314961.443730607628822, 4823570.118914132006466 ], [ 6662998.070123510435224, 3844717.107184092979878 ], [ 7293814.455460645258427, 2670093.493108046241105 ], [ 7359071.322909314185381, 1974020.240322240628302 ], [ 7598346.503554437309504, 1321451.565835547633469 ], [ 8076896.864844676107168, 995167.228592202067375 ], [ 8620704.093583587557077, 668882.891348855569959 ], [ 9643061.683612737804651, 755892.047947080805898 ], [ 10295630.358099430799484, 1234442.40923732239753 ], [ 10600162.406193222850561, 1756497.348826676607132 ], [ 10513153.249594997614622, 668882.891348855569959 ], [ 10382639.514697656035423, 59818.795161275193095 ], [ 9882336.864257860928774, -1201813.975512996315956 ], [ 9360281.924668505787849, -2354685.300439486280084 ], [ 8468438.069536693394184, -2920244.818327954038978 ], [ 7068134.455533998087049, -3355290.601319082081318 ], [ 6399385.988443926908076, -3598696.272825183812529 ], [ 5969643.853481397032738, -3638070.360263315960765 ], [ 5393208.191018152981997, -3822964.818034545518458 ], [ 4746523.804385046474636, -3954347.953583437949419 ], [ 4718887.227381906472147, -3942602.408357103355229 ], [ 4142451.564918661490083, -3725079.516861538868397 ], [ 4093094.668955321423709, -3720848.925778966862708 ], [ 2769338.312352910637856, -2941997.107477510347962 ] ] ] ] } },
{ "type": "Feature", "properties": { "id": 12 }, "geometry": { "type": "MultiPolygon", "coordinates": [ [ [ [ 9881998.949361389502883, 931112.709496091818437 ], [ 9119189.572452297434211, 711307.187422788119875 ], [ 8505944.773989420384169, 737738.483105355640873 ], [ 8023743.351513778790832, 1031408.260408723377623 ], [ 7547110.914554887451231, 1461184.99037977354601 ], [ 7320939.012537868693471, 2380764.884284323547035 ], [ 7293814.455460645258427, 2670093.493108046241105 ], [ 7216011.80905244871974, 2814967.38641986111179 ], [ 7027555.405824054963887, 3165886.206224456895143 ], [ 6695340.632334200665355, 3784493.025826255325228 ], [ 6364779.049393598921597, 4683458.102986969053745 ], [ 6086957.439732995815575, 5777041.408358686603606 ], [ 6081360.517109255306423, 5852546.689912571571767 ], [ 6175616.145127213560045, 6323824.83000236749649 ], [ 7057258.310959219932556, 6313601.925658746622503 ], [ 8471157.105680387467146, 6009069.877564957365394 ], [ 8906202.888671513646841, 6009069.877564957365394 ], [ 9819799.032952886074781, 5291244.335629595443606 ], [ 10276597.105093568563461, 4638675.661142902448773 ], [ 10472367.707439579069614, 3355290.601319073699415 ], [ 10600162.406193222850561, 1756497.348826676607132 ], [ 9881998.949361389502883, 931112.709496091818437 ] ] ] ] } },
{ "type": "Feature", "properties": { "id": 13 }, "geometry": { "type": "MultiPolygon", "coordinates": [ [ [ [ 5621607.227088492363691, 9946234.213634669780731 ], [ 5186561.444097366183996, 10033243.370232896879315 ], [ 4490488.191311560571194, 9250160.960848864167929 ], [ 2663295.902748819440603, 8032032.768473705276847 ], [ 1619186.023570112884045, 7988528.190174592658877 ], [ 1140635.66227987036109, 8510583.129763947799802 ], [ 227039.51799850165844, 10381279.996625799685717 ], [ -512538.313086416572332, 11816931.080496523529291 ], [ -817070.361180208623409, 13339591.320965472608805 ], [ -295015.421590853482485, 14557719.513340633362532 ], [ 662085.300989627838135, 15166783.60952821187675 ], [ 1793204.336766563355923, 15340801.922724664211273 ], [ 3228855.420637287199497, 15210288.18782732449472 ], [ 4621001.926208898425102, 14775242.404836196452379 ], [ 5012543.130900915712118, 13426600.477563697844744 ], [ 5099552.287499140948057, 12164967.706889426335692 ], [ 5882634.696883171796799, 12251976.863487651571631 ], [ 6709221.68456631526351, 12643518.068179666996002 ], [ 8231881.925035264343023, 12730527.224777892231941 ], [ 8927955.177821069955826, 12643518.068179666996002 ], [ 9928560.478700663894415, 12077958.550291199237108 ], [ 10494119.996589131653309, 10990344.09281338006258 ], [ 11277202.405973166227341, 9815720.478737331926823 ], [ 12016780.237058080732822, 8380069.394866608083248 ], [ 12582339.754946552217007, 7074932.045893223956227 ], [ 12669348.911544777452946, 5726290.118620725348592 ], [ 11929771.080459855496883, 4682180.239442016929388 ], [ 11016174.936178483068943, 4769189.396040242165327 ], [ 9972065.056999776512384, 5726290.118620725348592 ], [ 8710432.286325506865978, 6683390.841201208531857 ], [ 7666322.407146796584129, 8032032.768473705276847 ], [ 5621607.227088492363691, 9946234.213634669780731 ] ] ] ] } }
]
}
