{
"type": "FeatureCollection",
"name": "map018",
"crs": { "type": "name", "properties": { "name": "urn:ogc:def:crs:ESRI::102016" } },
"features": [
{ "type": "Feature", "properties": { "id": 1 }, "geometry": { "type": "MultiPolygon", "coordinates": [ [ [ [ -9315417.828297529369593, -261027.469794681295753 ], [ -8227803.370819708332419, -522054.939589358400553 ], [ -6618133.973752534016967, -1696678.553665404673666 ], [ -5856803.85351805947721, -2762540.721993668470532 ], [ -5291244.335629593580961, -3632632.287975924555212 ], [ -4595171.082843787968159, -5590338.311436001211405 ], [ -4377648.191348224878311, -7287016.865101400762796 ], [ -4529914.215395119041204, -8396383.611728778108954 ], [ -5421758.07052693143487, -9571007.225804824382067 ], [ -6574629.395453421398997, -10419346.502637524157763 ], [ -7575234.696333017200232, -11050162.887974660843611 ], [ -9358922.406596641987562, -11137172.04457288607955 ], [ -11468894.454103615134954, -10919649.153077322989702 ], [ -13100316.140320345759392, -10245328.189441073685884 ], [ -14231435.176097277551889, -9636264.093253493309021 ], [ -15427811.079322881996632, -8374631.32257922179997 ], [ -15949866.018912235274911, -7221759.997652731835842 ], [ -16036875.17551046051085, -6221154.696773137897253 ], [ -15949866.018912235274911, -4763751.323752857744694 ], [ -15667086.259968001395464, -3371604.818181247916073 ], [ -14622976.380789294838905, -1827192.288562742527574 ], [ -13470105.055862803012133, -870091.565982260741293 ], [ -12143215.417739862576127, -369788.915542463306338 ], [ -10642307.466420469805598, -43504.578299117274582 ], [ -9315417.828297529369593, -261027.469794681295753 ] ] ] ] } },
{ "type": "Feature", "properties": { "id": 2 }, "geometry": { "type": "MultiPolygon", "coordinates": [ [ [ [ -5939109.812462326139212, -2647312.379471695050597 ], [ -6615194.475218810141087, -1700793.851612617727369 ], [ -6615194.475218811072409, -1700793.851612617261708 ], [ -6618133.973752534016967, -1696678.553665404673666 ], [ -8227803.370819708332419, -522054.939589358400553 ], [ -9156635.989951675757766, -299135.110997686162591 ], [ -9685206.743839988484979, 391541.204692010767758 ], [ -9837472.767886882647872, 1805439.999413177371025 ], [ -9358922.406596641987562, 3023568.191788336262107 ], [ -8358317.105717048048973, 4089430.360116600524634 ], [ -6748647.708649873733521, 4611485.299705954268575 ], [ -5400005.781377375125885, 4937769.636949300765991 ], [ -4334143.613049110397696, 4937769.636949300765991 ], [ -2659217.348533269017935, 4611485.299705954268575 ], [ -1506346.023606777191162, 4024173.492667931132019 ], [ -418731.566128958016634, 3241091.083283900283277 ], [ 494864.578152410686016, 2370999.517301644198596 ], [ 842901.204545315355062, 1500907.951319387182593 ], [ 1147433.252639103680849, 543807.228738905861974 ], [ 1169185.541788659989834, -522054.939589358866215 ], [ 734139.758797533810139, -1914201.445160969160497 ], [ 407855.421554185450077, -2458008.673899878747761 ], [ -114199.518035165965557, -3023568.191788346506655 ], [ -1114804.818914763629436, -3589127.709676812402904 ], [ -2245923.854691695421934, -3871907.468621046282351 ], [ -4029611.56495532207191, -3871907.468621046282351 ], [ -5294723.172734355553985, -3627280.230891675688326 ], [ -5856803.85351805947721, -2762540.721993668470532 ], [ -5939109.812462325207889, -2647312.379471696913242 ], [ -5939109.812462326139212, -2647312.379471695050597 ] ] ] ] } },
{ "type": "Feature", "properties": { "id": 3 }, "geometry": { "type": "MultiPolygon", "coordinates": [ [ [ [ 1154943.981862385291606, 175781.496798099862644 ], [ 1150147.760829186765477, 410796.327424835064448 ], [ 1147433.252639103680849, 543807.228738905861974 ], [ 992381.874493790790439, 1031111.56005274830386 ], [ 842901.204545315355062, 1500907.951319387182593 ], [ 494864.578152410686016, 2370999.517301644198596 ], [ 480063.451558079686947, 2385095.828343864530325 ], [ -418731.566128958016634, 3241091.083283900283277 ], [ -571874.328911331365816, 3351353.87248720927164 ], [ 119637.590322565287352, 3741393.733723697718233 ], [ 1381270.360996836796403, 3850155.179471479728818 ], [ 2534141.68592332676053, 3828402.890321923419833 ], [ 3948040.48064449429512, 3088825.059237005189061 ], [ 4796379.757477194070816, 1848944.577712289988995 ], [ 5100911.805570982396603, -282779.75894423853606 ], [ 5318434.69706654921174, -1000605.300879600457847 ], [ 5622966.745160337537527, -1783687.710263631306589 ], [ 5318434.69706654921174, -2980063.613489233888686 ], [ 4861636.62492586299777, -3523870.84222814347595 ], [ 4100306.504691388458014, -3915412.046920158900321 ], [ 3077948.91466223821044, -4002421.20351838413626 ], [ 2403627.951025988906622, -3610879.998826368711889 ], [ 1294261.204398611560464, -2784293.011143225245178 ], [ 642492.246424770215526, -2066947.299115573987365 ], [ 734139.758797533810139, -1914201.445160969160497 ], [ 1003817.827568945940584, -1051231.625092446338385 ], [ 1169185.541788659989834, -522054.939589358866215 ], [ 1167055.139614457963035, -417665.233053461648524 ], [ 1154943.981862385291606, 175781.496798099862644 ] ] ] ] } },
{ "type": "Feature", "properties": { "id": 6 }, "geometry": { "type": "MultiPolygon", "coordinates": [ [ [ [ 1447324.554346717195585, 3848908.873936576303095 ], [ 1250756.626099498942494, 4132934.938415713142604 ], [ 2512389.396773770451546, 4285200.962462607771158 ], [ 3230214.938709132373333, 4589733.01055639795959 ], [ 4252572.528738282620907, 4589733.01055639795959 ], [ 5318434.69706654921174, 4198191.805864382535219 ], [ 6688828.91348860040307, 3784898.312022810801864 ], [ 7602425.057769969105721, 3654384.577125472016633 ], [ 8798800.960995573550463, 3175834.215835231356323 ], [ 9929919.99677250534296, 2958311.324339667335153 ], [ 10495479.514660973101854, 2436256.384750313125551 ], [ 10473727.22551141679287, 1653173.975366282276809 ], [ 10256204.334015853703022, 696073.252785800024867 ], [ 9864663.129323836416006, -478550.361290246248245 ], [ 9364360.478884041309357, -1587917.107917622663081 ], [ 8603030.3586495667696, -2784293.011143225245178 ], [ 6775838.070086825639009, -3676136.866275037638843 ], [ 6232030.841347917914391, -3328100.239882134832442 ], [ 5318434.69706654921174, -2980063.613489233888686 ], [ 5622966.745160337537527, -1783687.710263631306589 ], [ 5286967.970962900668383, -896765.104737560963258 ], [ 5083945.020034329034388, -164012.260187662439421 ], [ 4796379.757477194070816, 1848944.577712289988995 ], [ 4650187.957570175640285, 2062609.51603793236427 ], [ 4095299.373981490731239, 2873600.522821395192295 ], [ 4095299.373981490265578, 2873600.522821395192295 ], [ 3948040.48064449429512, 3088825.059237005189061 ], [ 2534141.68592332676053, 3828402.890321923419833 ], [ 2491883.413159118033946, 3829200.216223135124892 ], [ 1567841.778959738323465, 3846634.964038217440248 ], [ 1447324.554346717195585, 3848908.873936576303095 ] ] ] ] } },
{ "type": "Feature", "properties": { "id": 4 }, "geometry": { "type": "MultiPolygon", "coordinates": [ [ [ [ 47587.476022876158822, -2848298.948225466534495 ], [ 47587.47602288165217, -2848298.948225460480899 ], [ 407855.421554185450077, -2458008.673899878747761 ], [ 425609.128139486769214, -2428419.16292437678203 ], [ 672391.455260504386388, -2099854.77190778683871 ], [ 1294261.204398611560464, -2784293.011143225245178 ], [ 1381474.70883062761277, -2849275.622288648970425 ], [ 1792225.321307080797851, -3155325.098251496441662 ], [ 2403627.951025988906622, -3610879.998826368711889 ], [ 3019700.177725560497493, -3968599.356264829169959 ], [ 3019700.177725564688444, -3968599.356264831963927 ], [ 2795169.155718004330993, -4654989.87800507619977 ], [ 2773416.866568448022008, -5264053.974192654713988 ], [ 2338371.083577319979668, -5720852.046333339065313 ], [ 1403022.650146393105388, -5764356.624632453545928 ], [ 1076738.312903046607971, -5786108.913782009854913 ], [ 76133.012023452669382, -5786108.913782009854913 ], [ -250151.325219893828034, -6068888.672726241871715 ], [ -902719.999706584960222, -6112393.251025354489684 ], [ -1359518.071847271174192, -5807861.202931566163898 ], [ -1511784.095894165337086, -5198797.106743985787034 ], [ -1229004.336949931457639, -4328705.540761729702353 ], [ -1165986.675737246870995, -3601923.173882433213294 ], [ -1154493.206135004991665, -3599049.806481872685254 ], [ -1125041.190279257716611, -3591686.802517936099321 ], [ -1114804.818914763629436, -3589127.709676812402904 ], [ -324749.523145043174736, -3142574.716415667906404 ], [ -324749.523145037237555, -3142574.716415664646775 ], [ -114199.518035165965557, -3023568.191788346506655 ], [ 47587.476022875642229, -2848298.948225467000157 ], [ 47587.476022876158822, -2848298.948225466534495 ] ] ] ] } },
{ "type": "Feature", "properties": { "id": 5 }, "geometry": { "type": "MultiPolygon", "coordinates": [ [ [ [ 2792121.064244817942381, -4740336.439254290424287 ], [ 3030720.209037909749895, -3974998.084123612847179 ], [ 3077948.91466223821044, -4002421.20351838413626 ], [ 3986813.325034220237285, -3925071.040933534968644 ], [ 4100306.504691388458014, -3915412.046920158900321 ], [ 4696984.855862888507545, -3608548.894889101851732 ], [ 4835587.240566646680236, -3537267.668470026459545 ], [ 4861636.62492586299777, -3523870.84222814347595 ], [ 5288010.059991513378918, -3016283.419530942570418 ], [ 6208512.524762457236648, -3319140.881182911805809 ], [ 6775838.070086825639009, -3676136.866275037638843 ], [ 7297893.009676180779934, -4480971.564808625727892 ], [ 7123874.696479730308056, -5242301.685043098405004 ], [ 6536562.889441706240177, -5677347.468034226447344 ], [ 6145021.684749692678452, -6090640.961875798180699 ], [ 5361939.27536566182971, -6134145.540174912661314 ], [ 4622361.444280743598938, -6047136.38357668556273 ], [ 3600003.854251589626074, -5786108.913782009854913 ], [ 2773416.866568448022008, -5264053.974192654713988 ], [ 2792121.064244817942381, -4740336.439254290424287 ] ] ] ] } },
{ "type": "Feature", "properties": { "id": 7 }, "geometry": { "type": "MultiPolygon", "coordinates": [ [ [ [ -922799.035844637546688, -6099007.226933319121599 ], [ -902719.999706584960222, -6112393.251025354489684 ], [ -250151.325219893828034, -6068888.672726241871715 ], [ -68790.234214073629119, -5911709.060521198436618 ], [ 11538.650843298193649, -5842090.693471476435661 ], [ 1057259.298141196370125, -5786108.913782009854913 ], [ 1076738.312903046607971, -5786108.913782009854913 ], [ 1156143.793205632362515, -5780815.215095170773566 ], [ 2206119.982897932641208, -5727003.260318427346647 ], [ 2338371.083577319979668, -5720852.046333339065313 ], [ 2510992.133540045469999, -5539599.943872476927936 ], [ 2865077.997875885106623, -5321945.215018404647708 ], [ 3327439.812963288743049, -5613963.203494661487639 ], [ 3539442.035352032165974, -5747859.343950710259378 ], [ 3600003.854251589626074, -5786108.913782009854913 ], [ 4545456.517193978652358, -6027501.083043894730508 ], [ 4622361.444280743598938, -6047136.38357668556273 ], [ 5361939.27536566182971, -6134145.540174912661314 ], [ 5430609.578957799822092, -6130330.523308682255447 ], [ 5814703.28660952206701, -6108991.983994697220623 ], [ 6063099.21730643697083, -6095192.210067090578377 ], [ 6145021.684749692678452, -6090640.961875798180699 ], [ 6420529.510532977059484, -5799827.145771218463778 ], [ 6471306.021993037313223, -6699705.058063378557563 ], [ 5405443.85366477444768, -7548044.334896078333259 ], [ 4100306.504691388458014, -7961337.828737650066614 ], [ 2490637.107624214142561, -8265869.876831440255046 ], [ 1403022.650146393105388, -8374631.32257922179997 ], [ 532931.084164137020707, -8570401.924925230443478 ], [ -706949.397360578179359, -8505145.057476559653878 ], [ -1642297.830791503190994, -8396383.611728778108954 ], [ -2534141.685923317447305, -8091851.563634987920523 ], [ -2795169.155717993155122, -7613301.202344747260213 ], [ -2186105.059530414640903, -6569191.323166040703654 ], [ -1359518.071847271174192, -5807861.202931566163898 ], [ -922799.035844637546688, -6099007.226933319121599 ] ] ] ] } },
{ "type": "Feature", "properties": { "id": 8 }, "geometry": { "type": "MultiPolygon", "coordinates": [ [ [ [ -733402.688167322427034, -8502069.093429263681173 ], [ -706949.397360578179359, -8505145.057476559653878 ], [ 532931.084164137020707, -8570401.924925230443478 ], [ 668543.214019788312726, -8539889.195707708597183 ], [ 1257745.211180939339101, -8407318.746346449479461 ], [ 1260164.070603798376396, -8406774.502976305782795 ], [ 2139585.312438303604722, -8300975.056350030936301 ], [ 2490637.107624214142561, -8265869.876831440255046 ], [ 3354500.585175779182464, -8102436.245943306013942 ], [ 4100306.504691388458014, -7961337.828737650066614 ], [ 4455174.700814675539732, -7848962.899965276010334 ], [ 4565388.882771966978908, -7814061.742345467209816 ], [ 5378425.105213419534266, -7556600.271905673667789 ], [ 5405443.85366477444768, -7548044.334896078333259 ], [ 6471306.021993037313223, -6699705.058063378557563 ], [ 6470358.671469672583044, -6682915.802821910940111 ], [ 6458654.945415173657238, -6475498.548955501057208 ], [ 6424813.052939074113965, -5875741.482671761885285 ], [ 6809670.682794198393822, -5475045.398884233087301 ], [ 6991141.212271655909717, -5340622.784456486813724 ], [ 7043763.077096332795918, -5301643.625327096320689 ], [ 7711186.503517754375935, -6264659.275072250515223 ], [ 8820553.250145129859447, -6851971.082110272720456 ], [ 9603635.659529160708189, -7417530.59999874047935 ], [ 9755901.683576054871082, -8570401.924925230443478 ], [ 9342608.189734485000372, -10093062.165394177660346 ], [ 8755296.382696460932493, -11463456.381816232576966 ], [ 7537168.190321300178766, -12311795.658648932352662 ], [ 6340792.287095699459314, -13007868.911434737965465 ], [ 4665866.022579856216908, -13268896.381229413673282 ], [ 3404233.251905582845211, -13203639.513780744746327 ], [ 1968582.168034860864282, -13029621.200584294274449 ], [ 337160.481818130239844, -12638079.995892278850079 ], [ -1011481.445454368367791, -11942006.743106473237276 ], [ -1859820.722287068143487, -11202428.912021555006504 ], [ -2316618.794427752494812, -10484603.370086193084717 ], [ -3012692.047213558107615, -9614511.804103937000036 ], [ -3077948.914662227034569, -8461640.479177447035909 ], [ -2546611.151040896307677, -8068990.877586092799902 ], [ -2534141.685923317447305, -8091851.563634987920523 ], [ -1642297.830791503190994, -8396383.611728778108954 ], [ -1577911.519205276388675, -8403870.392145780846477 ], [ -733402.688167322427034, -8502069.093429263681173 ] ] ] ] } },
{ "type": "Feature", "properties": { "id": 9 }, "geometry": { "type": "MultiPolygon", "coordinates": [ [ [ [ -4181525.006804841104895, 4908038.739628988318145 ], [ -4334143.613049110397696, 4937769.636949300765991 ], [ -5144416.383870091289282, 4937769.636949300765991 ], [ -5400005.781377375125885, 4937769.636949300765991 ], [ -6066372.110888651572168, 4776551.976583668962121 ], [ -7450159.033723071217537, 5873118.070380223914981 ], [ -8276746.021406216546893, 7308769.154250947758555 ], [ -8450764.334602667018771, 9092456.864514574408531 ], [ -8276746.021406216546893, 10310585.056889733299613 ], [ -7406654.455423958599567, 10919649.153077311813831 ], [ -6797590.359236378222704, 11789740.719059567898512 ], [ -5883994.214955009520054, 12790346.019939163699746 ], [ -4752875.179178077727556, 13660437.585921419784427 ], [ -2490637.107624210417271, 14791556.621698353439569 ], [ -663444.819061473011971, 15661648.18768060952425 ], [ 1424774.939295943826437, 15922675.657475285232067 ], [ 3034444.33636311814189, 15835666.500877059996128 ], [ 4644113.733430292457342, 15313611.561287706717849 ], [ 7515415.901171740144491, 13529923.851024080067873 ], [ 9473121.92463181167841, 12137777.345452470704913 ], [ 11430827.948091894388199, 9571007.225804815068841 ], [ 12387928.670672371983528, 7221759.997652722522616 ], [ 12605451.562167935073376, 5394567.709089983254671 ], [ 12126901.200877696275711, 3915412.046920148655772 ], [ 11604846.261288344860077, 2610274.697946764528751 ], [ 10457060.442076588049531, 1579840.128253038972616 ], [ 10473727.22551141679287, 1653173.975366282276809 ], [ 10488318.198186909779906, 2178448.991684019099921 ], [ 10495479.514660973101854, 2436256.384750313125551 ], [ 9929919.99677250534296, 2958311.324339667335153 ], [ 9823423.768011763691902, 2978791.368332117330283 ], [ 8517521.359923718497157, 3288346.056263973005116 ], [ 7602425.057769969105721, 3654384.577125472016633 ], [ 7462340.315646819770336, 3674396.683143064845353 ], [ 7445987.361831380985677, 3676732.819402413442731 ], [ 6865457.50138299446553, 3759665.656609325669706 ], [ 5874821.078699328005314, 4030392.738387830089778 ], [ 4503685.744175616651773, 4497487.339579418301582 ], [ 4252572.528738282620907, 4589733.01055639795959 ], [ 3338976.384456906467676, 4589733.01055639795959 ], [ 3230214.938709132373333, 4589733.01055639795959 ], [ 2523680.709207804873586, 4289991.21622250135988 ], [ 2509801.811249379534274, 4284888.667657939717174 ], [ 1250756.626099498942494, 4132934.938415713142604 ], [ 1319650.404023239621893, 4033388.543511606287211 ], [ 1447324.554346717195585, 3848908.873936576303095 ], [ 1381270.360996836796403, 3850155.179471479728818 ], [ 119637.590322565287352, 3741393.733723697718233 ], [ 68017.235992931062356, 3712277.828010872472078 ], [ -571874.328911331365816, 3351353.87248720927164 ], [ -1183999.750209322664887, 3792084.175821763463318 ], [ -1493309.548945231828839, 4014787.230911618564278 ], [ -1506346.023606777191162, 4024173.492667931132019 ], [ -2659217.348533269017935, 4611485.299705954268575 ], [ -2823947.462540130130947, 4643575.581655343063176 ], [ -3525915.592436032369733, 4780322.619946752674878 ], [ -4181525.006804841104895, 4908038.739628988318145 ] ] ] ] } }
]
}
