{
"type": "FeatureCollection",
"name": "map026",
"crs": { "type": "name", "properties": { "name": "urn:ogc:def:crs:ESRI::102016" } },
"features": [
{ "type": "Feature", "properties": { "id": 1 }, "geometry": { "type": "MultiPolygon", "coordinates": [ [ [ [ -9013604.816347427666187, -1968582.168034858070314 ], [ -8600311.322505857795477, -2022962.890908749075606 ], [ -8208770.117813842371106, -2447132.529325098730624 ], [ -7860733.491420939564705, -3099701.203811790794134 ], [ -7664962.889074932783842, -3969792.769794046413153 ], [ -7490944.575878480449319, -4676742.167154629714787 ], [ -7132031.804910799488425, -5786108.913782006129622 ], [ -6642605.299045780673623, -6764961.925512043759227 ], [ -6392453.973825883120298, -7635053.491494299843907 ], [ -5816018.311362639069557, -8233241.443107101134956 ], [ -5837770.600512195378542, -8940190.840467683970928 ], [ -6196683.37147987447679, -9146837.587388470768929 ], [ -6849252.045966567471623, -9309979.756010141223669 ], [ -7588829.87705148383975, -9494874.213781371712685 ], [ -8197893.973239063285291, -9451369.635482259094715 ], [ -8937471.804323982447386, -9299103.611435364931822 ], [ -9840191.804030571132898, -9059828.430790243670344 ], [ -10688531.080863270908594, -8668287.226098228245974 ], [ -11700012.526317644864321, -8200613.009382766671479 ], [ -12548351.803150342777371, -8015718.551611537113786 ], [ -12852883.851244132965803, -8276746.021406213752925 ], [ -13048654.453590139746666, -8613906.503224337473512 ], [ -13320558.067959595471621, -8635658.792373893782496 ], [ -13603337.826903827488422, -8374631.322579217143357 ], [ -13853489.152123726904392, -7961337.828737645410001 ], [ -13929622.164147173985839, -7548044.334896074607968 ], [ -13342310.357109151780605, -7178255.419353615492582 ], [ -13646842.405202940106392, -7004237.106157164089382 ], [ -14190649.633941851556301, -6764961.925512043759227 ], [ -14462553.248311305418611, -6721457.347212931141257 ], [ -14636571.561507757753134, -6971608.672432829625905 ], [ -14962855.898751102387905, -7058617.829031055793166 ], [ -15702433.729836020618677, -6514810.60029214527458 ], [ -16028718.067079367116094, -5981879.516128013841808 ], [ -16093974.934528036043048, -5220549.395893540233374 ], [ -15963461.199630696326494, -4633237.588855517096817 ], [ -15528415.416639570146799, -3915412.046920156106353 ], [ -14712704.57353120483458, -3600003.854251588694751 ], [ -13886117.585848061367869, -3589127.709676810540259 ], [ -12983397.586141470819712, -3741393.733723704703152 ], [ -12222067.465906996279955, -3752269.878298482857645 ], [ -11493365.77939685806632, -3012692.047213565092534 ], [ -11210586.020452624186873, -2370999.517301651649177 ], [ -10906053.972358833998442, -1783687.710263628745452 ], [ -10732035.659162383526564, -1500907.951319395564497 ], [ -10307866.020746033638716, -1424774.939295948250219 ], [ -9611792.767960229888558, -1740183.131964515894651 ], [ -9318136.864441217854619, -1968582.168034858070314 ], [ -9013604.816347427666187, -1968582.168034858070314 ] ] ] ] } },
{ "type": "Feature", "properties": { "id": 2 }, "geometry": { "type": "MultiPolygon", "coordinates": [ [ [ [ -8928076.414626637473702, -1979835.905103383120149 ], [ -9144118.551244765520096, -1707554.698240180965513 ], [ -9242003.852417768910527, -1392146.505571613553911 ], [ -9187623.129543878138065, -783082.409384034108371 ], [ -9067985.539221316576004, -337160.481818127911538 ], [ -8622063.611655410379171, 706949.397360579110682 ], [ -8208770.117813840508461, 1620545.541641947580501 ], [ -7501820.720453256741166, 2360123.372726865112782 ], [ -6762242.889368338510394, 2773416.866568436846137 ], [ -6185807.226905094459653, 3012692.047213557176292 ], [ -5870399.034236526116729, 3045320.480937891639769 ], [ -5674628.431890519335866, 2914806.746040553320199 ], [ -5772513.733063522726297, 2501513.252198981586844 ], [ -6077045.781157312914729, 2196981.204105191864073 ], [ -6131426.504031203687191, 1892449.156011402606964 ], [ -6522967.708723219111562, 1555288.674193278420717 ], [ -6501215.419573662802577, 1250756.626099488697946 ], [ -6914508.913415234535933, 1022357.590029146522284 ], [ -7012394.214588237926364, 859215.421407473739237 ], [ -7088527.226611685007811, 456798.072140680160373 ], [ -7306050.118107249960303, 97885.301172999665141 ], [ -7403935.419280253350735, -217522.89149556774646 ], [ -7534449.154177591204643, -532931.084164135623723 ], [ -8012999.515467831864953, -761330.120234477799386 ], [ -8067380.238341722637415, -1022357.590029154438525 ], [ -8361036.141860734671354, -1348641.927272500935942 ], [ -8426293.009309403598309, -1740183.13196451542899 ], [ -8618879.988668920472264, -2020519.64536097785458 ], [ -8928076.414626637473702, -1979835.905103383120149 ] ] ] ] } },
{ "type": "Feature", "properties": { "id": 3 }, "geometry": { "type": "MultiPolygon", "coordinates": [ [ [ [ -7522439.521650032140315, -4548793.949957701377571 ], [ -7668573.173829677514732, -3953747.059772957116365 ], [ -7746776.600049394182861, -3606176.276574215851724 ], [ -7849320.333164004608989, -3150426.351620392873883 ], [ -7893361.925145272165537, -2610274.697946770582348 ], [ -8002123.370893053710461, -2044715.180058304220438 ], [ -8002123.370893053710461, -1620545.541641954798251 ], [ -7849857.346846159547567, -1239880.481524717528373 ], [ -7773724.334822712466121, -826586.987683146027848 ], [ -7572902.296376343816519, -551283.720213540364057 ], [ -7251669.395233357325196, -652568.674486694857478 ], [ -7208164.816934244707227, -1076738.312903044745326 ], [ -7186412.527784688398242, -1413898.794721168931574 ], [ -6979765.780863903462887, -1500907.951319394633174 ], [ -6696986.02191966958344, -1435651.083870725240558 ], [ -6599100.720746666193008, -1707554.69824018003419 ], [ -6838375.901391787454486, -2022962.890908747911453 ], [ -7110279.515761241316795, -2229609.637829533778131 ], [ -6892756.624265678226948, -2936559.035190116614103 ], [ -6849252.045966565608978, -3545623.131377696059644 ], [ -6849252.045966565608978, -3948040.480644488707185 ], [ -7055898.792887350544333, -4415714.697359951213002 ], [ -7306050.118107249960303, -4589733.010556402616203 ], [ -7522439.521650032140315, -4548793.949957701377571 ] ] ] ] } },
{ "type": "Feature", "properties": { "id": 4 }, "geometry": { "type": "MultiPolygon", "coordinates": [ [ [ [ 2719.03614370059222, -3317224.095307352952659 ], [ 252870.361363599076867, -3665260.721700254827738 ], [ 546526.264882610179484, -3948040.480644488707185 ], [ 579154.698606944642961, -4383086.263635615818202 ], [ 1003324.337023294530809, -4644113.733430293388665 ], [ 1351360.96341619733721, -4937769.636949304491282 ], [ 1786406.746407324448228, -5361939.275365654379129 ], [ 1808159.035556881688535, -5709975.901758556254208 ], [ 1568883.854911760427058, -5971003.371553232893348 ], [ 1351360.96341619733721, -6014507.949852345511317 ], [ 1155590.361070189625025, -5851365.781230673193932 ], [ 807553.734677286818624, -5709975.901758556254208 ], [ 492145.542008719407022, -5655595.178884665481746 ], [ 176737.349340151064098, -5786108.913782003335655 ], [ -40785.54215541202575, -5981879.51612801104784 ], [ -367069.879398758523166, -6047136.383576680906117 ], [ -671601.927492547780275, -6047136.383576680906117 ], [ -965257.831011558882892, -5873118.070380229502916 ], [ -1074019.276759341359138, -5427196.142814323306084 ], [ -1008762.409310672432184, -4948645.781524082645774 ], [ -823867.951539442874491, -4383086.263635615818202 ], [ -715106.505791660398245, -3839279.034896706230938 ], [ -464955.180571761913598, -3436861.685629913117737 ], [ 2719.03614370059222, -3317224.095307352952659 ] ] ] ] } },
{ "type": "Feature", "properties": { "id": 5 }, "geometry": { "type": "MultiPolygon", "coordinates": [ [ [ [ 8678.855224921604531, -3325516.017507312819362 ], [ -856496.385263777337968, -2947435.179764893837273 ], [ -595468.915469100698829, -3012692.047213563229889 ], [ -1204533.011656679213047, -2719036.143694551661611 ], [ -1606950.36092347279191, -2784293.011143221054226 ], [ -2085500.72221371345222, -2849549.878591890446842 ], [ -2346528.192008390557021, -2653779.276245882734656 ], [ -2411785.059457059483975, -2283990.360703424084932 ], [ -2205138.312536274082959, -1696678.553665401414037 ], [ -2085500.72221371345222, -1098490.602052600355819 ], [ -1976739.276465931907296, -804834.698533589020371 ], [ -1726587.951246033422649, -500302.650439799530432 ], [ -1422055.903152243234217, -119637.590322562493384 ], [ -997886.264735894277692, 217522.891495561576448 ], [ -584592.770894322544336, 184894.457771226996556 ], [ -399698.313123092986643, 21752.289149553980678 ], [ -138670.843328416347504, -391541.204692017519847 ], [ 372507.951686158776283, -783082.409384032711387 ], [ 600906.987756500951946, -1294261.204398607835174 ], [ 1090333.493621519766748, -1979458.312609634362161 ], [ 1503626.987463091500103, -2490637.107624209951609 ], [ 1590636.144061317667365, -2893054.456891003064811 ], [ 1568883.854911760427058, -3110577.348386567085981 ], [ 1427493.975439644418657, -3295471.806157796178013 ], [ 1351360.96341619733721, -3676136.86627503298223 ], [ 1253475.662243193015456, -3904535.902345375157893 ], [ 959819.758724181912839, -3926288.191494931466877 ], [ 496782.417880813009106, -3900138.998346461448818 ], [ 204225.351565524964826, -3597580.708068151958287 ], [ 8678.855224921604531, -3325516.017507312819362 ] ] ] ] } },
{ "type": "Feature", "properties": { "id": 6 }, "geometry": { "type": "MultiPolygon", "coordinates": [ [ [ [ 1796872.470432111993432, -5722288.5182583052665 ], [ 1775394.693585697095841, -5351202.523864567279816 ], [ 1378403.219712345628068, -4964135.836838048882782 ], [ 1101401.971614334499463, -4726866.73761648312211 ], [ 765449.518340592039749, -4497729.229625552892685 ], [ 624059.638868475449272, -4410720.073027326725423 ], [ 550521.169446745538153, -4001305.874832960776985 ], [ 536386.332378407940269, -3902375.557514123618603 ], [ 764671.527130604488775, -3915267.549420518334955 ], [ 1098835.582081748638302, -3915990.723098074551672 ], [ 1220224.038788789417595, -3906998.985564219765365 ], [ 1347423.049001191509888, -3685325.333243379835039 ], [ 1387754.216416416456923, -3494170.601273936219513 ], [ 1473800.704524398548529, -3234916.852739271707833 ], [ 1573191.238901771837845, -3067503.508486455772072 ], [ 1589343.928864314220846, -2905976.608861036598682 ], [ 2036558.071627222932875, -3295471.806157796178013 ], [ 2482479.999193129129708, -3447737.830204691272229 ], [ 2841392.770160810090601, -3523870.842228138353676 ], [ 3058915.661656373180449, -3774022.167448037303984 ], [ 2928401.92675903532654, -4143811.082990495488048 ], [ 2895773.493034700863063, -4524476.143107732757926 ], [ 2536860.72206701990217, -4807255.90205196570605 ], [ 2656498.312389581464231, -5394567.709089988842607 ], [ 2634746.023240025155246, -5590338.311435996554792 ], [ 2406346.987169682048261, -5840489.636655895039439 ], [ 2199700.240248897112906, -5916622.648679342120886 ], [ 1949548.915028997696936, -5916622.648679342120886 ], [ 1796872.470432111993432, -5722288.5182583052665 ] ] ] ] } },
{ "type": "Feature", "properties": { "id": 7 }, "geometry": { "type": "MultiPolygon", "coordinates": [ [ [ [ -6681873.418764064088464, -1477630.537080739391968 ], [ -6979765.780863904394209, -1250756.626099495217204 ], [ -7066774.937462129630148, -957100.722580484114587 ], [ -7077651.082036907784641, -467674.216715464368463 ], [ -6947137.347139569930732, -32628.433724336791784 ], [ -6947137.347139569930732, 239275.180645118001848 ], [ -7100944.584420363418758, 436309.431756361154839 ], [ -7032152.288230429403484, 754779.889298744732514 ], [ -6962491.904186313971877, 942385.938744014012627 ], [ -6890610.244540574960411, 1035564.74914408987388 ], [ -6600318.156558484770358, 1195989.324081560829654 ], [ -6507785.273403097875416, 1342734.579711574362591 ], [ -6520814.563350547105074, 1525144.638975874288008 ], [ -6131426.504031203687191, 1892449.156011402606964 ], [ -6083902.188738445751369, 2158585.321650846861303 ], [ -5772513.733063522726297, 2501513.252198981586844 ], [ -5691124.512153772637248, 2845156.629373482894152 ], [ -5747414.937890959903598, 2963331.083374180365354 ], [ -5622966.745160322636366, 3230214.93870912399143 ], [ -4861636.624925849027932, 3328100.239882127847522 ], [ -3447737.830204683355987, 3241091.083283902145922 ], [ -2599398.553371984511614, 3262843.372433458454907 ], [ -2044715.180058294907212, 3273719.517008237075061 ], [ -1620545.54164194688201, 3512994.697653357405216 ], [ -1141995.1803517062217, 3676136.866275030188262 ], [ -674320.963636241853237, 3371604.818181240465492 ], [ -500302.650439791381359, 2947435.179764891043305 ], [ -369788.915542453527451, 2273114.21612864267081 ], [ -337160.481818119063973, 1751059.276539289392531 ], [ -445921.927565900608897, 1207252.047800378873944 ], [ -641692.52991190738976, 717825.541935360059142 ], [ -870091.565982250496745, 380665.060117236338556 ], [ -1337765.782697713002563, 141389.879472116008401 ], [ -1696678.553665393963456, -206646.746920786798 ], [ -1881573.011436622589827, -456798.072140685282648 ], [ -2012086.746333960443735, -663444.819061471149325 ], [ -2061557.460634737974033, -1033843.795789366355166 ], [ -2195203.372780466917902, -1647003.854886365123093 ], [ -2384653.609087004791945, -2206879.92280958360061 ], [ -2719036.14369454421103, -2751664.577418886125088 ], [ -3056196.625512668862939, -3023568.19178834091872 ], [ -3578251.565102022141218, -2947435.179764893837273 ], [ -4045925.781817484647036, -2827797.589442334137857 ], [ -4480971.564808611758053, -2708159.999119773507118 ], [ -4905141.203224961645901, -2512389.396773765794933 ], [ -5329310.841641311533749, -2142600.481231307610869 ], [ -6253783.130497458390892, -1577040.963342840783298 ], [ -6406049.154544353485107, -1500907.951319393701851 ], [ -6681873.418764064088464, -1477630.537080739391968 ] ] ] ] } },
{ "type": "Feature", "properties": { "id": 8 }, "geometry": { "type": "MultiPolygon", "coordinates": [ [ [ [ 3328100.239882133901119, 12377052.5260975882411 ], [ 2806045.30029278062284, 12681584.574191376566887 ], [ 2001210.601759193465114, 12681584.574191376566887 ], [ 913596.144281373359263, 12703336.863340932875872 ], [ -435045.782991123385727, 13921465.055716093629599 ], [ -717825.541935356333852, 14639290.597651453688741 ], [ -609064.096187574788928, 15052584.091493025422096 ], [ 152266.024046899750829, 15661648.187680603936315 ], [ 1131119.035776937380433, 16074941.68152217566967 ], [ 2327494.93900253996253, 16074941.68152217566967 ], [ 4241696.384163502603769, 15422373.007035484537482 ], [ 5590338.31143599934876, 15009079.513193912804127 ], [ 7461035.178297849372029, 13921465.055716093629599 ], [ 8983695.418766798451543, 12529318.550144482403994 ], [ 10136566.743693286553025, 10767383.129030413925648 ], [ 11637474.695012679323554, 9048952.286215458065271 ], [ 12572823.128443604335189, 7809071.80469074472785 ], [ 13268896.381229409947991, 6851971.082110261544585 ], [ 13725694.453370092436671, 5699099.757183773443103 ], [ 13486419.272724973037839, 4850760.480351073667407 ], [ 13051373.489733843132854, 4415714.697359945625067 ], [ 12377052.526097597554326, 4241696.384163495153189 ], [ 11376447.225218003615737, 4741999.034603292122483 ], [ 10049557.587095061317086, 6025384.094427119940519 ], [ 9288227.466860586777329, 6634448.190614698454738 ], [ 8439888.190027887001634, 7178255.419353608042002 ], [ 7526292.045746518298984, 8135356.141934089362621 ], [ 6960732.527858052402735, 8570401.924925217404962 ], [ 6656200.479764262214303, 8961943.129617232829332 ], [ 6329916.142520917579532, 9919043.852197714149952 ], [ 4698494.456304186955094, 11463456.38181621953845 ], [ 3328100.239882133901119, 12377052.5260975882411 ] ] ] ] } },
{ "type": "Feature", "properties": { "id": 9 }, "geometry": { "type": "MultiPolygon", "coordinates": [ [ [ [ 3363238.553123724646866, 12353626.983936527743936 ], [ 4392289.155198892578483, 11667593.249219749122858 ], [ 5357579.028393807820976, 10839522.986904710531235 ], [ 6286476.825168062932789, 9960166.405958415940404 ], [ 6640648.750594403594732, 9007561.535182151943445 ], [ 7350737.325509764254093, 8270398.234423900954425 ], [ 8269021.019259587861598, 7357259.12206325493753 ], [ 8952607.687722207978368, 6849589.074677760712802 ], [ 10106855.93164605088532, 5969964.384123702533543 ], [ 10702126.261581752449274, 4241696.384163493290544 ], [ 10897896.863927759230137, 2588522.408797208219767 ], [ 10897896.863927759230137, 1979458.312609627842903 ], [ 10441098.791787076741457, 1348641.9272724930197 ], [ 9679768.6715526022017, 935348.433430921286345 ], [ 9527502.647505708038807, 1435651.083870718255639 ], [ 9636264.093253489583731, 2327494.939002530649304 ], [ 9440493.490907482802868, 2697283.85454498976469 ], [ 8918438.551318127661943, 2936559.035190109163523 ], [ 8244117.587681879289448, 3197586.504984786733985 ], [ 7765567.226391638629138, 3480366.263929020613432 ], [ 6938980.238708495162427, 3458613.974779464304447 ], [ 6395173.009969585575163, 3480366.263929020613432 ], [ 6047136.383576682768762, 3915412.046920148655772 ], [ 6221154.69677313324064, 4328705.540761720389128 ], [ 6134145.540174908004701, 5177044.817594418302178 ], [ 5438072.287389104254544, 6416925.299119133502245 ], [ 4654989.878005073405802, 6764961.925512036308646 ], [ 3436861.68562991451472, 7548044.334896067157388 ], [ 2262238.071553869172931, 8091851.563634976744652 ], [ 1522660.240468951873481, 8331126.744280097074807 ], [ 870091.565982259809971, 9462245.780057029798627 ], [ 717825.541935364715755, 10397594.213487954810262 ], [ 978853.011730041354895, 11419951.803517106920481 ], [ 1609669.39706717710942, 12181281.923751579597592 ], [ 2240485.782404312863946, 12377052.5260975882411 ], [ 3363238.553123724646866, 12353626.983936527743936 ] ] ] ] } },
{ "type": "Feature", "properties": { "id": 10 }, "geometry": { "type": "MultiPolygon", "coordinates": [ [ [ [ 2645323.737018544226885, -5495138.88742932677269 ], [ 2536860.72206701990217, -4807255.90205196570605 ], [ 2601881.888365556485951, -4756027.104362210258842 ], [ 2887385.305044663138688, -4531085.018493822775781 ], [ 2928064.801532142795622, -4147744.210637575015426 ], [ 3010213.012107314076275, -3718014.120466619264334 ], [ 2794951.728398956358433, -3514019.712157442234457 ], [ 3425985.541055139154196, -3328100.239882132038474 ], [ 3763146.022873263806105, -3273719.517008241266012 ], [ 4165563.372140057384968, -3360728.673606466501951 ], [ 4513599.998532959260046, -3175834.21583523740992 ], [ 4350457.829911286011338, -2958311.324339673388749 ], [ 4230820.239588726311922, -2740788.432844109367579 ], [ 4470095.420233846642077, -2501513.252198988571763 ], [ 4807255.902051970362663, -2175228.914955643005669 ], [ 4992150.359823199920356, -2001210.601759191602468 ], [ 5242301.685043098405004, -1968582.168034857138991 ], [ 5503329.154837775975466, -2186105.059530421160161 ], [ 5470700.721113440580666, -2642903.131671105511487 ], [ 5459824.576538662426174, -3034444.336363120470196 ], [ 5807861.202931565232575, -3262843.372433462645859 ], [ 6308163.853371362201869, -3241091.083283906336874 ], [ 6732333.491787712089717, -3197586.504984793718904 ], [ 6938980.238708497956395, -3262843.372433462645859 ], [ 6960732.52785805426538, -3436861.685629914049059 ], [ 7254388.431377065367997, -4198191.805864388123155 ], [ 7287016.865101399831474, -4861636.624925858341157 ], [ 7102122.407330171205103, -5318434.697066542692482 ], [ 6830218.792960715480149, -5699099.757183779962361 ], [ 6525686.74486692622304, -6145021.684749686159194 ], [ 5971003.371553238481283, -6308163.853371358476579 ], [ 5503329.154837775975466, -6319039.997946136631072 ], [ 5003026.504397978074849, -6232030.841347911395133 ], [ 4470095.420233846642077, -6058012.528151459991932 ], [ 4056801.926392274908721, -5851365.781230674125254 ], [ 3589127.709676812402904, -5612090.600585553795099 ], [ 3012692.04721356742084, -5361939.275365655310452 ], [ 2645323.737018544226885, -5495138.88742932677269 ] ] ] ] } },
{ "type": "Feature", "properties": { "id": 11 }, "geometry": { "type": "MultiPolygon", "coordinates": [ [ [ [ -157278.742165263654897, -362078.698200342594646 ], [ -10876.144574770703912, 21752.289149553515017 ], [ -43504.578299105167389, 946224.578005700372159 ], [ -108761.445747774560004, 1957706.023460072930902 ], [ -250151.325219891034067, 3197586.504984787665308 ], [ -76133.012023440096527, 3697889.155424585100263 ], [ 337160.481818131636828, 4198191.805864382535219 ], [ 1261632.770674278493971, 4676742.167154623195529 ], [ 2033839.03548353118822, 4622361.444280732423067 ], [ 2479760.963049437385052, 4644113.733430288732052 ], [ 3023568.191788346972317, 4567980.721406841650605 ], [ 2827797.589442339260131, 4187315.661289604380727 ], [ 2827797.589442339260131, 3937164.33606970589608 ], [ 3088825.059237015899271, 3774022.167448032647371 ], [ 3349852.52903169253841, 3687013.010849806945771 ], [ 3600003.85425159195438, 3491242.408503799699247 ], [ 3600003.85425159195438, 3121453.492961340583861 ], [ 3491242.408503809478134, 2653779.276245878078043 ], [ 3567375.420527256559581, 2273114.216128640808165 ], [ 3763146.022873264271766, 2186105.059530415106565 ], [ 4035049.637242719996721, 2088219.758357411250472 ], [ 4187315.661289614159614, 1740183.131964508909732 ], [ 4165563.372140057850629, 1065862.168328260537237 ], [ 4415714.697359956800938, 793958.553958805743605 ], [ 4448343.131084291264415, 358912.770967677701265 ], [ 4578856.865981629118323, -174018.313196454197168 ], [ 4992150.359823200851679, -554683.373313691001385 ], [ 5155292.52844487503171, -891843.855131815187633 ], [ 5307558.552491769194603, -1218128.192375161219388 ], [ 5644719.034309893846512, -1522660.240468950942159 ], [ 5764356.624632453545928, -1946829.878885300830007 ], [ 5500513.503196589648724, -2225524.182507027871907 ], [ 5266906.733425384387374, -1989086.375020095612854 ], [ 5112576.369548023678362, -1985502.861360301729292 ], [ 4886981.035219381563365, -2100193.495503961574286 ], [ 4564123.5180649086833, -2410518.318814089521766 ], [ 4248042.541458576917648, -2772101.708971111103892 ], [ 4513599.998532959260046, -3175834.21583523740992 ], [ 4129337.386058120522648, -3352896.027967128902674 ], [ 3713905.546826804056764, -3281661.529273799154907 ], [ 3176337.048849704209715, -3401653.376012493856251 ], [ 2751743.424688437022269, -3504854.314400665462017 ], [ 2405447.401956453453749, -3421434.016514118760824 ], [ 1982541.674662579316646, -3248426.945136578753591 ], [ 1617644.969049500534311, -2930625.022622129414231 ], [ 1539632.870130745694041, -2657164.314962109550834 ], [ 1184181.550873528933153, -2095533.541316066868603 ], [ 619095.134933918248862, -1319724.610446991864592 ], [ 374296.359232747927308, -787085.035797827527858 ], [ -157278.742165263654897, -362078.698200342594646 ] ] ] ] } },
{ "type": "Feature", "properties": { "id": 12 }, "geometry": { "type": "MultiPolygon", "coordinates": [ [ [ [ 6964123.473626172170043, -3445653.026510218624026 ], [ 6941155.467623453587294, -3280245.203753106761724 ], [ 6804685.879248640500009, -3220434.627340876031667 ], [ 6505208.174665617756546, -3220881.409305008593947 ], [ 6090107.415160806849599, -3250571.797988713253289 ], [ 5807861.202931562438607, -3262843.372433462180197 ], [ 5611630.313238363713026, -3134066.851072299294174 ], [ 5463170.437514249235392, -2913993.34124198416248 ], [ 5481466.447976799681783, -2492182.955584077630192 ], [ 5473375.18289412278682, -2161143.416244043502957 ], [ 5749711.584647779352963, -1894906.555303273256868 ], [ 5654846.698776906356215, -1558567.41448836075142 ], [ 5542121.77594575099647, -1429991.749043273972347 ], [ 5262267.746069060638547, -1121076.464326500194147 ], [ 5049236.363177327439189, -672661.113578884513117 ], [ 4890414.194422706961632, -460979.010444815154187 ], [ 4571318.351628029718995, -143236.046252591331722 ], [ 4480907.461795414797962, 225941.753897256974597 ], [ 4420520.750058942474425, 729877.851305669406429 ], [ 4367808.76766012981534, 846030.216676008421928 ], [ 4167383.600078248418868, 1122289.234412167686969 ], [ 4187315.661289614159614, 1740183.131964508909732 ], [ 4009630.885757753159851, 2097370.508891999255866 ], [ 3567375.420527256559581, 2273114.216128640808165 ], [ 3517079.529787146020681, 2764878.89776422502473 ], [ 3587615.42892783228308, 3068183.264069173950702 ], [ 3579768.870148221496493, 3507078.483019480947405 ], [ 3222601.637506784871221, 3729429.974691442679614 ], [ 2908940.960202479735017, 3886449.729344618041068 ], [ 2827797.589442339260131, 4165563.372140048071742 ], [ 2947610.714699934236705, 4420285.627068261615932 ], [ 2974926.352575919125229, 4574790.578896581195295 ], [ 3567375.420527253765613, 4709370.600878958590329 ], [ 4426590.84193473123014, 4796379.757477183826268 ], [ 5285806.263342209160328, 4687618.311729402281344 ], [ 5742604.335482893511653, 4513599.998532950878143 ], [ 6014507.949852348305285, 4361333.974486055783927 ], [ 6191264.492388802580535, 4257716.305348934605718 ], [ 6065357.124605488032103, 3958686.306863561272621 ], [ 6395607.360791262239218, 3480348.889896153472364 ], [ 7025929.181357518769801, 3460902.104849175550044 ], [ 7776926.385044009424746, 3473654.033816256094724 ], [ 8170099.844205134548247, 3241324.262493772432208 ], [ 8923307.069406120106578, 2934327.631066445726901 ], [ 9475150.178620085120201, 2631821.222198962233961 ], [ 9633883.099441172555089, 2331992.371759130153805 ], [ 9583668.435139819979668, 1896210.542470442596823 ], [ 9539093.832727270200849, 1397565.760999870486557 ], [ 9679768.6715526022017, 935348.433430921286345 ], [ 10060433.731669839471579, 87009.156598223373294 ], [ 10212699.755716733634472, -837463.132257923483849 ], [ 10125690.599118508398533, -1555288.674193285405636 ], [ 9908167.707622945308685, -2066467.469207860529423 ], [ 9396988.912608370184898, -2664655.420820661820471 ], [ 8831429.394719902426004, -3012692.04721356369555 ], [ 8265869.876831436529756, -3360728.673606466501951 ], [ 7515415.901171740144491, -3436861.685629913583398 ], [ 6964123.473626172170043, -3445653.026510218624026 ] ] ] ] } },
{ "type": "Feature", "properties": { "id": 13 }, "geometry": { "type": "MultiPolygon", "coordinates": [ [ [ [ 4443992.67325437720865, -6044961.154661725275218 ], [ 4364053.01062975730747, -6308163.853371358476579 ], [ 3820245.781890846788883, -6514810.600292144343257 ], [ 3483085.300072723068297, -6808466.503811155445874 ], [ 3254686.264002380892634, -7123874.696479722857475 ], [ 3004534.938782482407987, -7189131.563928392715752 ], [ 2482479.999193128198385, -7167379.274778836406767 ], [ 1949548.915028996765614, -7200007.708503170870245 ], [ 1460122.409163977950811, -7384902.166274399496615 ], [ 764049.156378173269331, -7819947.949265527538955 ], [ 720544.578079060651362, -8113603.852784539572895 ], [ -258308.433650977909565, -8407259.756303550675511 ], [ -1063143.13218456460163, -8798800.960995566099882 ], [ -1487312.770600914489478, -8613906.503224335610867 ], [ -1791844.818694703746587, -8363755.178004438057542 ], [ -1900606.264442485757172, -8298498.310555769130588 ], [ -2324775.90285883564502, -8200613.009382764808834 ], [ -2324775.90285883564502, -7950461.684162866324186 ], [ -2161633.734237162861973, -7515415.901171738281846 ], [ -2009367.710190267767757, -7123874.696479722857475 ], [ -1519941.204325248952955, -6862847.226685046218336 ], [ -1095771.565908899065107, -6503934.455717366188765 ], [ -554683.373313683317974, -6047136.383576680906117 ], [ -304845.783033441693988, -6034691.564303616993129 ], [ -93597.590331019164296, -5992441.925763132981956 ], [ -826.226452498958679, -5945916.131995389238 ], [ 250151.325219903606921, -5960127.226978455670178 ], [ 717825.541935366112739, -5851365.781230673193932 ], [ 930373.030328092863783, -5759871.240616695955396 ], [ 1012641.537153573590331, -5793292.821514547802508 ], [ 1210684.273752262583002, -5897277.375132400542498 ], [ 1417768.1923102743458, -6001226.504073530435562 ], [ 1518163.373000534716994, -5981147.467935478314757 ], [ 1657031.928536212537438, -5874841.836690194904804 ], [ 1795490.808477736311033, -5698416.615504036657512 ], [ 2001210.601759193930775, -5916622.648679342120886 ], [ 2044715.180058306548744, -5916622.648679342120886 ], [ 2239139.527923411689699, -5902092.384799257852137 ], [ 2451026.076957669109106, -5791555.395459529012442 ], [ 2682494.924915684387088, -5481661.4380401391536 ], [ 3054482.76929748011753, -5380074.871741692535579 ], [ 3450285.806555047165602, -5551838.453947806730866 ], [ 3948553.286432415246964, -5795982.75613493192941 ], [ 4443992.67325437720865, -6044961.154661725275218 ] ] ] ] } },
{ "type": "Feature", "properties": { "id": 14 }, "geometry": { "type": "MultiPolygon", "coordinates": [ [ [ [ -2324775.90285883564502, -8200613.009382764808834 ], [ -1960974.977026086533442, -8284567.069190322421491 ], [ -1693735.864891449455172, -8444344.675771396607161 ], [ -1432475.369833275908604, -8637809.985610229894519 ], [ -1019169.58840762602631, -8777408.426185162737966 ], [ -511928.818569861003198, -8530642.646264089271426 ], [ 166759.235051362717059, -8279739.455692849121988 ], [ 721887.672442657407373, -8104537.965830261819065 ], [ 764049.156378173269331, -7819947.949265528470278 ], [ 1287081.726940540131181, -7493052.592664048075676 ], [ 1873415.903005549684167, -7123874.696479722857475 ], [ 2430955.956616264302284, -7170533.807997828349471 ], [ 2916319.416061577387154, -7185455.917148355394602 ], [ 3267869.983713149558753, -7105668.607355328276753 ], [ 3477027.915340748149902, -6816831.463679120875895 ], [ 3729072.799529378302395, -6594219.326865036040545 ], [ 3960901.968282595742494, -6461361.249463279731572 ], [ 4309691.295348622836173, -6328821.305178189650178 ], [ 4492208.951294851489365, -6065233.272987706586719 ], [ 5102054.299657046794891, -6249253.06661035772413 ], [ 5605143.09580110013485, -6316672.231877221725881 ], [ 6077141.034015861339867, -6276946.893823528662324 ], [ 6502869.3555719088763, -6151732.681601162068546 ], [ 6660595.059884539805353, -5947477.366331037133932 ], [ 6886987.85839325748384, -5619623.065578221343458 ], [ 7093965.298899085260928, -6308163.853371358476579 ], [ 6887318.551978300325572, -7047741.684456275776029 ], [ 6811185.539954851381481, -7178255.419353613629937 ], [ 5908465.540248260833323, -7591548.913195185363293 ], [ 4875231.805644332431257, -8157108.431083652190864 ], [ 3852874.215615182183683, -8603030.358649559319019 ], [ 3276438.553151937201619, -8831429.394719900563359 ], [ 3080667.950805929489434, -9299103.611435363069177 ], [ 2787012.047286918386817, -10027805.297945503145456 ], [ 2471603.854618350043893, -10234452.044866288080812 ], [ 2221452.529398451559246, -10267080.478590622544289 ], [ 1840787.46928121522069, -9962548.430496834218502 ], [ 1655893.011509985662997, -9799406.261875160038471 ], [ 1307856.385117082856596, -9527502.647505704313517 ], [ 764049.156378173269331, -9538378.792080484330654 ], [ 492145.542008718475699, -9571007.225804816931486 ], [ -236556.14450142160058, -9571007.225804816931486 ], [ -519335.903445654548705, -9571007.225804816931486 ], [ -1074019.276759342756122, -9516626.502930928021669 ], [ -1432932.047727023251355, -9462245.780057035386562 ], [ -1704835.662096478510648, -9309979.756010141223669 ], [ -2074624.577638937160373, -9027199.997065909206867 ], [ -2303023.613709279336035, -8537773.491200890392065 ], [ -2324775.90285883564502, -8200613.009382764808834 ] ] ] ] } },
{ "type": "Feature", "properties": { "id": 15 }, "geometry": { "type": "MultiPolygon", "coordinates": [ [ [ [ 2221452.529398451559246, -10267080.478590622544289 ], [ 2466140.512478325050324, -10235164.65471063926816 ], [ 2780386.376018298789859, -10032146.254983564838767 ], [ 2955802.286579634994268, -9608955.444885797798634 ], [ 3271528.521938012912869, -8843158.913730941712856 ], [ 3975018.583008129615337, -8549754.623935613781214 ], [ 4670264.516628789715469, -8246509.057143623009324 ], [ 5458688.650449130684137, -7837742.579190499149263 ], [ 6029823.044108972884715, -7535987.646367389708757 ], [ 6568443.449550131335855, -7289390.35230999160558 ], [ 6837713.7526935916394, -7132778.483230059966445 ], [ 7893361.92514528427273, -6743209.636362486518919 ], [ 8643815.900804979726672, -6395173.009969583712518 ], [ 9394269.876464676111937, -6286411.564221801236272 ], [ 10155599.996699150651693, -6232030.84134791046381 ], [ 10655902.647138947620988, -6797590.359236377291381 ], [ 10394875.177344270050526, -7645929.636069077067077 ], [ 9959829.394353142008185, -8178860.720233208499849 ], [ 9611792.767960239201784, -8809677.105570344254375 ], [ 9242003.852417781949043, -9407865.057183146476746 ], [ 8306655.418986856006086, -10114814.454543728381395 ], [ 7567077.587901937775314, -10702126.261581752449274 ], [ 7045022.648312584497035, -11115419.755423322319984 ], [ 6675233.732770125381649, -11702731.562461346387863 ], [ 6120550.359456437639892, -12246538.791200255975127 ], [ 5631123.85359141882509, -12540194.694719266146421 ], [ 5272211.082623737864196, -12768593.730789609253407 ], [ 4869793.733356944285333, -12877355.17653739079833 ], [ 4445624.094940595328808, -12996992.766859952360392 ], [ 4304234.215468478389084, -12996992.766859952360392 ], [ 4086711.323972914367914, -12594575.417593158781528 ], [ 3771303.131304346490651, -12474937.827270597219467 ], [ 3510275.66150966938585, -12453185.538121040910482 ], [ 3086106.023093319963664, -12224786.502050699666142 ], [ 2933839.999046425335109, -11811493.008209127932787 ], [ 2596679.5172283006832, -11724483.851610902696848 ], [ 2368280.481157958507538, -11398199.514367556199431 ], [ 2574927.228078744374216, -11039286.743399875238538 ], [ 2661936.384676970075816, -10843516.14105386659503 ], [ 2237766.746260620187968, -10451974.936361853033304 ], [ 2221452.529398451559246, -10267080.478590622544289 ] ] ] ] } }
]
}
