{
"type": "FeatureCollection",
"name": "map016",
"crs": { "type": "name", "properties": { "name": "urn:ogc:def:crs:ESRI::102016" } },
"features": [
{ "type": "Feature", "properties": { "id": 1 }, "geometry": { "type": "MultiPolygon", "coordinates": [ [ [ [ -1916374.435940090566874, -6303341.348898462951183 ], [ -921702.58436457067728, -5999882.139943218789995 ], [ -163054.561976462602615, -5898729.070291470736265 ], [ 1522829.932219333946705, -5814434.845581681467593 ], [ 2416348.714143106713891, -5780717.155697764828801 ], [ 3613326.705022122710943, -5865011.380407555028796 ], [ 4456268.952120020985603, -5966164.450059303082526 ], [ 6074718.066547986119986, -6084176.36465300898999 ], [ 6647918.794574558734894, -5797576.000639723613858 ], [ 7086248.763065464794636, -5460399.101800563745201 ], [ 7743743.715801825746894, -5291810.652380984276533 ], [ 8384379.823596227914095, -5392963.722032732330263 ], [ 8923862.861738882958889, -6101035.209594966843724 ], [ 9497063.589765455573797, -7483460.494835520163178 ], [ 9598216.659417200833559, -8916462.314901947975159 ], [ 9210463.225752167403698, -10585487.964155785739422 ], [ 8485532.893247976899147, -11833042.489860676229 ], [ 7693167.180975951254368, -12996302.790855776518583 ], [ 6900801.468703927472234, -13771809.658185843378305 ], [ 6108435.7564319036901, -14294433.851386539638042 ], [ 5332928.889101836830378, -14446163.455864161252975 ], [ 4034797.828571071848273, -14311292.6963284984231 ], [ 2652372.543330518528819, -13923539.262663464993238 ], [ 1337382.637857796624303, -13266044.30992710404098 ], [ 106686.957094864919782, -12625408.202132701873779 ], [ -1680350.606752679683268, -11748748.265150886029005 ], [ -2675022.458328199572861, -10888947.173111030831933 ], [ -3180787.806586938910186, -10113440.305780963972211 ], [ -3281940.876238686963916, -9017615.384553696960211 ], [ -3130211.271761065348983, -7803778.548732722178102 ], [ -2860469.752689737826586, -6994553.99151873961091 ], [ -1916374.435940090566874, -6303341.348898462951183 ] ] ] ] } },
{ "type": "Feature", "properties": { "id": 5 }, "geometry": { "type": "MultiPolygon", "coordinates": [ [ [ [ -837408.359654780477285, -5527834.481568396091461 ], [ -1376891.397797435522079, -4937774.908599866554141 ], [ -1511762.157333100214601, -4212844.576095674186945 ], [ -1376891.397797435522079, -3572208.468301271554083 ], [ -1140867.568610024638474, -3015866.585216658189893 ], [ -550807.995641495101154, -2341512.7875383393839 ], [ 157263.491920739412308, -1717735.524685894604772 ], [ 1084499.963728427886963, -841075.587704080156982 ], [ 1826289.141174579039216, -503898.688864920870401 ], [ 2905255.217459889128804, -706204.828168416512199 ], [ 4186527.433048693463206, -1127675.951717365765944 ], [ 5282352.354275962337852, -1768312.059511768631637 ], [ 6293883.050793441012502, -2526960.081899877171963 ], [ 6799648.399052180349827, -2880995.825680994428694 ], [ 7271696.057427002117038, -3336184.639113859739155 ], [ 7541437.576498329639435, -3605926.158185187261552 ], [ 7777461.405685741454363, -3892526.522198473103344 ], [ 7625731.80120811983943, -4819762.994006161578 ], [ 6715354.174342390149832, -5359246.032148816622794 ], [ 5771258.85759274289012, -5628987.551220144145191 ], [ 4793445.850959181785583, -5746999.465813849121332 ], [ 3916785.913977365940809, -5746999.465813849121332 ], [ 2654751.949989322572947, -5797506.115968625061214 ], [ 1260487.806439241394401, -5827551.951870686374605 ], [ 190981.181804655119777, -5713281.775929933413863 ], [ -837408.359654780477285, -5527834.481568396091461 ] ] ] ] } },
{ "type": "Feature", "properties": { "id": 2 }, "geometry": { "type": "MultiPolygon", "coordinates": [ [ [ [ -1191011.152554121334106, -3134062.17594202933833 ], [ -1528621.002275062724948, -3420478.863823650404811 ], [ -1966950.970765970647335, -3723938.072778893634677 ], [ -3298799.721180649474263, -4179126.886211758479476 ], [ -4462060.022175749763846, -3976820.746908262372017 ], [ -5793908.772590429522097, -3858808.832314556464553 ], [ -7125757.523005109280348, -3521631.933475397527218 ], [ -7715817.095973637886345, -3167596.189694279804826 ], [ -8238441.289174335077405, -2695548.531319458037615 ], [ -8862218.552026780322194, -1920041.663989391177893 ], [ -9334266.210401602089405, -1127675.951717366464436 ], [ -9418560.4351113922894, -284733.704619467258453 ], [ -9199395.450865939259529, 844808.906491716392338 ], [ -8676771.257665242999792, 1670892.308647656813264 ], [ -7766393.630799511447549, 2395822.64115184918046 ], [ -6805439.469107907265425, 2952164.524236463010311 ], [ -5878202.99730021879077, 3255623.733191706240177 ], [ -4681225.00642120372504, 3828824.46121827699244 ], [ -3568541.24025197699666, 4031130.600521772634238 ], [ -2270410.179721213877201, 4115424.825231562368572 ], [ -702537.600119123235345, 3828824.46121827699244 ], [ -399078.391163878142834, 3070176.438830168452114 ], [ -196772.25186038389802, 1873198.447951152920723 ], [ -95619.182208634912968, 339043.558232977520674 ], [ -179913.406918425112963, -1481711.695498483255506 ], [ -751323.815128148533404, -2570673.724094514735043 ], [ -1191011.152554121334106, -3134062.17594202933833 ] ] ] ] } },
{ "type": "Feature", "properties": { "id": 3 }, "geometry": { "type": "MultiPolygon", "coordinates": [ [ [ [ -8537685.786894092336297, -2594395.461667709052563 ], [ -7897049.679099688306451, -3285608.104287986177951 ], [ -7020389.742117874324322, -3909385.367140430957079 ], [ -6278600.564671723172069, -5089504.513077489100397 ], [ -5722258.681587111204863, -6219047.124188672751188 ], [ -5182775.643444456160069, -7331730.890357898548245 ], [ -4744445.674953548237681, -8882744.62501803226769 ], [ -4693869.140127673745155, -9759404.561999846249819 ], [ -5132199.108618581667542, -10619205.654039703309536 ], [ -5873988.286064732819796, -11276700.606776064261794 ], [ -6750648.223046546801925, -11529583.280905432999134 ], [ -8065638.128519268706441, -11546442.125847391784191 ], [ -9566075.328353527933359, -11310418.296659979969263 ], [ -10948500.613594081252813, -10905806.018052987754345 ], [ -12330925.898834634572268, -10180875.685548795387149 ], [ -13747068.873959105461836, -9000756.539611738175154 ], [ -14724881.880592666566372, -7635190.099313142709434 ], [ -15078917.624373784288764, -6842824.387041117995977 ], [ -15365517.988387070596218, -5848152.535465597175062 ], [ -15567824.127690564841032, -4415150.715399170294404 ], [ -15567824.127690564841032, -3167596.189694280270487 ], [ -15314941.453561196103692, -2274077.407770507968962 ], [ -14809176.105302456766367, -1549147.075266315136105 ], [ -13898798.478436727076769, -1161393.641601281706244 ], [ -12668102.797673795372248, -992805.192181702237576 ], [ -11707148.635982189327478, -925369.812413870356977 ], [ -11201383.287723451852798, -925369.812413870356977 ], [ -9835816.847424855455756, -1060240.571949534118176 ], [ -9178321.894688494503498, -1818888.594337642658502 ], [ -8537685.786894092336297, -2594395.461667709052563 ] ] ] ] } },
{ "type": "Feature", "properties": { "id": 4 }, "geometry": { "type": "MultiPolygon", "coordinates": [ [ [ [ 5901914.905892912298441, 4621190.173490304499865 ], [ 4688078.070071939378977, 5093237.831865126267076 ], [ 3238217.405063554644585, 5733873.939659530296922 ], [ 2159251.328778244554996, 7251169.984435746446252 ], [ 1518615.22098384052515, 8667312.95956021733582 ], [ 507084.5244663618505, 10488068.213291676715016 ], [ -302140.032747618854046, 13252918.78377278521657 ], [ 203625.315511118620634, 15107391.72738816216588 ], [ 1147720.632260765880346, 15646874.765530817210674 ], [ 2833605.126456562429667, 16051487.044137807562947 ], [ 4586925.000420190393925, 16051487.044137807562947 ], [ 6137938.735080324113369, 15613157.07564689964056 ], [ 7992411.678695701062679, 14331884.860058095306158 ], [ 9172530.82463276013732, 13151765.714121036231518 ], [ 10959568.388480305671692, 10757809.732363004237413 ], [ 11971099.084997780621052, 8566159.889908468350768 ], [ 12847759.021979596465826, 5666438.559891697019339 ], [ 13117500.541050925850868, 3710812.546624572947621 ], [ 12375711.36360477283597, 2092363.432196609675884 ], [ 9779449.242543246597052, 2092363.432196609675884 ], [ 8869071.615677516907454, 2362104.951267935335636 ], [ 8498177.02695444226265, 2969023.369178421795368 ], [ 7385493.260785214602947, 3946836.375811984762549 ], [ 5901914.905892912298441, 4621190.173490304499865 ] ] ] ] } },
{ "type": "Feature", "properties": { "id": 6 }, "geometry": { "type": "MultiPolygon", "coordinates": [ [ [ [ 2101120.122869889251888, -555429.497932791593485 ], [ 1215156.012028597295284, 305325.868349064141512 ], [ 372213.764930699020624, 1418009.634518288075924 ], [ 237343.005395036190748, 2328387.261384021490812 ], [ 237343.005395036190748, 3542224.097204994410276 ], [ 439649.144698530435562, 3946836.375811984762549 ], [ 1417462.151332091540098, 4756060.933025967329741 ], [ 2226686.708546075969934, 4958367.0723294634372 ], [ 3339370.474715299904346, 5059520.141981210559607 ], [ 4519489.620652358978987, 4823496.312793798744678 ], [ 5732693.684813312254846, 4686998.426132370717824 ], [ 6872337.733921780250967, 4180088.88802263699472 ], [ 7864004.932246592827141, 3526326.11907319817692 ], [ 9239966.204400591552258, 2901587.98941059038043 ], [ 9726640.452081931754947, 2108010.481222184374928 ], [ 10453803.040221564471722, 1181985.805330876260996 ], [ 11128156.837899882346392, 237890.488581232726574 ], [ 11701357.5659264549613, -942228.657355826348066 ], [ 11364180.66708729416132, -2324653.942596379667521 ], [ 9914320.002078909426928, -3100160.809926446527243 ], [ 6934430.017305926419795, -3010963.814711392857134 ], [ 5868197.216008998453617, -2830419.2908551171422 ], [ 5160125.728446763008833, -2661830.841435540467501 ], [ 3777700.443206209689379, -2122347.803292885422707 ], [ 2530145.9175013191998, -1549147.075266312807798 ], [ 2101120.122869889251888, -555429.497932791593485 ] ] ] ] } }
]
}
