{
"type": "FeatureCollection",
"name": "map004",
"crs": { "type": "name", "properties": { "name": "urn:ogc:def:crs:ESRI::102016" } },
"features": [
{ "type": "Feature", "properties": { "id": 1 }, "geometry": { "type": "MultiPolygon", "coordinates": [ [ [ [ -2292147.469134502112865, -7265264.57595182210207 ], [ -2096376.86678849440068, -7787319.515541177242994 ], [ -1650454.939222588203847, -8178860.720233192667365 ], [ -1204533.011656681075692, -8146232.286508858203888 ], [ -856496.385263778269291, -7548044.334896055981517 ], [ -454079.035996984690428, -7308769.154250934720039 ], [ 154985.060190594755113, -7450159.033723052591085 ], [ 796677.590102509595454, -7602425.057769946753979 ], [ 1601512.28863609675318, -7526292.045746499672532 ], [ 2090938.794501115567982, -7417530.599998717196286 ], [ 2036558.07162722479552, -7917833.250438515096903 ], [ 1982177.348753334023058, -8483392.768326982855797 ], [ 1949548.915028999559581, -9190342.165687564760447 ], [ 1677645.300659543834627, -9929919.996772482991219 ], [ 1318732.529691862873733, -10462851.080936616286635 ], [ 579154.698606944642961, -10691250.117006957530975 ], [ -584592.770894323475659, -10517231.803810507059097 ], [ -1726587.951246035285294, -10158319.032842826098204 ], [ -2803326.264149078167975, -9766777.828150810673833 ], [ -3586408.673533109948039, -9048952.286215448752046 ], [ -4271605.781744137406349, -8254993.732256639748812 ], [ -4336862.649192806333303, -7656805.780643837526441 ], [ -4238977.348019802942872, -7145626.985629262402654 ], [ -3738674.697580005042255, -6873723.371259806677699 ], [ -2825078.55329863447696, -7025989.395306701771915 ], [ -2292147.469134502112865, -7265264.57595182210207 ] ] ] ] } },
{ "type": "Feature", "properties": { "id": 2 }, "geometry": { "type": "MultiPolygon", "coordinates": [ [ [ [ -1237161.445381017401814, -6145021.684749668464065 ], [ -1392146.505571607965976, -6025384.094427108764648 ], [ -1479155.662169833667576, -5916622.648679326288402 ], [ -1457403.373020277358592, -5361939.275365637615323 ], [ -1370394.216422052122653, -4491847.70938338059932 ], [ -957100.722580479457974, -3567375.420527232810855 ], [ -532931.084164129570127, -2773416.86656842334196 ], [ -32628.433724331669509, -2240485.782404290977865 ], [ 663444.819061473943293, -1751059.276539271464571 ], [ 1152871.324926492758095, -1533536.385043707210571 ], [ 1490031.806744617410004, -1609669.397067154757679 ], [ 1664050.119941068813205, -1783687.710263606160879 ], [ 1979458.312609637156129, -2229609.637829512823373 ], [ 2283990.360703427344561, -2642903.13167108502239 ], [ 2621150.842521551996469, -3154081.926685660611838 ], [ 3219338.794134352356195, -3958916.625219248235226 ], [ 3643508.432550704106688, -4557104.576832050457597 ], [ 3828402.890321932733059, -4981274.215248400345445 ], [ 4111182.649266166612506, -5372815.419940415769815 ], [ 4100306.504691388458014, -5699099.757183762267232 ], [ 3687013.010849816724658, -5525081.443987310864031 ], [ 2860426.023166671395302, -5503329.154837753623724 ], [ 1873415.903005549684167, -5492453.010262975469232 ], [ 1133838.071920631453395, -5557709.877711645327508 ], [ 198489.63848970644176, -5720852.046333318576217 ], [ -715106.505791664123535, -5981879.516127996146679 ], [ -1237161.445381017401814, -6145021.684749668464065 ] ] ] ] } },
{ "type": "Feature", "properties": { "id": 3 }, "geometry": { "type": "MultiPolygon", "coordinates": [ [ [ [ -1074909.494998561684042, -6094317.950255150906742 ], [ -1261632.770674269180745, -5699099.757183762267232 ], [ -1065862.16832826146856, -5285806.263342190533876 ], [ -565559.517888464033604, -5079159.516421403735876 ], [ 228399.036070345900953, -4883388.914075396955013 ], [ 804834.698533590883017, -4861636.624925840646029 ], [ 1468279.517595062032342, -4850760.480351061560214 ], [ 2012086.746333972550929, -5035654.938122291117907 ], [ 2283990.360703427344561, -5329310.841641303151846 ], [ 2338674.131745764520019, -5497579.822700884193182 ], [ 2033839.035483528859913, -6025384.094427108764648 ], [ 1587917.107917621731758, -6297287.70879656355828 ], [ 957100.722580485977232, -6406049.154544346034527 ], [ 478550.3612902443856, -6460429.877418236806989 ], [ 108761.445747785270214, -6471306.021993014961481 ], [ -522054.939589350484312, -6384296.865394789725542 ], [ -1074909.494998561684042, -6094317.950255150906742 ] ] ] ] } },
{ "type": "Feature", "properties": { "id": 4 }, "geometry": { "type": "MultiPolygon", "coordinates": [ [ [ [ -1021786.916180689353496, -6122181.386712908744812 ], [ -483475.407890137284994, -5915699.202441845089197 ], [ 174428.733746446785517, -5727726.590545678511262 ], [ 712188.742035847273655, -5631253.365482247434556 ], [ 1386024.589859244413674, -5535458.126128826290369 ], [ 1914076.660621020011604, -5492901.062688490375876 ], [ 2332902.427822657860816, -5479819.549047356471419 ], [ 2871008.624739087186754, -5503607.644352816976607 ], [ 3459344.068913559895009, -5519090.156041619367898 ], [ 3760919.612101486418396, -5556200.012935382314026 ], [ 4143811.082990502007306, -5753480.480057653039694 ], [ 4306953.251612174324691, -6199402.407623560167849 ], [ 4002421.20351838413626, -6699705.058063357137144 ], [ 3349852.529031692072749, -7189131.563928376883268 ], [ 2664655.420820664614439, -7308769.154250937514007 ], [ 2090650.896556487306952, -7417594.577319745905697 ], [ 1478201.415820043999702, -7537956.587769639678299 ], [ 793958.553958812728524, -7526292.045746501535177 ], [ 265147.804141340078786, -7476299.345846958458424 ], [ -156457.700038456183393, -7377859.821527021937072 ], [ -563587.372946680523455, -7373882.219464267604053 ], [ -928441.718998247408308, -7671700.377252174541354 ], [ -1193788.487502789124846, -8127765.135619356296957 ], [ -1748903.775934947421774, -8092417.839217462576926 ], [ -2080237.099339644890279, -7801491.018666996620595 ], [ -2305742.649852977134287, -7537168.19032127968967 ], [ -2331909.485032711178064, -7247412.242283238098025 ], [ -2262238.071553864516318, -6841094.937535474076867 ], [ -1925077.589735739864409, -6493058.311142571270466 ], [ -1468279.517595055047423, -6210278.552198338322341 ], [ -1021786.916180689353496, -6122181.386712908744812 ] ] ] ] } },
{ "type": "Feature", "properties": { "id": 5 }, "geometry": { "type": "MultiPolygon", "coordinates": [ [ [ [ 2065315.877429357962683, -7423224.581570219248533 ], [ 2759644.848780483473092, -7292183.698575413785875 ], [ 3452523.333817598875612, -7112128.460338946431875 ], [ 3537792.307283860631287, -7048176.730239250697196 ], [ 3971097.90714302379638, -6723197.530344877392054 ], [ 4209067.950439171865582, -6949856.383283255621791 ], [ 4306953.251612175256014, -7189131.563928376883268 ], [ 4502723.853958183899522, -7558920.479470835998654 ], [ 4807255.902051974087954, -7928709.39501329511404 ], [ 5177044.81759443320334, -8396383.611728757619858 ], [ 5492453.010262999683619, -8940190.840467669069767 ], [ 5666471.323459452018142, -9418741.201757909730077 ], [ 5720852.046333342790604, -9940796.141347263008356 ], [ 5525081.443987336009741, -10364965.779763612896204 ], [ 5274930.118767436593771, -10745630.839880850166082 ], [ 4763751.323752859607339, -10995782.165100749582052 ], [ 4143811.082990502938628, -11267685.779470205307007 ], [ 3643508.432550705038011, -11235057.34574587084353 ], [ 3045320.48093790281564, -11050162.887974642217159 ], [ 2664655.420820665545762, -10908773.008502524346113 ], [ 2501513.252198992297053, -10495479.514660952612758 ], [ 2392751.80645121075213, -9908167.707622930407524 ], [ 2349247.228152097202837, -9266475.177711013704538 ], [ 2021388.659649302484468, -8075595.135008907876909 ], [ 2065315.877429357962683, -7423224.581570219248533 ] ] ] ] } },
{ "type": "Feature", "properties": { "id": 6 }, "geometry": { "type": "MultiPolygon", "coordinates": [ [ [ [ -6623572.046039925888181, -1707554.698240160010755 ], [ -7450159.033723070286214, -706949.397360566072166 ], [ -7819947.9492655294016, 228399.036070360802114 ], [ -7928709.395013310946524, 946224.578005722723901 ], [ -8102727.708209762349725, 1642297.830791528336704 ], [ -7885204.816714198328555, 2468884.818474671803415 ], [ -6949856.383283272385597, 3143205.782110921107233 ], [ -5753480.4800576698035, 3382480.962756041437387 ], [ -3752269.878298478201032, 3600003.85425160638988 ], [ -2077343.61378263309598, 3382480.962756041437387 ], [ -1207252.047800377011299, 2664655.4208206795156 ], [ -924472.288856143131852, 1598793.252492415718734 ], [ -1185499.758650820702314, 271903.614369473420084 ], [ -1685802.409090617671609, -750453.975659678690135 ], [ -2512389.396773763000965, -1577040.963342822156847 ], [ -3273719.517008237540722, -2186105.05953040253371 ], [ -3969792.769794043153524, -2273114.216128627769649 ], [ -5079159.516421420499682, -2490637.107624192722142 ], [ -5709975.901758555322886, -2403627.951025965623558 ], [ -6623572.046039925888181, -1707554.698240160010755 ] ] ] ] } },
{ "type": "Feature", "properties": { "id": 7 }, "geometry": { "type": "MultiPolygon", "coordinates": [ [ [ [ -9614511.804103933274746, -1685802.40909060370177 ], [ -8483392.768327001482248, -2360123.372726853005588 ], [ -7526292.045746516436338, -3186710.360409998334944 ], [ -7200007.708503171801567, -3687013.010849795304239 ], [ -6851971.082110267132521, -4296077.107037375681102 ], [ -6351668.431670472025871, -5796985.058356768451631 ], [ -6003631.805277567356825, -7341397.587975273840129 ], [ -6329916.142520915716887, -8951066.985042447224259 ], [ -7112998.551904946565628, -9734149.394426479935646 ], [ -8483392.768327001482248, -10016929.153370711952448 ], [ -9745025.539001271128654, -9929919.996772486716509 ], [ -10441098.791787078604102, -9734149.394426479935646 ], [ -11485208.670965787023306, -9320855.900584906339645 ], [ -12942612.043986067175865, -8407259.756303537636995 ], [ -13812703.609968323260546, -7645929.636069063097239 ], [ -14682795.175950581207871, -6536562.889441685751081 ], [ -15117840.958941709250212, -5492453.010262977331877 ], [ -15313611.561287716031075, -4513599.998532937839627 ], [ -15335363.850437274202704, -3687013.010849793907255 ], [ -14661042.886801024898887, -2555893.97507285932079 ], [ -13943217.344865662977099, -1794563.854838384781033 ], [ -13268896.381229413673282, -1446527.228445481974632 ], [ -12007263.610555140301585, -1054986.023753466550261 ], [ -10680373.97243219986558, -1229004.336949917953461 ], [ -9614511.804103933274746, -1685802.40909060370177 ] ] ] ] } },
{ "type": "Feature", "properties": { "id": 8 }, "geometry": { "type": "MultiPolygon", "coordinates": [ [ [ [ 5100911.805570986121893, -2947435.179764877073467 ], [ 4361333.974486067891121, -3164958.071260440163314 ], [ 3795774.456597600132227, -3208462.649559554643929 ], [ 3621756.143401149660349, -2381875.661876409314573 ], [ 3730517.589148931205273, -1490031.806744596920907 ], [ 3926288.191494937986135, -532931.084164113737643 ], [ 4013297.348093163222075, 315408.192668586038053 ], [ 4122058.793840944766998, 1337765.782697738148272 ], [ 4143811.082990501075983, 2077343.613782656379044 ], [ 4143811.082990501075983, 2773416.866568461991847 ], [ 3991545.05894360691309, 3578251.565102050080895 ], [ 3839279.034896712750196, 4274324.817887855693698 ], [ 5057407.227271873503923, 4926893.492374547757208 ], [ 6253783.130497474223375, 5818737.347506361082196 ], [ 7210883.853077959269285, 6340792.287095715291798 ], [ 7711186.503517754375935, 6601819.756890391930938 ], [ 8407259.756303559988737, 6862847.2266850695014 ], [ 9342608.189734488725662, 6580067.467740835621953 ], [ 9908167.707622956484556, 5731728.190908135846257 ], [ 10060433.731669850647449, 5405443.853664789348841 ], [ 10256204.334015857428312, 4731122.890028540045023 ], [ 10495479.514660976827145, 3208462.649559590965509 ], [ 10386718.068913195282221, 1729306.987389753572643 ], [ 10343213.490614082664251, 685197.108211045153439 ], [ 10082186.020819406956434, -206646.746920767240226 ], [ 8777048.671846020966768, 445921.927565924823284 ], [ 7297893.009676184505224, 358912.770967699587345 ], [ 6166773.973899248987436, -554683.373313670046628 ], [ 5579462.166861224919558, -1403022.650146371684968 ], [ 5209673.251318767666817, -2338371.083577296696603 ], [ 5100911.805570986121893, -2947435.179764877073467 ] ] ] ] } },
{ "type": "Feature", "properties": { "id": 9 }, "geometry": { "type": "MultiPolygon", "coordinates": [ [ [ [ -7919861.961343673057854, 2337187.668882668949664 ], [ -7537168.190321295522153, 1272508.915249069221318 ], [ -7384902.166274400427938, 293655.903519029729068 ], [ -7058617.829031053930521, -554683.373313670046628 ], [ -6623572.046039925888181, -1229004.336949919350445 ], [ -6485287.407271367497742, -1812914.423016204265878 ], [ -6297287.708796579390764, -3056196.625512658618391 ], [ -6362544.576245249249041, -3708765.299999351613224 ], [ -6880081.732703540474176, -4246883.468499146401882 ], [ -7558920.479470851831138, -4252572.528738263063133 ], [ -8407259.756303552538157, -3817526.745747133158147 ], [ -9081580.719939801841974, -3143205.78211088385433 ], [ -9603635.659529156982899, -2425380.240175521932542 ], [ -9783842.123949188739061, -1613232.272014065878466 ], [ -9842910.840174276381731, -706949.397360566072166 ], [ -9560131.081230042502284, 598187.9516128199175 ], [ -9277351.322285808622837, 1555288.674193302169442 ], [ -8885810.117593795061111, 2316618.794427777640522 ], [ -8603030.358649559319019, 2860426.023166688159108 ], [ -8211489.153957544825971, 3056196.625512695871294 ], [ -7906957.105863754637539, 2795169.155718018300831 ], [ -7919861.961343673057854, 2337187.668882668949664 ] ] ] ] } },
{ "type": "Feature", "properties": { "id": 10 }, "geometry": { "type": "MultiPolygon", "coordinates": [ [ [ [ 4080638.993761542253196, -5330524.20462632086128 ], [ 3796889.111193522345275, -4908977.898424400016665 ], [ 3768584.095160654745996, -4437466.986509490758181 ], [ 3746831.806011098437011, -3861031.324046245776117 ], [ 3964354.697506662458181, -3469490.119354230351746 ], [ 4249469.628668421879411, -3173563.020938721019775 ], [ 4638970.07906929962337, -3083300.393441843334585 ], [ 5236863.612755713053048, -2903930.601465763058513 ], [ 5900308.431817184202373, -2925682.890615319367498 ], [ 6226592.76906053069979, -3197586.504984774626791 ], [ 6835656.86524811014533, -3708765.299999350681901 ], [ 6966170.600145449861884, -4274324.817887817509472 ], [ 6803028.431523775681853, -4861636.624925840646029 ], [ 6313601.925658755935729, -5307558.552491747774184 ], [ 5922060.720966740511358, -5579462.166861202567816 ], [ 5552271.805424281395972, -5699099.757183763198555 ], [ 4877950.841788032092154, -5709975.901758541353047 ], [ 4432028.914222125895321, -5644719.034309872426093 ], [ 4080638.993761542253196, -5330524.20462632086128 ] ] ] ] } },
{ "type": "Feature", "properties": { "id": 11 }, "geometry": { "type": "MultiPolygon", "coordinates": [ [ [ [ 3802663.534525908529758, -11245437.026309471577406 ], [ 4487146.598363666795194, -11117100.027113553136587 ], [ 5062845.299559263512492, -10941401.442226860672235 ], [ 5497891.082550391554832, -10593364.815833959728479 ], [ 6019946.022139746695757, -10288832.767740167677402 ], [ 6716019.274925552308559, -9701520.960702145472169 ], [ 7031427.467594120651484, -9396988.912608355283737 ], [ 7553482.407183473929763, -8820553.250145111232996 ], [ 8235960.479250806383789, -7939585.539588075131178 ], [ 8638377.828517599031329, -7374026.021699608303607 ], [ 8932033.732036611065269, -7036865.539881483651698 ], [ 9334451.081303404644132, -6971608.672432814724743 ], [ 9725992.285995420068502, -7297893.00967616122216 ], [ 10019648.189514432102442, -7885204.816714184358716 ], [ 10117533.490687437355518, -8472516.623752208426595 ], [ 9845629.876317981630564, -9462245.780057024210691 ], [ 9280070.35842951387167, -10484603.370086178183556 ], [ 8496987.949045483022928, -11365571.080643210560083 ], [ 7452878.069866774603724, -12148653.49002724327147 ], [ 6441396.62441240157932, -12627203.85131748393178 ], [ 5745323.371626595966518, -12877355.17653738334775 ], [ 5049250.118840790353715, -13138382.646332059055567 ], [ 4483690.600952323526144, -13138382.646332059055567 ], [ 3841998.071040408685803, -13051373.489733833819628 ], [ 3004534.938782486598939, -12822974.453663492575288 ], [ 2395470.842594906687737, -12561946.983868815004826 ], [ 2264957.107697567902505, -12235662.646625468507409 ], [ 2384594.698020128533244, -11865873.731083009392023 ], [ 2743507.468987809494138, -11670103.12873700261116 ], [ 3428704.577198836952448, -11409075.658942325040698 ], [ 3802663.534525908529758, -11245437.026309471577406 ] ] ] ] } },
{ "type": "Feature", "properties": { "id": 12 }, "geometry": { "type": "MultiPolygon", "coordinates": [ [ [ [ 5408162.889808471314609, -5807861.202931545674801 ], [ 5951970.118547381833196, -5644719.034309873357415 ], [ 6517529.636435848660767, -5372815.419940417632461 ], [ 7061336.865174759179354, -5198797.10674396622926 ], [ 7529011.081890222616494, -5220549.395893523469567 ], [ 7909676.142007459886372, -5655595.178884651511908 ], [ 8203332.045526470988989, -6340792.287095678970218 ], [ 8225084.334676028229296, -7069493.973605819046497 ], [ 8007561.443180463276803, -7624177.346919507719576 ], [ 7626896.383063226006925, -8276746.021406199783087 ], [ 7387621.20241810567677, -8744420.238121662288904 ], [ 7180974.455497319810092, -9038076.141640674322844 ], [ 6854690.118253973312676, -9244722.888561461120844 ], [ 6615414.937608852982521, -9462245.780057024210691 ], [ 6245626.022066392935812, -9462245.780057024210691 ], [ 5908465.540248269215226, -9233846.743986682966352 ], [ 5669190.359603147953749, -9005447.707916339859366 ], [ 5484295.901831918396056, -8679163.37067299336195 ], [ 5277649.154911132529378, -8309374.455130535177886 ], [ 5038373.974266012199223, -7972213.973312410525978 ], [ 4820851.082770448178053, -7711186.503517732955515 ], [ 4603328.19127488322556, -7167379.274778822436929 ], [ 4396681.444354097358882, -6764961.925512028858066 ], [ 4364053.010629762895405, -6471306.021993016824126 ], [ 4646832.769573996774852, -6047136.383576666936278 ], [ 5408162.889808471314609, -5807861.202931545674801 ] ] ] ] } },
{ "type": "Feature", "properties": { "id": 13 }, "geometry": { "type": "MultiPolygon", "coordinates": [ [ [ [ 6072008.87813704367727, -3068766.595881868619472 ], [ 5822965.904923910275102, -2923147.070061441510916 ], [ 5375534.456084135919809, -2980063.613489209674299 ], [ 5143568.190593365579844, -2931919.498355820309371 ], [ 5173189.768822100013494, -2542678.58555863564834 ], [ 5312519.712452741339803, -2078230.03482665726915 ], [ 5459535.885610407218337, -1706365.596839618403465 ], [ 5609708.724923685193062, -1359333.177389484830201 ], [ 5930772.512771137990057, -895574.372720941668376 ], [ 6267378.311215949244797, -576435.662463224958628 ], [ 6636006.098521575331688, -175688.195734099019319 ], [ 7012708.230400733649731, 128571.218475989880972 ], [ 7679317.524716315791011, 381349.507146530784667 ], [ 8260778.716052045114338, 415553.106636867567431 ], [ 8736403.769491137936711, 443531.050956814084202 ], [ 9331732.045159708708525, 168580.240909080952406 ], [ 9644965.008913323283195, 11963.759032274771016 ], [ 10098419.78400937654078, -151181.389355034916662 ], [ 9878258.310042314231396, -1109366.746627357788384 ], [ 9551973.972798969596624, -1642297.83079149061814 ], [ 9040795.177784392610192, -2447132.529325077775866 ], [ 8605749.394793264567852, -2871302.167741427663714 ], [ 8170703.611802135594189, -3121453.492961327079684 ], [ 7724781.684236229397357, -3262843.372433444019407 ], [ 6985203.853151311166584, -3197586.50498477416113 ], [ 6506653.491861069574952, -3132329.637536105234176 ], [ 6072008.87813704367727, -3068766.595881868619472 ] ] ] ] } },
{ "type": "Feature", "properties": { "id": 14 }, "geometry": { "type": "MultiPolygon", "coordinates": [ [ [ [ 1441377.212462448980659, -1598682.875777632929385 ], [ 1084895.421334130689502, -924472.288856127299368 ], [ 834744.096114232204854, -369788.915542438626289 ], [ 562840.4817447764799, 271903.614369475282729 ], [ 377946.023973546922207, 1631421.686216752044857 ], [ 508459.758870885707438, 2545017.830498121678829 ], [ 725982.650366449728608, 3360728.673606487456709 ], [ 1052266.987609796226025, 4035049.637242736294866 ], [ 1258913.734530582092702, 4687618.311729429289699 ], [ 1813597.107844270765781, 5057407.227271888405085 ], [ 2585803.372653524391353, 5133540.239295335486531 ], [ 3096982.167668100446463, 4992150.35982321947813 ], [ 3347133.492887997999787, 4644113.733430316671729 ], [ 3651665.540981788188219, 3948040.480644510593265 ], [ 3912693.010776465758681, 3295471.806157818064094 ], [ 3901816.866201687604189, 2686407.709970238618553 ], [ 3793055.420453906059265, 1337765.782697740476578 ], [ 3836559.998753018677235, 717825.541935382410884 ], [ 3814807.70960346236825, -76133.012023427058011 ], [ 3803931.565028684213758, -565559.517888446338475 ], [ 3791507.84807266574353, -1191857.207561891991645 ], [ 3532027.950659228488803, -1783687.710263606160879 ], [ 3325381.203738441690803, -2229609.637829512357712 ], [ 2955592.288195983506739, -2675531.565395419485867 ], [ 2466165.782330963760614, -2545017.830498080700636 ], [ 1997637.290345936547965, -2254281.107614490669221 ], [ 1727425.655878736637533, -1873287.605899619171396 ], [ 1441377.212462448980659, -1598682.875777632929385 ] ] ] ] } },
{ "type": "Feature", "properties": { "id": 15 }, "geometry": { "type": "MultiPolygon", "coordinates": [ [ [ [ 7987708.754624446853995, 6705515.601055402308702 ], [ 6566472.287022350355983, 8211489.153957568109035 ], [ 6131426.504031220450997, 9299103.611435389146209 ], [ 5500610.118694085627794, 10887020.719353009015322 ], [ 5109068.914002068340778, 12496690.116420183330774 ], [ 5239582.648899408057332, 13562552.284748448058963 ], [ 6000912.769133882597089, 14041102.646038688719273 ], [ 6849252.045966582372785, 14084607.224337801337242 ], [ 7806352.768547065556049, 13867084.332842238247395 ], [ 9002728.671772668138146, 13171011.080056432634592 ], [ 9698801.924558473750949, 12409680.959821958094835 ], [ 10547141.201391173526645, 11148048.189147684723139 ], [ 11417232.767373433336616, 9690644.81612740457058 ], [ 12091553.731009678915143, 8276746.021406237967312 ], [ 12918140.718692826107144, 6036260.239001926966012 ], [ 13092159.031889276579022, 5013902.648972774855793 ], [ 12635360.959748590365052, 4317829.39618696924299 ], [ 11569498.791420327499509, 4209067.950439186766744 ], [ 10259736.752411657944322, 4708643.863873439840972 ], [ 9568288.18966113589704, 5144416.383870113641024 ], [ 8589435.177931098267436, 6079764.817301039583981 ], [ 7987708.754624446853995, 6705515.601055402308702 ] ] ] ] } }
]
}
