{
"type": "FeatureCollection",
"name": "map029",
"crs": { "type": "name", "properties": { "name": "urn:ogc:def:crs:ESRI::102016" } },
"features": [
{ "type": "Feature", "properties": { "id": 1 }, "geometry": { "type": "MultiPolygon", "coordinates": [ [ [ [ 1574653.788485703989863, -1508275.038245169445872 ], [ 2282414.391108844429255, -1996966.882913528010249 ], [ 2602591.806581215932965, -2620470.270938674919307 ], [ 3175540.865847568958998, -3092310.672687435522676 ], [ 3917004.354309905320406, -3311379.430642216466367 ], [ 4152924.555184286087751, -3867477.046988969668746 ], [ 4085518.783505890518427, -4406723.220416124910116 ], [ 3984410.125988299027085, -4710049.192968899384141 ], [ 3546272.610078737139702, -5080780.937200067564845 ], [ 3007026.436651581898332, -5384106.90975284203887 ], [ 2686849.021179208531976, -5384106.90975284203887 ], [ 2198157.176510849967599, -5603175.667707623913884 ], [ 1591505.231405301019549, -5839095.868582002818584 ], [ 1355585.030530922114849, -5737987.211064411327243 ], [ 1119664.829656541347504, -5569472.781868426129222 ], [ 799487.414184167981148, -5603175.667707623913884 ], [ 378201.341194204986095, -5940204.526099594309926 ], [ -161044.832232950255275, -6075016.06945638358593 ], [ -565479.462303316220641, -6075016.06945638358593 ], [ -851953.991936491802335, -5822244.425662403926253 ], [ -1087874.19281087256968, -5535769.89602922834456 ], [ -1121577.078650068491697, -4743752.078808095306158 ], [ -868805.434856090694666, -3918031.375747765414417 ], [ -363262.147268133237958, -3109162.115607034415007 ], [ -9381.84595656208694, -2451955.841742689721286 ], [ 529864.327470591291785, -1912709.668315535411239 ], [ 1001704.729219350963831, -1491423.595325570553541 ], [ 1574653.788485703989863, -1508275.038245169445872 ] ] ] ] } },
{ "type": "Feature", "properties": { "id": 2 }, "geometry": { "type": "MultiPolygon", "coordinates": [ [ [ [ -9901178.839760925620794, -1272354.837370787747204 ], [ -9024903.807941798120737, -1525126.481164766475558 ], [ -8232885.990720666013658, -2131778.426270315423608 ], [ -7895857.132328694686294, -2553064.499260280281305 ], [ -7744194.146052306517959, -3597853.960275391116738 ], [ -7710491.260213110595942, -4389871.77749652415514 ], [ -6783661.899635188281536, -5653729.99646641779691 ], [ -6362375.826645223423839, -6782776.672079522162676 ], [ -5907386.867816062644124, -8147743.54856700822711 ], [ -5806278.210298471152782, -8804949.822431351989508 ], [ -6177009.954529639333487, -9361047.438778104260564 ], [ -7036433.543429166078568, -9681224.85425047762692 ], [ -7541976.831017123535275, -9681224.85425047762692 ], [ -8586766.292032236233354, -9428453.210456499829888 ], [ -9581001.424288552254438, -9040870.023305732756853 ], [ -10625790.885303664952517, -8771246.936592154204845 ], [ -11350402.930846402421594, -8501623.849878577515483 ], [ -12159272.190987134352326, -7996080.562290620058775 ], [ -12782775.579012282192707, -7305171.402587078511715 ], [ -13894970.811705786734819, -6765925.229159923270345 ], [ -14889205.943962102755904, -6496302.142446346580982 ], [ -15479006.446148052811623, -5923353.083179995417595 ], [ -15630669.432424440979958, -5047078.051360869780183 ], [ -15495857.889067651703954, -4406723.220416123978794 ], [ -15108274.701916884630919, -3715814.060712581500411 ], [ -14754394.400605315342546, -3126013.558526631444693 ], [ -14215148.227178160101175, -2738430.371375864371657 ], [ -13608496.282072611153126, -2451955.841742688789964 ], [ -12647964.035655492916703, -1980115.439993928652257 ], [ -11266145.716248409822583, -1609383.695762760005891 ], [ -10541533.670705670490861, -1322909.166129583958536 ], [ -9901178.839760925620794, -1272354.837370787747204 ] ] ] ] } },
{ "type": "Feature", "properties": { "id": 3 }, "geometry": { "type": "MultiPolygon", "coordinates": [ [ [ [ -7646738.257953703403473, -4476807.689668443053961 ], [ -7735421.953443460166454, -3804000.486583287362009 ], [ -7804395.657547494396567, -3183132.436641877982765 ], [ -7900789.261963699012995, -2546899.33721652533859 ], [ -8107938.706633886322379, -2287962.531378790270537 ], [ -8581102.668705763295293, -1865059.268664709059522 ], [ -8962988.577722514048219, -1572550.912822090089321 ], [ -9313904.04035466350615, -1441761.029507209546864 ], [ -9928062.284143324941397, -1274477.214558871928602 ], [ -9581001.424288552254438, -581445.677667246665806 ], [ -9210269.680057384073734, -42199.504240092355758 ], [ -8671023.506630228832364, 193720.696634287713096 ], [ -8367697.534077454358339, 429640.897508667781949 ], [ -8131777.333203074522316, 143166.367875491967425 ], [ -7777897.031891504302621, -429782.691390859428793 ], [ -7238650.858464349061251, -1036434.636496408376843 ], [ -6952176.328831173479557, -1525126.48116476694122 ], [ -6699404.685037195682526, -2148629.869189914315939 ], [ -6514038.812921611592174, -2721578.928456266410649 ], [ -6345524.383725624531507, -3193419.330205026082695 ], [ -6396078.712484421208501, -3547299.63151659630239 ], [ -6699404.685037195682526, -4019140.033265355974436 ], [ -6918473.44299197755754, -4221357.348300538957119 ], [ -7646738.257953703403473, -4476807.689668443053961 ] ] ] ] } },
{ "type": "Feature", "properties": { "id": 4 }, "geometry": { "type": "MultiPolygon", "coordinates": [ [ [ [ -6367431.259521102532744, -3346767.460773372091353 ], [ -6520716.048722173087299, -2700940.199618166312575 ], [ -6779327.463250598870218, -1951487.016263518249616 ], [ -7077920.901130338199437, -1310621.0343014865648 ], [ -7376251.606166452169418, -881633.7953315427294 ], [ -7786539.068053779192269, -415790.823318605311215 ], [ -8142965.301491963677108, 156751.75794057128951 ], [ -8367697.534077454358339, 429640.897508667781949 ], [ -8401400.419916652143002, 1322767.372247393243015 ], [ -8098074.447363877668977, 2114785.189468526747078 ], [ -7407165.287660336121917, 2873100.120850462466478 ], [ -6699404.685037195682526, 3311237.636760025285184 ], [ -5907386.867816062644124, 3597712.166393200866878 ], [ -5233329.151032119989395, 3715672.266830391250551 ], [ -4407608.447971789166331, 3648266.495151996612549 ], [ -3800956.502866240218282, 3277534.750920828431845 ], [ -2907830.028127515688539, 2906803.006689659785479 ], [ -2031554.996308390051126, 3243831.865081631112844 ], [ -1424903.051202841103077, 3513454.951795208267868 ], [ -599182.348142510280013, 3513454.951795208267868 ], [ -295856.375589735805988, 3092168.878805243875831 ], [ -110490.503474151715636, 2384408.276182103902102 ], [ -380113.590187730267644, 1642944.787719766609371 ], [ -565479.462303314357996, 1036292.842614217661321 ], [ -700291.005660101771355, 277977.911232281476259 ], [ -683439.562740504741669, -42199.504240090958774 ], [ -801399.663177693262696, -429782.691390858031809 ], [ -1340645.836604848504066, -1188097.622772794216871 ], [ -1745080.466675214469433, -1777898.12495874427259 ], [ -2149515.096745580434799, -2199184.197948709130287 ], [ -2874127.142288317903876, -2671024.599697468802333 ], [ -3699847.84534864872694, -3024904.901009039022028 ], [ -4710934.420524563640356, -3328230.873561813496053 ], [ -5941089.753655260428786, -3429339.531079404987395 ], [ -6367431.259521102532744, -3346767.460773372091353 ] ] ] ] } },
{ "type": "Feature", "properties": { "id": 5 }, "geometry": { "type": "MultiPolygon", "coordinates": [ [ [ [ -716101.527737877797335, -5942114.247014123015106 ], [ -321133.539969134144485, -6075016.06945638358593 ], [ 136333.572230556281283, -6000671.468340506777167 ], [ 993279.007759554311633, -5805392.982742806896567 ], [ 2172880.012131455354393, -5973907.411938793025911 ], [ 3116560.815628975629807, -5923353.08317999728024 ], [ 3533471.513973642606288, -5087981.553759182803333 ], [ 3938707.85062187211588, -4748720.349048184230924 ], [ 4262458.934161677956581, -4592089.092531709931791 ], [ 4548933.463794853538275, -4271911.677059337496758 ], [ 5661128.696488359943032, -4170803.019541745539755 ], [ 6469997.956629091873765, -3682111.174873386509717 ], [ 6975541.244217049330473, -3614705.403194992337376 ], [ 7177758.559252232313156, -3951734.261586964130402 ], [ 7379975.874287415295839, -4389871.777496526949108 ], [ 7851816.276036174967885, -5165038.151798062026501 ], [ 8289953.791945738717914, -5889650.1973408004269 ], [ 8795497.079533694311976, -6108718.955295581370592 ], [ 9402149.024639243260026, -6513153.585365947335958 ], [ 9722326.440111616626382, -7018696.872953904792666 ], [ 9958246.640985997393727, -7945526.233531826175749 ], [ 9907692.312227200716734, -8670138.279074564576149 ], [ 9452703.353398039937019, -9411601.767536902800202 ], [ 8542725.435739716514945, -10068808.041401248425245 ], [ 6356250.716921804472804, -12428010.050145046785474 ], [ 5597935.78553986735642, -13034661.995250595733523 ], [ 4789066.525399135425687, -13287433.6390445753932 ], [ 3895940.050660410895944, -13169473.538607385009527 ], [ 2598378.945851320400834, -12613375.922260632738471 ], [ 1806361.128630187362432, -11635992.232923913747072 ], [ 1722103.914032194763422, -10624905.657747996971011 ], [ 1267114.955203033983707, -9950847.940964054316282 ], [ 121216.836670329794288, -9681224.85425047762692 ], [ -1075235.61062116920948, -9866590.726366061717272 ], [ -1698738.998646315187216, -9731779.183009272441268 ], [ -2372796.71543025970459, -9209384.452501717954874 ], [ -2912042.888857413083315, -8248852.206084597855806 ], [ -2608716.91630463860929, -7473685.831783064641058 ], [ -2288539.500832265242934, -6934439.658355909399688 ], [ -1884104.870761901140213, -6226679.05573276989162 ], [ -716101.527737877797335, -5942114.247014123015106 ] ] ] ] } },
{ "type": "Feature", "properties": { "id": 6 }, "geometry": { "type": "MultiPolygon", "coordinates": [ [ [ [ -2393203.995312496088445, -7110716.701691035181284 ], [ -2360158.133240561932325, -6108718.955295581370592 ], [ -1871466.288572203367949, -5485215.567270434461534 ], [ -1416477.329743041656911, -5131335.265958864241838 ], [ -927785.485074683092535, -4996523.722602075897157 ], [ -371687.868727929890156, -4878563.622164885513484 ], [ 319221.290975611656904, -4760603.521727696061134 ], [ 1144941.994035941548645, -4642643.421290505677462 ], [ 2088622.797533461824059, -4507831.87793371733278 ], [ 2914343.500593792647123, -4541534.76377291418612 ], [ 3672658.431975727900863, -4642643.421290505677462 ], [ 4065563.874976951163262, -4687347.215484671294689 ], [ 4532082.020875254645944, -4844860.736325688660145 ], [ 5121882.523061206564307, -5299849.695154849439859 ], [ 5627425.81064916215837, -5940204.526099596172571 ], [ 5593722.924809966236353, -6378342.042009158991277 ], [ 4768002.221749635413289, -6765925.229159926064312 ], [ 3891727.189930509775877, -7086102.644632299430668 ], [ 2408800.213005835190415, -7254617.073828284628689 ], [ 1229199.208633935078979, -7406280.060104671865702 ], [ 201261.190538421273232, -7406280.060104671865702 ], [ -792973.941717894747853, -7524240.160541862249374 ], [ -1517585.987260633148253, -7625348.818059453740716 ], [ -2393203.995312496088445, -7110716.701691035181284 ] ] ] ] } },
{ "type": "Feature", "properties": { "id": 7 }, "geometry": { "type": "MultiPolygon", "coordinates": [ [ [ [ 4112914.838370274286717, -4664438.748855091631413 ], [ 4131925.064776786137372, -4035472.97024896601215 ], [ 3977407.269553229212761, -3453757.730858622118831 ], [ 3678890.663953357376158, -3241027.658491418231279 ], [ 3014288.192466421052814, -2959514.353432372678071 ], [ 2599075.407220536842942, -2613622.54586787847802 ], [ 2299441.166960554197431, -2030124.288519488880411 ], [ 1977303.006561517948285, -1786294.736440374050289 ], [ 1608356.674324903637171, -1322909.166129583492875 ], [ 1018556.172138953581452, -783662.992702429182827 ], [ 378201.341194206848741, 311680.797071478329599 ], [ 24321.039882637560368, 1204807.271810202859342 ], [ -277282.887408281560056, 1925729.220363249070942 ], [ -396965.03310732729733, 2620328.477056483272463 ], [ -369370.573363327072002, 3194271.93126856489107 ], [ 24321.039882637560368, 4979530.485800284892321 ], [ 883744.628782164305449, 6445606.019805360585451 ], [ 1524099.459726910106838, 7524098.366659670136869 ], [ 2568888.920742021873593, 8450927.727237591519952 ], [ 3512569.72423954308033, 9158688.329860730096698 ], [ 4321438.984380273148417, 9799043.16080547682941 ], [ 4843833.714887829497457, 10034963.36167985573411 ], [ 5298822.673716992139816, 10169774.905036645010114 ], [ 6040286.162179328501225, 9900151.818323068320751 ], [ 6916561.193998454138637, 9124985.444021534174681 ], [ 7405253.038666812703013, 8366670.512639597058296 ], [ 8332082.399244735017419, 7524098.366659668274224 ], [ 9090397.330626670271158, 6647823.334840542636812 ], [ 9899266.590767402201891, 5855805.51761940959841 ], [ 10539621.421712148934603, 4996381.928719881922007 ], [ 10977758.937621710821986, 3985295.353543967008591 ], [ 11112570.48097850009799, 2940505.892528856173158 ], [ 11483302.225209670141339, 2081082.303629327565432 ], [ 10893501.723023718222976, 935184.185096627101302 ], [ 10657581.522149339318275, -227565.376355674117804 ], [ 10050929.577043790370226, -1137543.294013997539878 ], [ 9208357.431063860654831, -2317144.298385898582637 ], [ 8652259.814717108383775, -2957499.129330645315349 ], [ 7775984.782897982746363, -3378785.202320610173047 ], [ 7287292.938229624181986, -3732665.50363217946142 ], [ 6766369.949461771175265, -3642594.909162362571806 ], [ 6293306.960852723568678, -3788861.984821608755738 ], [ 5149853.155776114203036, -4217282.614151949994266 ], [ 4469822.420611539855599, -4360329.901793628931046 ], [ 4112914.838370274286717, -4664438.748855091631413 ] ] ] ] } },
{ "type": "Feature", "properties": { "id": 8 }, "geometry": { "type": "MultiPolygon", "coordinates": [ [ [ [ 11104843.309609021991491, 3000391.470642315223813 ], [ 10984175.249562438577414, 3935568.936003332491964 ], [ 10566057.221315670758486, 4935376.237327137961984 ], [ 10082586.96017012372613, 5609770.284999967552722 ], [ 9447246.144484456628561, 6298408.871271460317075 ], [ 8795987.050648398697376, 6988030.769482100382447 ], [ 8132457.613889488391578, 7705575.444255346432328 ], [ 7639266.967717708088458, 8153930.577138783410192 ], [ 7105149.18429964222014, 8832348.907347276806831 ], [ 6504602.849163984879851, 9489410.133682794868946 ], [ 5856273.325626631267369, 9967065.577069504186511 ], [ 5329942.491663401946425, 10158458.607601586729288 ], [ 4203478.883943083696067, 10826981.178900990635157 ], [ 3242946.637525964528322, 11484187.452765334397554 ], [ 2366671.605706838425249, 11736959.096559312194586 ], [ 1069110.50089774816297, 12411016.81334325671196 ], [ 310795.569515812443569, 13438954.831438768655062 ], [ 7469.596963037969545, 13860240.904428733512759 ], [ 310795.569515812443569, 14584852.949971472844481 ], [ 951150.400460558244959, 15208356.337996620684862 ], [ 1776871.10352088836953, 15360019.324273006990552 ], [ 2754254.792857605963945, 15427425.095951400697231 ], [ 3950707.240149104967713, 15360019.324273006990552 ], [ 4961793.815325018949807, 14837624.593765450641513 ], [ 6613235.221445679664612, 13860240.904428733512759 ], [ 7405253.038666812703013, 13000817.315529206767678 ], [ 8450042.499681925401092, 12411016.81334325671196 ], [ 10067781.019963387399912, 10810129.735981391742826 ], [ 11129421.923898097127676, 9681083.060368288308382 ], [ 12022548.398636821657419, 8332967.626800401136279 ], [ 12747160.444179560989141, 7119663.73658930324018 ], [ 12831417.658777553588152, 6277091.59060937538743 ], [ 12780863.330018758773804, 5350262.230031453073025 ], [ 12241617.156591603532434, 4052701.125222362577915 ], [ 11786628.197762442752719, 3479752.065956011414528 ], [ 11104843.309609021991491, 3000391.470642315223813 ] ] ] ] } },
{ "type": "Feature", "properties": { "id": 9 }, "geometry": { "type": "MultiPolygon", "coordinates": [ [ [ [ 6916561.193998454138637, 8417224.841398395597935 ], [ 7203035.72363162972033, 8215007.526363212615252 ], [ 7792836.225817579776049, 7473544.037900875322521 ], [ 8466893.942601522430778, 6765783.43527773488313 ], [ 9157803.102305063977838, 6310794.476448573172092 ], [ 9781306.490330211818218, 5535628.102147039026022 ], [ 10118335.348722184076905, 4794164.613684701733291 ], [ 10489067.092953352257609, 4170661.225659554824233 ], [ 10623878.636310141533613, 3361791.9655188228935 ], [ 10455364.207114154472947, 2485516.933699697256088 ], [ 10236295.449159372597933, 1862013.545674549415708 ], [ 9848712.262008605524898, 1238510.157649401575327 ], [ 9292614.645661853253841, 732966.870061444118619 ], [ 8871328.572671888396144, 294829.354151882231236 ], [ 8298379.513405537232757, 58909.15327750146389 ], [ 7826539.111656777560711, 75760.596197100356221 ], [ 7203035.72363162972033, 193720.696634290739894 ], [ 6697492.436043672263622, 513898.11210666410625 ], [ 6764898.207722066901624, 732966.870061444118619 ], [ 7219887.166551228612661, 1154252.943051408976316 ], [ 7219887.166551228612661, 1878864.988594148308039 ], [ 7287292.938229622319341, 2367556.833262506872416 ], [ 7236738.60947082657367, 3058465.992966048419476 ], [ 6983966.965676848776639, 3681969.380991196259856 ], [ 6815452.536480862647295, 4709907.399086709134281 ], [ 6933412.636918053030968, 5956914.175137003883719 ], [ 6562680.892686883918941, 6782634.878197333775461 ], [ 6512126.56392808817327, 7406138.266222480684519 ], [ 6478423.678088891319931, 7911681.553810438141227 ], [ 6646938.107284876517951, 8450927.727237593382597 ], [ 6916561.193998454138637, 8417224.841398395597935 ] ] ] ] } },
{ "type": "Feature", "properties": { "id": 10 }, "geometry": { "type": "MultiPolygon", "coordinates": [ [ [ [ -2342588.125004996545613, -7140465.464528990909457 ], [ -1871466.288572205230594, -6597410.799963938072324 ], [ -843528.270476691424847, -6361490.599089558236301 ], [ -236876.325371142476797, -6075016.06945638358593 ], [ 354411.068837125319988, -5946152.094188864342868 ], [ 902229.62652641616296, -5826141.077714383602142 ], [ 1354236.915097354911268, -5856958.398076778277755 ], [ 2118618.365930345375091, -5966155.748195777647197 ], [ 3257892.651363555341959, -5640163.920027745887637 ], [ 3790618.53241291642189, -5333552.580994044430554 ], [ 4113047.865531007293612, -4703379.540489627048373 ], [ 4129499.61015606764704, -4115720.723293694201857 ], [ 4464676.249196859076619, -3530448.188596997410059 ], [ 4784853.664669232442975, -3058607.786848236806691 ], [ 5239842.62349839322269, -2839539.028893455862999 ], [ 5964454.669041134417057, -2654173.156777871306986 ], [ 6402592.184950694441795, -2788984.700134660117328 ], [ 6739621.043342668563128, -3378785.202320610173047 ], [ 6823878.257940661162138, -3867477.046988968737423 ], [ 6857581.1437798589468, -4710049.192968897521496 ], [ 6705918.157503470778465, -5485215.567270431667566 ], [ 6554255.17122708261013, -5957055.969019192270935 ], [ 6082414.769478321075439, -6142421.841134776361287 ], [ 5617414.07103222515434, -6070357.141119787469506 ], [ 5071328.194302408024669, -5855947.311501600779593 ], [ 4548933.46379485167563, -5771690.096903608180583 ], [ 4599487.792553648352623, -6041313.183617184869945 ], [ 5037625.308463210240006, -6327787.713250360451639 ], [ 5206139.737659197300673, -7018696.872953902930021 ], [ 5526317.153131570667028, -7423131.503024268895388 ], [ 5509465.710211969912052, -7861269.018933830782771 ], [ 5020773.86554361321032, -8215149.320245401933789 ], [ 4346716.148759668692946, -8484772.406958978623152 ], [ 3638955.5461365301162, -8467920.964039379730821 ], [ 3200818.030226966366172, -8046634.891049414873123 ], [ 3015452.15811138227582, -7423131.503024268895388 ], [ 2767621.656427943147719, -7213841.909803044982255 ], [ 2010468.775673262774944, -7305831.115771044045687 ], [ 1481970.852427911013365, -7574794.489300655201077 ], [ 875318.907322362065315, -8029783.448129817843437 ], [ 369775.619734406471252, -8012932.005210218951106 ], [ -59831.151558351470158, -7437257.117641577497125 ], [ -624459.512521909549832, -7322022.845506677404046 ], [ -776122.498798297718167, -8299406.5348433945328 ], [ -1365923.000984247773886, -8282555.091923795640469 ], [ -1989426.389009395614266, -8097189.219808211550117 ], [ -2393861.019079761579633, -7911823.347692627459764 ], [ -2781444.206230528652668, -7439982.945943865925074 ], [ -2342588.125004996545613, -7140465.464528990909457 ] ] ] ] } },
{ "type": "Feature", "properties": { "id": 11 }, "geometry": { "type": "MultiPolygon", "coordinates": [ [ [ [ 302369.848056010901928, -3446190.973999003879726 ], [ 184409.747618820518255, -2873241.914732652716339 ], [ 386627.062654003500938, -2401401.512983892578632 ], [ 538290.048930391669273, -2232887.083787906914949 ], [ 892170.350241960957646, -1946412.554154730867594 ], [ 1178644.87987513653934, -1794749.567878344096243 ], [ 1431416.523669116199017, -1811601.010797942522913 ], [ 1515673.738267108798027, -1929561.111235132440925 ], [ 1701039.610382692888379, -2182332.755029111169279 ], [ 1751593.939141489565372, -2620470.270938673987985 ], [ 1616782.395784700289369, -3126013.558526631444693 ], [ 1195496.322794735431671, -3547299.631516595371068 ], [ 723655.921045975759625, -3732665.503632180392742 ], [ 302369.848056010901928, -3446190.973999003879726 ] ] ] ] } }
]
}
