{
"type": "FeatureCollection",
"name": "map007",
"crs": { "type": "name", "properties": { "name": "urn:ogc:def:crs:ESRI::102016" } },
"features": [
{ "type": "Feature", "properties": { "id": 1 }, "geometry": { "type": "MultiPolygon", "coordinates": [ [ [ [ -568278.554032157175243, -6003631.805277564562857 ], [ -1090333.493621511384845, -5786108.913782000541687 ], [ -1351360.963416188023984, -5253177.829617868177593 ], [ -1373113.252565744332969, -4872512.769500629976392 ], [ -1296980.240542297251523, -4285200.962462606839836 ], [ -600906.98775649163872, -3241091.083283898886293 ], [ 51661.686730201356113, -2327494.939002529252321 ], [ 1041390.843035018071532, -1925077.589735735207796 ], [ 1400303.614002699032426, -1816316.143987953197211 ], [ 1791844.818694714456797, -1925077.589735735207796 ], [ 2020243.854765057563782, -2229609.637829524930567 ], [ 2237766.746260621584952, -2555893.975072871427983 ], [ 2553174.938929189927876, -3154081.926685673184693 ], [ 2933839.999046427197754, -3687013.010849805548787 ], [ 2901211.565322092734277, -4252572.528738272376359 ], [ 2520546.505204855464399, -4861636.624925851821899 ], [ 2259519.035410177893937, -5546833.73313687928021 ], [ 2096376.866788503713906, -5709975.901758552528918 ], [ 1541693.493474815972149, -5764356.624632444232702 ], [ 1106647.710483686998487, -5796985.058356778696179 ], [ 628097.349193446338177, -5709975.901758552528918 ], [ 95166.265029313974082, -5894870.359529782086611 ], [ -568278.554032157175243, -6003631.805277564562857 ] ] ] ] } },
{ "type": "Feature", "properties": { "id": 2 }, "geometry": { "type": "MultiPolygon", "coordinates": [ [ [ [ -590674.402032291865908, -5994300.201944175176322 ], [ -568278.554032157175243, -6003631.805277564562857 ], [ -3629.888345725637009, -5911066.450247001834214 ], [ -3629.8883457131451, -5911066.450247 ], [ -3629.888345710811791, -5911066.450246999040246 ], [ 95166.265029313974082, -5894870.359529782086611 ], [ 277036.42683699761983, -5831772.548290381208062 ], [ 277036.426836999191437, -5831772.548290381208062 ], [ 625125.614523386117071, -5711006.911746124736965 ], [ 708289.849715687450953, -5724556.356398959644139 ], [ 1106647.710483686998487, -5796985.058356778696179 ], [ 1138282.487742831232026, -5794612.450062342919409 ], [ 1138282.487742831464857, -5794612.450062342919409 ], [ 1138282.48774294834584, -5794612.450062334537506 ], [ 1541693.493474815972149, -5764356.624632444232702 ], [ 1548241.545482699759305, -5763714.658749318681657 ], [ 1712589.502472741296515, -5747602.113946372643113 ], [ 2096376.866788503713906, -5709975.901758552528918 ], [ 2096852.582273840904236, -5709500.186273215338588 ], [ 2433537.348606628365815, -5666471.323459439910948 ], [ 3183991.324266326613724, -5459824.576538654044271 ], [ 3640789.396407010965049, -5481576.865688210353255 ], [ 4021454.456524248234928, -5753480.480057665146887 ], [ 4271605.781744147650898, -5862241.925805447623134 ], [ 4391243.372066707350314, -6047136.383576677180827 ], [ 4282481.92631892580539, -6221154.696773128584027 ], [ 3716922.408430458046496, -6590943.612315587699413 ], [ 3379761.926612333394587, -6862847.226685043424368 ], [ 3238372.047140217386186, -7232636.142227502539754 ], [ 2694564.818401305936277, -7276140.720526615157723 ], [ 2107253.011363283731043, -7297893.009676171466708 ], [ 1585198.071773928590119, -7210883.853077946230769 ], [ 1291542.168254917487502, -7374026.021699619479477 ], [ 954381.686436792835593, -7700310.358942965045571 ], [ 704230.361216893419623, -7852576.382989860139787 ], [ 388822.168548325076699, -7852576.382989860139787 ], [ 95166.265029313974082, -7602425.05776996165514 ], [ -231118.072214032523334, -7352273.73255006223917 ], [ -568278.554032157175243, -7297893.009676171466708 ], [ -698792.288929495960474, -7265264.575951837003231 ], [ -698792.288929495960474, -7787319.515541191212833 ], [ -774925.300952943041921, -8135356.141934094019234 ], [ -1688521.445234312675893, -8189736.864807984791696 ], [ -2058310.360776771791279, -8146232.286508872173727 ], [ -2406346.987169674597681, -7798195.660115969367325 ], [ -2493356.143767900299281, -7526292.045746513642371 ], [ -2449851.565468787681311, -7178255.419353610835969 ], [ -2090938.794501106254756, -6851971.082110265269876 ], [ -1677645.300659534521401, -6395173.009969579987228 ], [ -1188218.794794514775276, -6199402.407623572275043 ], [ -590674.402032292098738, -5994300.201944175176322 ], [ -590674.402032291865908, -5994300.201944175176322 ] ] ] ] } },
{ "type": "Feature", "properties": { "id": 3 }, "geometry": { "type": "MultiPolygon", "coordinates": [ [ [ [ 2628592.807199773844332, -7278584.128348894417286 ], [ 2628592.807199781760573, -7278584.128348893485963 ], [ 2694564.818401305936277, -7276140.720526615157723 ], [ 3218054.92492183111608, -7234261.512004973366857 ], [ 3358009.63746277615428, -7374026.021699619479477 ], [ 3423266.504911445081234, -7645929.636069074273109 ], [ 3271000.480864550918341, -7972213.973312420770526 ], [ 3368885.782037554308772, -8113603.852784537710249 ], [ 3575532.528958341106772, -8157108.431083650328219 ], [ 3912693.010776465758681, -8178860.720233206637204 ], [ 4086711.323972916230559, -8352879.033429658040404 ], [ 3945321.444500800222158, -8548649.635775666683912 ], [ 3695170.119280900806189, -8777048.671846007928252 ], [ 3238372.047140216454864, -9070704.575365019962192 ], [ 2868583.131597757339478, -9233846.743986692279577 ], [ 2553174.938929188996553, -9527502.647505704313517 ], [ 2466165.782330963760614, -9766777.828150825574994 ], [ 2520546.505204854533076, -10093062.165394172072411 ], [ 2226890.601685842499137, -10212699.755716731771827 ], [ 2041996.143914612010121, -10245328.189441066235304 ], [ 1791844.818694714456797, -9984300.719646390527487 ], [ 1693959.51752170920372, -9690644.816127378493547 ], [ 1432932.04772703256458, -9407865.0571831446141 ], [ 1291542.16825491655618, -9212094.454837135970592 ], [ 954381.686436791904271, -9179466.021112803369761 ], [ 410574.457697881385684, -9222970.59941191598773 ], [ -57099.759017582051456, -9201218.310262359678745 ], [ -698792.288929495960474, -9462245.780057035386562 ], [ -1090333.493621512316167, -9386112.768033588305116 ], [ -1590636.144061309285462, -9168589.876538023352623 ], [ -2047434.21620199456811, -8809677.105570342391729 ], [ -2449851.565468788146973, -8331126.74428010173142 ], [ -2368280.481157951522619, -7836262.166127692908049 ], [ -2069186.505351550877094, -8135356.141934094019234 ], [ -2069186.505351549945772, -8135356.141934094019234 ], [ -2058310.360776771791279, -8146232.286508872173727 ], [ -1688521.445234312675893, -8189736.864807984791696 ], [ -774925.300952943041921, -8135356.141934094019234 ], [ -702836.633463826496154, -7805807.947698131203651 ], [ -702836.633463826263323, -7805807.947698130272329 ], [ -702836.633463826146908, -7805807.947698129341006 ], [ -698792.288929495960474, -7787319.515541191212833 ], [ -698792.288929495960474, -7765232.683764362707734 ], [ -650169.524948134785518, -7277420.266947177238762 ], [ -650169.524948134436272, -7277420.266947177238762 ], [ -568278.554032157175243, -7297893.009676171466708 ], [ -250609.093982442020206, -7349130.019361608661711 ], [ -250609.093982423772104, -7349130.019361612387002 ], [ 123878.249236657080473, -7626883.4146873280406 ], [ 388822.168548325076699, -7852576.382989860139787 ], [ 421450.602272659540176, -7852576.382989860139787 ], [ 704230.361216893419623, -7852576.382989860139787 ], [ 745979.754805316333659, -7827163.708631689660251 ], [ 745979.754805317032151, -7827163.708631689660251 ], [ 745979.754805320641026, -7827163.708631686866283 ], [ 954381.686436792835593, -7700310.358942965045571 ], [ 1041344.089055115706287, -7616153.195118782110512 ], [ 1548260.222274680389091, -7231404.880577528849244 ], [ 1548260.222274681553245, -7231404.880577527917922 ], [ 2107253.011363283731043, -7297893.009676171466708 ], [ 2628592.807199773844332, -7278584.128348894417286 ] ] ] ] } },
{ "type": "Feature", "properties": { "id": 4 }, "geometry": { "type": "MultiPolygon", "coordinates": [ [ [ [ 2478232.745654805097729, -9733593.679010262712836 ], [ 2522568.814308161847293, -9611669.490213530138135 ], [ 2547141.457267267629504, -9544094.722075987607241 ], [ 2784809.108449480030686, -9311843.248297156766057 ], [ 2953465.887736031785607, -9196398.46921980753541 ], [ 3184818.257778526749462, -9094331.247142236679792 ], [ 3238372.047140216454864, -9070704.575365019962192 ], [ 3580833.177036300301552, -8850550.991860393434763 ], [ 3695170.119280900806189, -8777048.671846007928252 ], [ 3945321.444500800222158, -8548649.635775666683912 ], [ 4054877.091475136578083, -8396957.20150350779295 ], [ 4086711.323972916230559, -8352879.033429658040404 ], [ 3945321.444500800222158, -8211489.153957541100681 ], [ 3912693.010776465758681, -8178860.720233206637204 ], [ 3737299.682410974055529, -8167545.021628981456161 ], [ 3483445.914945894386619, -8137721.775502082891762 ], [ 3308979.97771967574954, -8027073.246547601185739 ], [ 3347133.492887997068465, -7809071.80469074845314 ], [ 3423266.504911445081234, -7645929.636069074273109 ], [ 3402830.541882890742272, -7560779.790116763673723 ], [ 3358009.63746277615428, -7374026.021699619479477 ], [ 3298161.295371657237411, -7314259.015383519232273 ], [ 3247549.050638029817492, -7208634.748463992960751 ], [ 3418239.888282623142004, -6831816.61243481002748 ], [ 3850546.83338234340772, -6503573.796000893227756 ], [ 4166146.626525286119431, -6297220.085099739022553 ], [ 4282481.92631892580539, -6221154.696773128584027 ], [ 4374134.830038965679705, -6074510.050821064040065 ], [ 4989431.32367950771004, -6068888.672726234421134 ], [ 5805142.166787873953581, -6134145.540174903348088 ], [ 6261940.238928558304906, -5862241.925805448554456 ], [ 6620853.0098962392658, -5590338.311435992829502 ], [ 6947137.347139585763216, -5514205.299412545748055 ], [ 7175536.383209927007556, -5655595.178884662687778 ], [ 7501820.720453273504972, -6623572.046039923094213 ], [ 7556201.443327164277434, -7537168.190321292728186 ], [ 7556201.443327164277434, -8037470.840761090628803 ], [ 7643210.599925391376019, -8167984.575658429414034 ], [ 7871609.635995732620358, -7983090.117887198925018 ], [ 7912395.178151150234044, -7635053.491494296118617 ], [ 8271307.94911883212626, -7189131.563928389921784 ], [ 8608468.430936956778169, -6938980.238708490505815 ], [ 8978257.346479415893555, -6917227.94955893419683 ], [ 9380674.695746209472418, -7091246.262755386531353 ], [ 9576445.298092216253281, -7830824.093840304762125 ], [ 9685206.74383999966085, -8439888.190027885138988 ], [ 9598197.587241772562265, -8874933.973019011318684 ], [ 9391550.84032098762691, -9255599.033136250451207 ], [ 8902124.334455966949463, -9516626.502930928021669 ], [ 8173422.647945826873183, -9886415.41847338527441 ], [ 7803633.73240336868912, -10180071.32199239730835 ], [ 7596986.985482582822442, -10625993.249558303505182 ], [ 7194569.636215788312256, -10930525.297652095556259 ], [ 6944418.310995889827609, -10995782.165100764483213 ], [ 6607257.8291777651757, -10734754.695306086912751 ], [ 6204840.479910971596837, -10778259.273605199530721 ], [ 5704537.82947117369622, -11213305.056596327573061 ], [ 5334748.913928714580834, -11691855.417886570096016 ], [ 4714808.673166356980801, -11865873.731083020567894 ], [ 4497285.781670792028308, -12213910.357475923374295 ], [ 4127496.866128332912922, -12464061.68269582092762 ], [ 3735955.661436317488551, -12518442.405569713562727 ], [ 3464052.047066862229258, -12616327.706742716953158 ], [ 3116015.420673959888518, -12659832.285041831433773 ], [ 2713598.071407165843993, -12344424.092373263090849 ], [ 2332933.011289928574115, -11844121.441933464258909 ], [ 2202419.276392589788884, -10897896.863927759230137 ], [ 2166706.835230106022209, -10223320.420385390520096 ], [ 2226890.601685842499137, -10212699.755716731771827 ], [ 2516746.25233578402549, -10094610.416563052684069 ], [ 2520546.505204854533076, -10093062.165394172072411 ], [ 2509528.874928398057818, -10026956.383735433220863 ], [ 2478232.745654805097729, -9733593.679010262712836 ] ] ] ] } },
{ "type": "Feature", "properties": { "id": 5 }, "geometry": { "type": "MultiPolygon", "coordinates": [ [ [ [ 3697442.401610617991537, -12532307.179106965661049 ], [ 4109416.61367851216346, -12466572.828869407996535 ], [ 4109416.613678513560444, -12466572.82886940613389 ], [ 4127496.866128332912922, -12464061.68269582092762 ], [ 4439567.986544572748244, -12252954.748296601697803 ], [ 4439567.986544580198824, -12252954.748296596109867 ], [ 4497285.781670792028308, -12213910.357475923374295 ], [ 4695256.053706081584096, -11897157.922219460830092 ], [ 5126215.520531048998237, -11750391.107261354103684 ], [ 5126215.520531074143946, -11750391.107261346653104 ], [ 5334748.913928714580834, -11691855.417886570096016 ], [ 5342881.399781523272395, -11681331.024429993703961 ], [ 5342881.399781524203718, -11681331.024429993703961 ], [ 5840518.905075100250542, -11095060.643027694895864 ], [ 5840518.905075101181865, -11095060.643027694895864 ], [ 5840518.905075105838478, -11095060.643027691170573 ], [ 6230990.343762243166566, -10775432.261296954005957 ], [ 6611864.446040602400899, -10738321.108361186459661 ], [ 6944418.310995889827609, -10995782.165100764483213 ], [ 7046249.823917265981436, -10969217.422599535435438 ], [ 7292454.93738879263401, -11071915.17712421156466 ], [ 7368587.949412239715457, -11398199.514367558062077 ], [ 6977046.744720224291086, -12105148.911728139966726 ], [ 6465867.949705648235977, -12551070.839294048026204 ], [ 5824175.419793734326959, -12899107.465686950832605 ], [ 5269492.04648004565388, -13181887.224631182849407 ], [ 4812693.974339360371232, -13399410.116126749664545 ], [ 4432028.914222123101354, -13551676.140173643827438 ], [ 4138373.010703111067414, -13540799.995598863810301 ], [ 3877345.540908434428275, -13301524.814953744411469 ], [ 3659822.649412870407104, -12986116.622285176068544 ], [ 3697442.40161061566323, -12532307.179106965661049 ], [ 3697442.401610617991537, -12532307.179106965661049 ] ] ] ] } },
{ "type": "Feature", "properties": { "id": 6 }, "geometry": { "type": "MultiPolygon", "coordinates": [ [ [ [ -6044417.34743298497051, 2436256.384750326164067 ], [ -5663752.287315747700632, 2882178.312316232360899 ], [ -5370096.383796735666692, 3175834.215835244394839 ], [ -4902422.167081273160875, 3491242.408503812272102 ], [ -4249853.492594580166042, 3687013.010849820449948 ], [ -3412390.360336658544838, 3687013.010849820449948 ], [ -2955592.288195973262191, 3861031.324046271853149 ], [ -2172509.878811942413449, 3839279.034896715078503 ], [ -1063143.132184565067291, 3632632.287975929211825 ], [ -660725.782917771488428, 2958311.324339680373669 ], [ -399698.313123093917966, 2425380.240175548009574 ], [ -367069.879398759454489, 1859820.722287080716342 ], [ -334441.445674424991012, 1152871.324926496949047 ], [ -116918.554178860038519, 445921.927565913181752 ], [ 2719.036143699660897, -358912.770967674441636 ], [ -84290.120454525575042, -1566164.818768055178225 ], [ -595468.915469100698829, -2207857.348679970018566 ], [ -1248037.589955793693662, -2642903.131671098060906 ], [ -2129005.30051282979548, -3067072.770087448880076 ], [ -3216619.75799064990133, -3404233.251905573531985 ], [ -4304234.215468471869826, -3338976.384456903673708 ], [ -4641394.697286595590413, -3241091.083283900283277 ], [ -5283087.227198510430753, -2512389.396773760206997 ], [ -5729009.154764416627586, -2512389.396773760206997 ], [ -6098798.070306876674294, -2370999.517301643267274 ], [ -6599100.720746673643589, -1805439.999413176439703 ], [ -7012394.214588245376945, -1457403.373020273633301 ], [ -7121155.660336027853191, -1163747.469501261599362 ], [ -7229917.106083810329437, -489426.505865012295544 ], [ -7197288.67235947586596, 163142.168621679767966 ], [ -7012394.214588245376945, 641692.529911921359599 ], [ -6707862.166494456119835, 1196375.903225610032678 ], [ -6446834.696699778549373, 2066467.469207866583019 ], [ -6044417.34743298497051, 2436256.384750326164067 ] ] ] ] } },
{ "type": "Feature", "properties": { "id": 7 }, "geometry": { "type": "MultiPolygon", "coordinates": [ [ [ [ -7198997.393327585421503, 128967.749259492818965 ], [ -7229917.106083810329437, -489426.505865012295544 ], [ -7224456.972651239484549, -523279.333146951918025 ], [ -7224456.972651239484549, -523279.333146954071708 ], [ -7224456.972651237621903, -523279.333146960532758 ], [ -7121155.660336027853191, -1163747.469501261599362 ], [ -7012394.214588245376945, -1457403.373020273633301 ], [ -6591212.131237665191293, -1814357.535379882203415 ], [ -6591212.131237663328648, -1814357.535379883600399 ], [ -6783995.178517901338637, -2273114.21612863894552 ], [ -6522967.708723223768175, -2512389.396773759275675 ], [ -6588224.576171893626451, -2795169.155717993155122 ], [ -6544719.997872780077159, -3469490.119354241527617 ], [ -6403330.118400664068758, -3958916.625219261273742 ], [ -6348949.395526772364974, -4230820.239588716998696 ], [ -6609976.865321449935436, -4567980.721406840719283 ], [ -6958013.491714352741838, -4665866.022579845041037 ], [ -7316926.262682033702731, -4687618.311729401350021 ], [ -7643210.599925379268825, -4633237.588855510577559 ], [ -7871609.63599572237581, -4241696.384163495153189 ], [ -7893361.925145278684795, -3882783.613195814192295 ], [ -7904238.069720056839287, -3415109.396480350755155 ], [ -7882485.780570500530303, -2751664.57741887960583 ], [ -8089132.52749128639698, -2207857.348679969087243 ], [ -8187017.828664289787412, -1729306.987389727961272 ], [ -7969494.937168726697564, -1218128.192375152371824 ], [ -7621458.31077582295984, -565559.517888459376991 ], [ -7490944.575878485105932, -206646.746920778416097 ], [ -7199268.618878076784313, 123543.238249670350342 ], [ -7198997.393327583558857, 128967.749259535019519 ], [ -7198997.393327585421503, 128967.749259492818965 ] ] ] ] } },
{ "type": "Feature", "properties": { "id": 8 }, "geometry": { "type": "MultiPolygon", "coordinates": [ [ [ [ -6163844.300244896672666, 2326512.69838262302801 ], [ -6446834.696699778549373, 2066467.469207866583019 ], [ -6454318.282416368834674, 2041522.1834858993534 ], [ -6721626.835137985646725, 1171304.54248203872703 ], [ -7012394.214588245376945, 641692.529911921359599 ], [ -7023363.234105459414423, 613302.126455602236092 ], [ -7197288.67235947586596, 163142.168621679767966 ], [ -7197749.755795313976705, 153920.499904910859186 ], [ -7333863.152790766209364, -28823.681580448137538 ], [ -7490944.575878485105932, -206646.746920778416097 ], [ -7514443.399193334393203, -271268.511036614421755 ], [ -7735864.814261379651725, -780071.711923877941445 ], [ -7969494.937168726697564, -1218128.192375152371824 ], [ -8187017.828664289787412, -1729306.987389727961272 ], [ -8182747.175960658118129, -1750185.733940814621747 ], [ -8089132.52749128639698, -2207857.348679969087243 ], [ -8013147.774691333062947, -2407817.224469320848584 ], [ -7911774.951452008448541, -2674587.811941226944327 ], [ -7890575.412047301419079, -2730376.07353256130591 ], [ -7901365.015690102241933, -3327481.248566728550941 ], [ -7903998.648550894111395, -3407807.050820882432163 ], [ -8197893.973239067941904, -2969187.468914444558322 ], [ -8426293.009309411048889, -2458008.673899868503213 ], [ -9078861.683796104043722, -2066467.469207853078842 ], [ -9122366.262095216661692, -1696678.553665393963456 ], [ -9448650.599338563159108, -1533536.385043720714748 ], [ -9600916.623385457322001, -837463.132257915101945 ], [ -9677049.635408904403448, -206646.746920778416097 ], [ -9568288.189661122858524, 271903.614369462709874 ], [ -9067985.53922132588923, 967976.867155267857015 ], [ -8491549.876758079975843, 1881573.011436637956649 ], [ -7947742.648019169457257, 2240485.782404318917543 ], [ -6914508.913415239192545, 2360123.37272687908262 ], [ -6425082.407550220377743, 2479760.963049439713359 ], [ -6005381.49474374204874, 2481984.09790058247745 ], [ -6163844.300244896672666, 2326512.69838262302801 ] ] ] ] } },
{ "type": "Feature", "properties": { "id": 9 }, "geometry": { "type": "MultiPolygon", "coordinates": [ [ [ [ -9144118.551244774833322, -1685802.409090614644811 ], [ -9081788.084307223558426, -2041593.064863334875554 ], [ -9078861.683796104043722, -2066467.469207853078842 ], [ -9077262.250770403072238, -2067427.129023273475468 ], [ -8426293.009309411048889, -2458008.673899868503213 ], [ -8197893.973239067941904, -2969187.468914444558322 ], [ -8172644.614915246143937, -3006870.487530515529215 ], [ -7904226.390638634562492, -3414753.184496960137039 ], [ -7904238.069720056839287, -3415109.396480350755155 ], [ -7893361.925145278684795, -3882783.613195814192295 ], [ -7874893.375894786790013, -4187514.675828938838094 ], [ -7871609.63599572237581, -4241696.384163495153189 ], [ -7678318.569200442172587, -4573052.498669688589871 ], [ -7643210.599925379268825, -4633237.588855510577559 ], [ -7419220.811655625700951, -4670569.220233802683651 ], [ -6914508.913415241986513, -5862241.925805444829166 ], [ -6044417.347432984039187, -6493058.311142580583692 ], [ -5283087.227198509499431, -7558920.47947084531188 ], [ -5326591.8054976221174, -8559525.780350441113114 ], [ -6196683.371479880064726, -9690644.816127374768257 ], [ -7066774.937462136149406, -10060433.731669833883643 ], [ -8350159.997285965830088, -10147442.888268059119582 ], [ -9329013.009016003459692, -10060433.731669833883643 ], [ -10068590.840100921690464, -9908167.70762293972075 ], [ -11199709.875877857208252, -9451369.63548225350678 ], [ -11982792.285261888056993, -8820553.250145118683577 ], [ -12461342.646552128717303, -8385507.467153990641236 ], [ -13135663.610188378021121, -7906957.105863748118281 ], [ -13701223.12807684391737, -7819947.949265522882342 ], [ -14245030.356815755367279, -7384902.166274394840002 ], [ -14897599.031302448362112, -7036865.539881492033601 ], [ -15550167.705789141356945, -6275535.419647016562521 ], [ -15832947.464733373373747, -5166168.673019639216363 ], [ -15832947.464733373373747, -4339581.685336495749652 ], [ -15419653.970891801640391, -3534746.986802907660604 ], [ -14897599.031302448362112, -3121453.492961335927248 ], [ -13005149.875291038304567, -2577646.264222425408661 ], [ -12243819.755056563764811, -1925077.589735732413828 ], [ -11090948.430130073800683, -1598793.252492386382073 ], [ -10220856.864147815853357, -1555288.674193273298442 ], [ -9409496.478869363665581, -1553113.445278320228681 ], [ -9144118.551244774833322, -1685802.409090614644811 ] ] ] ] } },
{ "type": "Feature", "properties": { "id": 10 }, "geometry": { "type": "MultiPolygon", "coordinates": [ [ [ [ 6669795.660482743754983, -3643508.432550691068172 ], [ 5995474.696846494451165, -3143205.782110892236233 ], [ 5930217.829397825524211, -2468884.818474642932415 ], [ 5669190.359603147953749, -1446527.228445492684841 ], [ 5234144.576612019911408, -793958.553958799690008 ], [ 4538071.323826214298606, -402417.349266784265637 ], [ 4233539.275732424110174, 641692.529911924153566 ], [ 3907254.938489077612758, 1555288.674193293787539 ], [ 3689732.046993513591588, 2012086.746333979070187 ], [ 3624475.179544844664633, 2708159.999119784682989 ], [ 3689732.046993513591588, 3600003.854251598007977 ], [ 3754988.914442182518542, 3839279.034896718338132 ], [ 3167677.107404159381986, 4230820.239588733762503 ], [ 3276438.553151941858232, 4796379.757477201521397 ], [ 4298796.143181093037128, 5427196.142814337275922 ], [ 5255896.865761576220393, 5862241.925805466249585 ], [ 6365263.612388953566551, 6232030.841347925364971 ], [ 7779162.407110121101141, 6014507.949852360412478 ], [ 8845024.575438385829329, 6014507.949852360412478 ], [ 9606354.695672860369086, 5905746.504104578867555 ], [ 10302427.948458665981889, 5166168.673019660636783 ], [ 10911492.044646246358752, 3774022.167448049411178 ], [ 11150767.225291365757585, 3099701.20381180010736 ], [ 11042005.779543584212661, 1903325.30058619659394 ], [ 10693969.15315068140626, 706949.397360593080521 ], [ 10215418.79186044074595, -706949.397360574454069 ], [ 9562850.117373747751117, -1794563.854838395491242 ], [ 8845024.575438385829329, -2490637.107624201104045 ], [ 7713905.539661452174187, -3143205.782110892236233 ], [ 6669795.660482743754983, -3643508.432550691068172 ] ] ] ] } },
{ "type": "Feature", "properties": { "id": 11 }, "geometry": { "type": "MultiPolygon", "coordinates": [ [ [ [ 4533929.687972138635814, -388217.454909953929018 ], [ 3972511.805937747471035, -880967.710557026788592 ], [ 3319943.131451054476202, -1903325.300586177036166 ], [ 3167677.107404159381986, -2860426.023166660219431 ], [ 2933839.999046427197754, -3687013.010849805548787 ], [ 2665978.195160842034966, -3312006.485409985762089 ], [ 2241315.700316772796214, -2562624.750006951391697 ], [ 2237766.746260621584952, -2555893.975072871427983 ], [ 2020243.854765057563782, -2229609.637829524930567 ], [ 1791844.818694714456797, -1925077.589735735207796 ], [ 1536255.421187427826226, -1250756.626099485903978 ], [ 1144714.216495412401855, -358912.770967671647668 ], [ 426888.674560050480068, 946224.578005714341998 ], [ -95166.265029303729534, 2099095.902932204306126 ], [ -95166.265029303729534, 2969187.468914460390806 ], [ 426888.674560050480068, 3447737.830204701982439 ], [ 1231723.373093637637794, 3839279.034896717406809 ], [ 1862539.758430774323642, 3665260.721700266003609 ], [ 2493356.143767910078168, 3861031.324046273715794 ], [ 3189429.39655371569097, 3752269.87829849217087 ], [ 3692241.926510769873857, 3609206.745814871042967 ], [ 3689732.046993513591588, 3600003.854251598007977 ], [ 3657953.110951942857355, 3165691.728350127581507 ], [ 3624475.179544844664633, 2708159.999119784682989 ], [ 3679814.013896281365305, 2117879.099371124058962 ], [ 3689732.046993513591588, 2012086.746333979070187 ], [ 3872735.625276196748018, 1627779.231940343277529 ], [ 3965818.793891729786992, 1391309.879065867979079 ], [ 4192692.216922171413898, 756064.294580632005818 ], [ 4533929.687972138635814, -388217.454909953929018 ] ] ] ] } },
{ "type": "Feature", "properties": { "id": 13 }, "geometry": { "type": "MultiPolygon", "coordinates": [ [ [ [ 6620853.0098962392658, -5590338.311435992829502 ], [ 6296596.051994577050209, -5835987.521967555396259 ], [ 5766453.178733716718853, -6131050.421130570583045 ], [ 5060541.251443859189749, -6074577.466947382315993 ], [ 4989431.32367950771004, -6068888.672726234421134 ], [ 4440430.576250581070781, -6073904.369723599404097 ], [ 4293053.00830197148025, -5895387.639576630666852 ], [ 4271605.781744147650898, -5862241.925805447623134 ], [ 4088864.074369675014168, -5782789.009555676952004 ], [ 3670110.894280906300992, -5502520.79274099227041 ], [ 3640789.396407010965049, -5481576.865688210353255 ], [ 3265377.85861265938729, -5463700.125793240964413 ], [ 3183991.324266326613724, -5459824.576538654044271 ], [ 2690599.336169094312936, -5595686.13847847096622 ], [ 2135147.090560765005648, -5704606.085593975149095 ], [ 2184087.952470635995269, -5622264.816076420247555 ], [ 2259519.035410177893937, -5546833.73313687928021 ], [ 2314136.664403520058841, -5403462.457029356621206 ], [ 2349304.138210920151323, -5311147.838284932076931 ], [ 2446804.091295863967389, -5055210.461436953395605 ], [ 2705379.861040271818638, -4565903.255589185282588 ], [ 2901211.565322092734277, -4252572.528738272376359 ], [ 2907964.556673443410546, -4135520.678648196626455 ], [ 2944832.301699560135603, -3648156.499145708046854 ], [ 3143330.984392361715436, -2946486.737068829126656 ], [ 3167677.107404159381986, -2860426.023166660219431 ], [ 3246379.848296911921352, -2365723.080412215087563 ], [ 3321727.252947720699012, -1900530.176908066729084 ], [ 3645282.93378440104425, -1393626.276930602267385 ], [ 3945540.086841079872102, -923223.403808472794481 ], [ 4500765.759237169288099, -417325.067769026616588 ], [ 5344579.275371306575835, -959610.602097730152309 ], [ 5667517.106591643765569, -1444017.348928236635402 ], [ 5930217.829397825524211, -2468884.818474642932415 ], [ 5991808.202747575007379, -3105318.676422053482383 ], [ 5995474.696846494451165, -3143205.782110892236233 ], [ 6669795.660482743754983, -3643508.432550691068172 ], [ 6745533.246141488663852, -3607217.50608920911327 ], [ 7137469.877198207192123, -4100306.50469137635082 ], [ 7224479.033796432428062, -4839884.335776294581592 ], [ 7137469.877198207192123, -5231425.540468310937285 ], [ 6930977.84887779969722, -5517975.849006962962449 ], [ 6620853.0098962392658, -5590338.311435992829502 ] ] ] ] } },
{ "type": "Feature", "properties": { "id": 12 }, "geometry": { "type": "MultiPolygon", "coordinates": [ [ [ [ 8051066.021479578688741, 6525686.744866935536265 ], [ 7442001.925292000174522, 6612695.901465160772204 ], [ 6615414.937608854845166, 7112998.551904959604144 ], [ 5549552.769280590116978, 6634448.190614718943834 ], [ 4244415.420307205989957, 6525686.744866935536265 ], [ 2874021.203885151073337, 6743209.636362500488758 ], [ 1264351.806817974895239, 7417530.599998748861253 ], [ 807553.734677290543914, 8113603.852784554474056 ], [ 176737.349340153858066, 9135961.442813705652952 ], [ -693354.216642102226615, 10484603.370086204260588 ], [ -802115.662389883771539, 11289438.068619791418314 ], [ -454079.035996980965137, 12246538.791200274601579 ], [ 611783.132331283763051, 13160134.935481645166874 ], [ 1916920.481304667890072, 13290648.670378983020782 ], [ 3526589.87837184406817, 13747446.742519667372108 ], [ 4461938.311802769079804, 13812703.609968338161707 ], [ 5810580.23907526768744, 13616933.007622329518199 ], [ 6658919.515907969325781, 13551676.140173660591245 ], [ 7833543.129984015598893, 13290648.670378983020782 ], [ 8725386.985115827992558, 12638079.995892290025949 ], [ 9160432.768106957897544, 11942006.743106484413147 ], [ 9965267.46664054505527, 11093667.466273784637451 ], [ 11183395.659015705808997, 9462245.780057054013014 ], [ 12423276.140540419146419, 8592154.214074796065688 ], [ 12836569.634381992742419, 7830824.093840321525931 ], [ 13119349.393326224759221, 6851971.082110282033682 ], [ 13358624.573971347883344, 5525081.443987339735031 ], [ 13249863.12822356261313, 4524476.143107745796442 ], [ 12771312.766933323815465, 3893659.757770609110594 ], [ 12162248.670745743438601, 4067678.070967059582472 ], [ 11618441.442006831988692, 4437466.986509518697858 ], [ 11009377.345819251611829, 5394567.709090001881123 ], [ 10552579.273678569123149, 5829613.492081129923463 ], [ 10074028.912388326600194, 5916622.648679357022047 ], [ 9225689.635555626824498, 6416925.299119153991342 ], [ 8768891.563414940610528, 6482182.166567822918296 ], [ 8051066.021479578688741, 6525686.744866935536265 ] ] ] ] } }
]
}
