{
"type": "FeatureCollection",
"name": "map011",
"crs": { "type": "name", "properties": { "name": "urn:ogc:def:crs:ESRI::102016" } },
"features": [
{ "type": "Feature", "properties": { "id": 1 }, "geometry": { "type": "MultiPolygon", "coordinates": [ [ [ [ -1275227.951392740942538, -6732333.491787703707814 ], [ -622659.276906048879027, -7308769.154250947758555 ], [ -46223.614442803896964, -7591548.913195181638002 ], [ 486707.469721328467131, -7700310.358942963182926 ], [ 1063143.132184573449194, -7635053.491494294255972 ], [ 1476436.62602614518255, -7428406.744573508389294 ], [ 1759216.384970378130674, -7363149.877124838531017 ], [ 1998491.565615498460829, -7363149.877124838531017 ], [ 2205138.312536284327507, -7624177.34691951610148 ], [ 2020243.854765055701137, -8080975.419060200452805 ], [ 1509065.059750479646027, -8363755.178004434332252 ], [ 954381.686436790972948, -8483392.768326994031668 ], [ 573716.62631955370307, -8613906.503224331885576 ], [ 432326.746847437694669, -9114209.153664130717516 ], [ 269184.578225763980299, -9429617.34633269906044 ], [ -361631.807111371774226, -9560131.081230036914349 ], [ -1003324.337023285683244, -9636264.093253483995795 ], [ -1710273.734383868984878, -9505750.358356144279242 ], [ -2232328.67397322319448, -9364360.478884030133486 ], [ -2634746.023240016773343, -8809677.105570340529084 ], [ -2743507.468987798783928, -8211489.153957539238036 ], [ -2700002.890688685700297, -7798195.66011596750468 ], [ -2547736.866641791071743, -7428406.744573508389294 ], [ -2308461.685996670275927, -7091246.262755383737385 ], [ -1949548.915028989780694, -6862847.226685041561723 ], [ -1275227.951392740942538, -6732333.491787703707814 ] ] ] ] } },
{ "type": "Feature", "properties": { "id": 2 }, "geometry": { "type": "MultiPolygon", "coordinates": [ [ [ [ -1275227.951392740942538, -6732333.491787703707814 ], [ -1166466.505644958931953, -6395173.009969579055905 ], [ -807553.734677277971059, -6090640.961875788867474 ], [ -470393.252859153784811, -6025384.094427119940519 ], [ 225679.99992665136233, -5992755.660702785477042 ], [ 736858.794941226951778, -5883994.214955003000796 ], [ 1182780.722507133148611, -5949251.082403672859073 ], [ 1519941.204325257800519, -6047136.383576676249504 ], [ 1965863.131891163997352, -5949251.082403672859073 ], [ 2955592.288195980712771, -5655595.178884660825133 ], [ 3423266.504911444149911, -5525081.443987322039902 ], [ 3901816.866201684810221, -5546833.733136878348887 ], [ 4151968.191421583294868, -5731728.19090810790658 ], [ 4282481.9263189220801, -6112393.251025345176458 ], [ 4075835.179398136213422, -6406049.154544357210398 ], [ 3434142.649486222304404, -6819342.648385928943753 ], [ 3260124.336289770901203, -6971608.672432823106647 ], [ 2661936.384676969610155, -7058617.829031049273908 ], [ 2096376.866788502782583, -7200007.708503166213632 ], [ 1759216.384970378130674, -7363149.877124838531017 ], [ 1341572.433298894902691, -7495838.840937133878469 ], [ 1021202.119133645086549, -7639801.53070760704577 ], [ 572818.245308983256109, -7690561.969253795221448 ], [ 323565.301099655218422, -7526292.045746512711048 ], [ -452457.757056786329485, -7392264.239460020326078 ], [ -814285.777980156010017, -7139499.078302153386176 ], [ -1275227.951392740942538, -6732333.491787703707814 ] ] ] ] } },
{ "type": "Feature", "properties": { "id": 3 }, "geometry": { "type": "MultiPolygon", "coordinates": [ [ [ [ 3228171.920616053044796, -6976256.29653081856668 ], [ 3737985.69106075540185, -6623647.130083687603474 ], [ 4160389.719881318509579, -6285892.702278782613575 ], [ 4402119.516641480848193, -6068888.672726234421134 ], [ 5011183.612829060293734, -6188526.263048795051873 ], [ 5848646.745086981914937, -6308163.853371355682611 ], [ 6185807.226905106566846, -6177650.11847401689738 ], [ 6783995.178517906926572, -5971003.371553231030703 ], [ 7088527.226611697115004, -5775232.769207223318517 ], [ 6979765.780863913707435, -6612695.901465144939721 ], [ 6838375.901391797699034, -7395778.31084917485714 ], [ 6783995.178517906926572, -7841700.238415081053972 ], [ 6675233.732770125381649, -8254993.732256652787328 ], [ 6283692.528078109957278, -8254993.732256652787328 ], [ 5870399.034236538223922, -8352879.033429657109082 ], [ 5511486.263268857263029, -8613906.503224333748221 ], [ 5239582.648899401538074, -9048952.286215461790562 ], [ 4891546.022506500594318, -8603030.358649555593729 ], [ 4510880.96238926332444, -8374631.322579213418067 ], [ 4119339.757697247900069, -8352879.033429657109082 ], [ 3749550.842154788784683, -8211489.153957540169358 ], [ 3347133.49288799520582, -7841700.238415081053972 ], [ 3271000.480864548124373, -7363149.877124840393662 ], [ 3228171.920616053044796, -6976256.29653081856668 ] ] ] ] } },
{ "type": "Feature", "properties": { "id": 4 }, "geometry": { "type": "MultiPolygon", "coordinates": [ [ [ [ 2010144.308381750714034, -8086562.402165859006345 ], [ 2303023.613709288649261, -7787319.51554119028151 ], [ 2433537.34860662650317, -7352273.73255006223917 ], [ 2498154.442845014855266, -7099563.3144890377298 ], [ 3258575.128257104661316, -6971834.011783028952777 ], [ 3315606.371536220423877, -7643529.761346780695021 ], [ 3526747.097887471318245, -8006750.578144329600036 ], [ 3772994.063970310613513, -8220452.738769357092679 ], [ 4171143.670933421701193, -8355757.028609444387257 ], [ 4552466.221057532355189, -8399582.477780174463987 ], [ 4896821.254181956872344, -8609789.249233733862638 ], [ 5240804.687615668401122, -9046997.024269433692098 ], [ 5315715.660922850482166, -9734149.394426487386227 ], [ 5043812.046553394757211, -10180071.321992393583059 ], [ 4597890.118987488560379, -10256204.334015842527151 ], [ 4043206.7456737998873, -10354089.635188845917583 ], [ 3553780.239808781072497, -10267080.478590618818998 ], [ 3086106.02309331856668, -10234452.044866286218166 ], [ 2759821.685849973000586, -10332337.346039289608598 ], [ 2400908.914882292039692, -10430222.647212292999029 ], [ 2150757.589662393555045, -10375841.924338402226567 ], [ 1867977.830718160606921, -10071309.876244612038136 ], [ 1519941.204325257800519, -9755901.683576043695211 ], [ 1226285.300806246697903, -9483998.069206589832902 ], [ 1041390.84303501714021, -9364360.478884030133486 ], [ 856496.385263787582517, -9266475.177711024880409 ], [ 725982.650366449728608, -9070704.575365018099546 ], [ 736858.794941227883101, -8853181.683869455009699 ], [ 1095771.565908907912672, -8570401.924925221130252 ], [ 2010144.308381750714034, -8086562.402165859006345 ] ] ] ] } },
{ "type": "Feature", "properties": { "id": 5 }, "geometry": { "type": "MultiPolygon", "coordinates": [ [ [ [ 2723930.408753205090761, -10342125.876156589016318 ], [ 3117066.156923244241625, -10236612.054203256964684 ], [ 3552269.989378053229302, -10266975.112281497567892 ], [ 4161092.473782973363996, -10333286.271404873579741 ], [ 4659494.362159888260067, -10245686.536401042714715 ], [ 5080836.216072913259268, -10119351.683980384841561 ], [ 5308994.712952747009695, -9745171.749097457155585 ], [ 5266467.500657280907035, -9005936.523402854800224 ], [ 5551581.023268850520253, -8584746.677769793197513 ], [ 5882594.579956453293562, -8349990.614706519059837 ], [ 6218435.660629441030324, -8157108.431083649396896 ], [ 6680023.744629483669996, -8236791.687191091477871 ], [ 7425687.708429819904268, -9016323.852491127327085 ], [ 7621458.310775828547776, -9266475.177711024880409 ], [ 7425687.708429819904268, -10093062.16539416834712 ], [ 7077651.082036918960512, -10658621.683282636106014 ], [ 6881880.479690910317004, -11093667.466273762285709 ], [ 6827499.756817019544542, -11539589.393839668482542 ], [ 6707862.166494459845126, -12116025.056302914395928 ], [ 6359825.540101557038724, -12529318.550144486129284 ], [ 5783389.877638312987983, -12822974.453663498163223 ], [ 5337467.950072406791151, -12844726.742813054472208 ], [ 4858917.588782166130841, -12920859.75483649969101 ], [ 4380367.227491924539208, -12942612.043986056 ], [ 3999702.16737468726933, -12822974.453663498163223 ], [ 3390638.071187108755112, -12420557.10439670458436 ], [ 2966468.432770758867264, -11985511.321405574679375 ], [ 2727193.252125638537109, -11659226.984162230044603 ], [ 2792450.119574307464063, -10963153.731376424431801 ], [ 2723930.408753205090761, -10342125.876156589016318 ] ] ] ] } },
{ "type": "Feature", "properties": { "id": 6 }, "geometry": { "type": "MultiPolygon", "coordinates": [ [ [ [ -9481279.033062890172005, -152266.024046893231571 ], [ -9742306.502857569605112, 21752.28914955817163 ], [ -9285508.430716883391142, 1087614.457477821037173 ], [ -7980371.081743500195444, 2131724.336656528525054 ], [ -6457710.841274552047253, 2827797.589442333206534 ], [ -4848041.4442073777318, 3284595.661583017557859 ], [ -3086106.023093309253454, 3436861.685629912652075 ], [ -1541693.493474805727601, 3241091.08328390493989 ], [ -258308.433650977909565, 2719036.143694551661611 ], [ -106042.409604083746672, 2414504.095600761473179 ], [ -845620.240689000114799, 1479155.662169836461544 ], [ -1541693.493474805727601, 239275.1806451221928 ], [ -2041996.143914602696896, -1218128.192375157028437 ], [ -2651060.240102181211114, -2218733.493254750967026 ], [ -3455894.93863576836884, -2545017.830498097464442 ], [ -4456500.239515362307429, -2610274.697946766391397 ], [ -5196078.070600280538201, -2327494.93900253251195 ], [ -6348949.395526770502329, -1761935.421114066615701 ], [ -9481279.033062890172005, -152266.024046893231571 ] ] ] ] } },
{ "type": "Feature", "properties": { "id": 7 }, "geometry": { "type": "MultiPolygon", "coordinates": [ [ [ [ -9608417.412747368216515, 334160.166073359490838 ], [ -8458921.443033739924431, 87009.156598227098584 ], [ -7306050.118107251822948, -717825.541935360059142 ], [ -6805747.467667454853654, -1218128.192375157028437 ], [ -6174281.94658525288105, -1847621.339462735690176 ], [ -5565866.986142739653587, -2545017.830498097464442 ], [ -5348344.094647174701095, -3458613.974779466167092 ], [ -5696380.721040077507496, -4024173.492667932063341 ], [ -6435958.552124995738268, -3958916.625219263136387 ], [ -7458316.142154145985842, -3436861.685629909858108 ], [ -8154389.394939950667322, -2914806.746040556579828 ], [ -9154994.695819545537233, -2240485.782404307276011 ], [ -10112095.418400026857853, -1631421.686216728761792 ], [ -10677654.936288494616747, -1131119.035776931792498 ], [ -11025691.562681395560503, -565559.517888464964926 ], [ -11199709.875877846032381, 87009.156598227098584 ], [ -11090948.430130064487457, 609064.096187580376863 ], [ -10286113.731596477329731, 565559.517888467758894 ], [ -9608417.412747368216515, 334160.166073359490838 ] ] ] ] } },
{ "type": "Feature", "properties": { "id": 8 }, "geometry": { "type": "MultiPolygon", "coordinates": [ [ [ [ -10870344.742317182943225, -817998.100980312912725 ], [ -10029052.855705544352531, -1684266.953385944943875 ], [ -8544940.895218271762133, -2651608.995852992404252 ], [ -7924685.221520635299385, -3087084.876105043105781 ], [ -6958013.491714349016547, -4328705.540761722251773 ], [ -5756199.516201354563236, -5960127.22697845287621 ], [ -5603933.492154460400343, -7591548.913195181638002 ], [ -6104236.142594257369637, -8548649.635775664821267 ], [ -6691547.949632279574871, -9135961.442813687026501 ], [ -7670400.961362319067121, -10136566.74369328096509 ], [ -8888529.153737476095557, -10375841.924338402226567 ], [ -10237171.081009972840548, -10267080.478590618818998 ], [ -11781583.610628478229046, -9614511.80410392768681 ], [ -13086720.959601862356067, -8961943.129617236554623 ], [ -14087326.260481456294656, -8244117.587681874632835 ], [ -15022674.693912381306291, -7112998.551904940977693 ], [ -15827509.392445968464017, -5894870.359529783949256 ], [ -16132041.440539758652449, -4459219.275659061037004 ], [ -15958023.127343308180571, -3241091.083283902145922 ], [ -14522372.043472584336996, -1566164.818768059834838 ], [ -13630528.188340771943331, -1065862.168328262865543 ], [ -12368895.417666500434279, -696073.252785803750157 ], [ -10870344.742317182943225, -817998.100980312912725 ] ] ] ] } }
]
}
