{
"type": "FeatureCollection",
"name": "map022",
"crs": { "type": "name", "properties": { "name": "urn:ogc:def:crs:ESRI::102016" } },
"features": [
{ "type": "Feature", "properties": { "id": 1 }, "geometry": { "type": "MultiPolygon", "coordinates": [ [ [ [ -650793.918114898726344, -6014518.970317393541336 ], [ -143860.785937458276749, -6183496.681043207645416 ], [ 210992.406586749479175, -5997621.199244812130928 ], [ 717925.53876418992877, -5913132.343881906010211 ], [ 1072778.731288397684693, -5828643.48851899895817 ], [ 1224858.670941630378366, -6132803.367825463414192 ], [ 1393836.381667444482446, -6267985.536406113766134 ], [ 1664200.718828745186329, -6166598.909970626235008 ], [ 1816280.658481977880001, -6301781.07855127658695 ], [ 2171133.851006185635924, -6301781.07855127658695 ], [ 2306316.019586836919188, -5997621.199244812130928 ], [ 2847044.6939094401896, -5896234.572809324599802 ], [ 3151204.573215903714299, -6538349.87356741540134 ], [ 3269488.970723973587155, -6741123.126438391394913 ], [ 3168102.344288485124707, -7146669.632180344313383 ], [ 2542884.814602974802256, -7366340.656123901717365 ], [ 1765587.345264233648777, -7197362.945398088544607 ], [ 1309347.526304537430406, -7417033.969341645948589 ], [ 1106574.273433560505509, -7636704.993285203352571 ], [ 532050.056965794414282, -7822580.475083597935736 ], [ 8219.153715772554278, -7467727.282559390179813 ], [ -650793.918114898726344, -7095976.318962600082159 ], [ -1039442.652784271165729, -6859407.523946461267769 ], [ -1343602.532090734690428, -6639736.500002903863788 ], [ -1056340.423856852576137, -6436963.247131927870214 ], [ -650793.918114898726344, -6014518.970317393541336 ] ] ] ] } },
{ "type": "Feature", "properties": { "id": 2 }, "geometry": { "type": "MultiPolygon", "coordinates": [ [ [ [ 4807186.13832887634635, -4290946.320914096198976 ], [ 5009959.391199853271246, -3868502.044099562801421 ], [ 5415505.896941803395748, -3581239.935865679755807 ], [ 5652074.69195794314146, -3496751.080502772703767 ], [ 6192803.366280548274517, -3868502.044099562801421 ], [ 6226598.908425711095333, -4307844.091986677609384 ], [ 5922439.029119245707989, -4780981.682018955238163 ], [ 5432403.668014384806156, -5017550.477035094052553 ], [ 4993061.620127271860838, -5068243.790252838283777 ], [ 4773390.596183713525534, -4933061.621672187000513 ], [ 4807186.13832887634635, -4290946.320914096198976 ] ] ] ] } },
{ "type": "Feature", "properties": { "id": 3 }, "geometry": { "type": "MultiPolygon", "coordinates": [ [ [ [ -1327561.645960981957614, -6651321.584429947659373 ], [ -790707.462595873628743, -7010811.552756790071726 ], [ -429917.716483870986849, -7220573.150651898235083 ], [ 114890.853343362628948, -7539988.756500660441816 ], [ 539698.382478677900508, -7820106.016829430125654 ], [ 1068107.695118764648214, -7649150.062739990651608 ], [ 1350500.561199565418065, -7397219.545132928527892 ], [ 1680740.964678186457604, -7238214.906421000137925 ], [ 1748821.29401070275344, -7205435.488594233058393 ], [ 2133540.885578465182334, -7277352.845466399565339 ], [ 2137338.308861021883786, -7966211.529200538992882 ], [ 2196480.507615056820214, -8473144.661377979442477 ], [ 2103542.766715860925615, -8718162.341930409893394 ], [ 1833178.429554558359087, -9056117.763382036238909 ], [ 1402285.267203734256327, -9233544.359644141048193 ], [ 1055880.960215816274285, -9284237.672861885279417 ], [ 599641.141256120055914, -9334930.986079629510641 ], [ 236339.063195620663464, -9292686.558398175984621 ], [ -287491.840054401196539, -9199748.817498978227377 ], [ -667691.689187481068075, -9216646.588571559637785 ], [ -1081687.080465723760426, -9123708.847672361880541 ], [ -1529478.013889130204916, -9022322.221236873418093 ], [ -1994166.718385117128491, -8785753.42622073367238 ], [ -2382815.453054487705231, -8481593.546914270147681 ], [ -2492650.965026266872883, -8033802.613490864634514 ], [ -2458855.422881104052067, -7721193.848648110404611 ], [ -2146246.658038348890841, -7079078.547890018671751 ], [ -1791393.465514141134918, -6707327.58429322950542 ], [ -1327561.645960981957614, -6651321.584429947659373 ] ] ] ] } },
{ "type": "Feature", "properties": { "id": 4 }, "geometry": { "type": "MultiPolygon", "coordinates": [ [ [ [ 6011152.327250296249986, -5296363.699732684530318 ], [ 6501187.688355155289173, -4992203.820426220074296 ], [ 6991223.049460014328361, -5025999.362571382895112 ], [ 7464360.63949229195714, -5363954.78402301017195 ], [ 7853009.374161664396524, -5921581.229418193921447 ], [ 8005089.313814895227551, -6546798.759103704243898 ], [ 8038884.855960058048368, -7070629.662353726103902 ], [ 7751622.747726175934076, -7594460.565603747963905 ], [ 7481258.410564873367548, -7898620.444910212419927 ], [ 7143302.989113247022033, -8000007.071345699951053 ], [ 6720858.712298713624477, -8084495.926708607003093 ], [ 6247721.122266435995698, -7712744.963111816905439 ], [ 5926663.471887389197946, -7307198.457369864918292 ], [ 5740787.990088995546103, -6766469.78304726164788 ], [ 5706992.447943832725286, -6276434.421942402608693 ], [ 5723890.219016414135695, -5786399.060837543569505 ], [ 6011152.327250296249986, -5296363.699732684530318 ] ] ] ] } },
{ "type": "Feature", "properties": { "id": 5 }, "geometry": { "type": "MultiPolygon", "coordinates": [ [ [ [ 1752914.016959796659648, -4975306.049353640526533 ], [ 1812056.215713831596076, -4662697.284510884433985 ], [ 1981033.926439644768834, -4459924.031639908440411 ], [ 2124664.98055658582598, -4417679.603958455845714 ], [ 2276744.920209818519652, -4417679.603958455845714 ], [ 2344336.004500144161284, -4434577.375031036324799 ], [ 2487967.05861708521843, -4459924.031639908440411 ], [ 2589353.685052573680878, -4569759.543611687608063 ], [ 2614700.34166144579649, -4797879.453091535717249 ], [ 2597802.570588864386082, -5059794.904716546647251 ], [ 2547109.257371120154858, -5313261.470805266872048 ], [ 2454171.516471922397614, -5490688.067067371681333 ], [ 2276744.920209818519652, -5617421.35011173132807 ], [ 2006380.583048516884446, -5600523.579039149917662 ], [ 1862749.528931574895978, -5507585.838139953091741 ], [ 1761362.902496087364852, -5245670.386514941230416 ], [ 1752914.016959796659648, -4975306.049353640526533 ] ] ] ] } },
{ "type": "Feature", "properties": { "id": 6 }, "geometry": { "type": "MultiPolygon", "coordinates": [ [ [ [ -7659144.470468017272651, -2297009.334349496290088 ], [ -7186006.880435739643872, -2381498.189712402876467 ], [ -6915642.543274438008666, -2702555.840091448277235 ], [ -6932540.314347019419074, -3243284.514414051547647 ], [ -6966335.85649218223989, -3902297.586244724690914 ], [ -7253597.964726064354181, -4307844.091986676678061 ], [ -7490166.759742204099894, -4426128.489494746550918 ], [ -7828122.181193830445409, -4240253.007696351036429 ], [ -7997099.891919644549489, -3868502.044099561870098 ], [ -8030895.434064807370305, -3378466.682994702830911 ], [ -8030895.434064807370305, -2905329.092962425202131 ], [ -7929508.807629318907857, -2533578.129365635104477 ], [ -7659144.470468017272651, -2297009.334349496290088 ] ] ] ] } },
{ "type": "Feature", "properties": { "id": 7 }, "geometry": { "type": "MultiPolygon", "coordinates": [ [ [ [ -1153502.607524184510112, 13755873.184602785855532 ], [ -494489.535693511366844, 14583863.967159271240234 ], [ 130727.993991998955607, 15040103.786118967458606 ], [ 1043207.63191139139235, 15530139.147223826497793 ], [ 1989482.811975946649909, 15817401.25545771047473 ], [ 2851269.136677594855428, 15884992.339748036116362 ], [ 3358202.268855035305023, 15749810.171167384833097 ], [ 4101704.196048615500331, 15242877.038989944383502 ], [ 4338272.991064755246043, 14414886.256433457136154 ], [ 4253784.135701848194003, 13519304.389586646109819 ], [ 4067908.653903452679515, 12353358.185578532516956 ], [ 3324406.726709874346852, 11390185.234441395848989 ], [ 2445722.63093564286828, 10883252.102263955399394 ], [ 1516345.22194366902113, 10646683.307247817516327 ], [ -38249.716733815148473, 10579092.222957491874695 ], [ -916933.8125080447644, 10798763.246901048347354 ], [ -1339378.089322579093277, 11221207.523715583607554 ], [ -1711129.052919368259609, 12015402.764126906171441 ], [ -1711129.052919368259609, 12539233.667376928031445 ], [ -1153502.607524184510112, 13755873.184602785855532 ] ] ] ] } },
{ "type": "Feature", "properties": { "id": 8 }, "geometry": { "type": "MultiPolygon", "coordinates": [ [ [ [ 3121633.473838895559311, -8904037.823728801682591 ], [ 3544077.750653428956866, -8718162.341930406168103 ], [ 4101704.196048613637686, -8363309.14940619841218 ], [ 4642432.870371216908097, -8177433.667607802897692 ], [ 5183161.544693820178509, -8008455.956881990656257 ], [ 5909765.700814817100763, -8092944.812244895845652 ], [ 6349107.748701931908727, -8582980.173349754884839 ], [ 6349107.748701931908727, -9123708.847672358155251 ], [ 5977356.785105142742395, -9461664.269123984500766 ], [ 5554912.50829060934484, -9546153.124486891552806 ], [ 5335241.484347051009536, -9968597.401301424950361 ], [ 5166263.773621238768101, -10238961.73846272751689 ], [ 4642432.870371216908097, -10391041.678115960210562 ], [ 4219988.593556683510542, -10391041.678115960210562 ], [ 3763748.774596987292171, -10391041.678115960210562 ], [ 3476486.666363103315234, -10238961.73846272751689 ], [ 3054042.389548569917679, -9732028.606285287067294 ], [ 3121633.473838895559311, -8904037.823728801682591 ] ] ] ] } },
{ "type": "Feature", "properties": { "id": 9 }, "geometry": { "type": "MultiPolygon", "coordinates": [ [ [ [ 1516345.221943668555468, -5465341.410458496771753 ], [ 1237531.999246076215059, -5583625.807966565713286 ], [ 916474.34886703081429, -5608972.464575437828898 ], [ 806638.836895252112299, -5406199.211704461835325 ], [ 426438.987762171775103, -5338608.127414137125015 ], [ 147625.765064579434693, -5575176.922430275008082 ], [ -105840.801024140790105, -5820194.602982705458999 ], [ -502938.421229802304879, -5963825.657099646516144 ], [ -857791.613754010526463, -5896234.572809320874512 ], [ -950729.354653207818046, -5777950.175301251932979 ], [ -1018320.438943533226848, -5507585.83813994936645 ], [ -976076.011262079933658, -5279465.928660102188587 ], [ -680365.017491906415671, -5254119.272051230072975 ], [ -393102.909258023370057, -5203425.958833485841751 ], [ -333960.710503988899291, -4958408.278281056322157 ], [ -342409.596040279604495, -4730288.368801208212972 ], [ -486040.650157221127301, -4502168.459321360103786 ], [ -587427.276592708891258, -4096621.953579407650977 ], [ -587427.276592708891258, -3834706.501954397186637 ], [ -528285.07783867418766, -3581239.935865676961839 ], [ -232574.084068500902504, -3547444.393720514141023 ], [ -80494.144415268674493, -3530546.622647932730615 ], [ 63136.909701672848314, -3843155.387490687891841 ], [ 172972.421673451550305, -4231804.12216005846858 ], [ 358847.903471846133471, -4079724.182506826240569 ], [ 553172.270806531887501, -3927644.242853594012558 ], [ 891127.692258158698678, -3800910.959809234365821 ], [ 1153043.14388316962868, -3691075.447837455198169 ], [ 1457203.02318963361904, -3716422.104446327313781 ], [ 1609282.962842866312712, -3860053.158563268836588 ], [ 1668425.161596900317818, -4003684.212680210359395 ], [ 1702220.703742063138634, -4240253.007696349173784 ], [ 1769811.788032388780266, -4434577.375031034462154 ], [ 1685322.932669481728226, -4552861.772539103403687 ], [ 1659976.276060609612614, -4840123.880772987380624 ], [ 1659976.276060609612614, -5042897.133643962442875 ], [ 1651527.39052431890741, -5279465.928660102188587 ], [ 1516345.221943668555468, -5465341.410458496771753 ] ] ] ] } },
{ "type": "Feature", "properties": { "id": 10 }, "geometry": { "type": "MultiPolygon", "coordinates": [ [ [ [ 3594771.063871173653752, -3234835.628877758979797 ], [ 3941175.370859091635793, -3327773.369776956737041 ], [ 4143948.623730067629367, -3538995.508184223435819 ], [ 4160846.394802649039775, -3792462.074272943660617 ], [ 4076357.539439741987735, -4113519.724651989061385 ], [ 3907379.828713928814977, -4265599.664305221289396 ], [ 3544077.750653429422528, -4316292.97752296552062 ], [ 3299060.070101, -4172661.923406023997813 ], [ 3146980.130447768140584, -4020581.983752791769803 ], [ 3104735.702766314614564, -3775564.303200362250209 ], [ 3138531.24491147743538, -3437608.881748734973371 ], [ 3282162.299028419423848, -3268631.171022921800613 ], [ 3594771.063871173653752, -3234835.628877758979797 ] ] ] ] } },
{ "type": "Feature", "properties": { "id": 11 }, "geometry": { "type": "MultiPolygon", "coordinates": [ [ [ [ 3607458.458022785373032, -3238239.563894045073539 ], [ 3476486.666363105643541, -2871533.550817260053009 ], [ 3560975.521726011764258, -2558924.785974505357444 ], [ 3535628.865117140579969, -1933707.256288995500654 ], [ 3645464.377088918816298, -1697138.461272856686264 ], [ 3873584.286568766925484, -1316938.612139776349068 ], [ 4152397.509266359265894, -860698.793180080130696 ], [ 4532597.35839943960309, -505845.600655871850904 ], [ 4752268.382342996075749, -438254.51636554650031 ], [ 4955041.635213973000646, -590334.456018778611906 ], [ 5132468.23147607780993, -759312.166744592017494 ], [ 5377485.912028506398201, -1004329.847297021537088 ], [ 5749236.875625295564532, -1409876.353038973873481 ], [ 6120987.839222086593509, -1460569.666256717871875 ], [ 6374454.405310805886984, -1553507.407155915163457 ], [ 6551881.001572910696268, -1764729.545563182095066 ], [ 6754654.254443887621164, -2043542.768260774202645 ], [ 6847591.995343083515763, -2432191.502930145245045 ], [ 6737756.483371306210756, -2820840.237599516287446 ], [ 6467392.146210003644228, -3158795.659051143098623 ], [ 6154783.381367249414325, -3446057.767285025678575 ], [ 5859072.387597074732184, -3505199.966039060615003 ], [ 5605510.245880116708577, -3513381.239816282410175 ], [ 5221875.021945944987237, -3718395.138987747021019 ], [ 4971461.478431113995612, -3948706.029034435283393 ], [ 4829071.938053575344384, -4245350.904820973984897 ], [ 4650881.755907509475946, -4443026.260567325167358 ], [ 4262233.021238137036562, -4350088.519668128341436 ], [ 4027344.667544133495539, -4157631.309358036611229 ], [ 3907379.8287139297463, -3936093.128389884717762 ], [ 3763748.774596988689154, -3707973.218910036608577 ], [ 3607458.458022785373032, -3238239.563894045073539 ] ] ] ] } },
{ "type": "Feature", "properties": { "id": 12 }, "geometry": { "type": "MultiPolygon", "coordinates": [ [ [ [ 6340658.863165644928813, 3718597.167489463463426 ], [ 6458943.260673712939024, 4259325.841812066733837 ], [ 6627920.971399527043104, 4766258.97398950625211 ], [ 7101058.561431804671884, 5239396.564021784812212 ], [ 7692480.548972152173519, 5932205.177997619844973 ], [ 8131822.596859266981483, 6574320.47875571064651 ], [ 8588062.415818963199854, 6591218.249828292056918 ], [ 8790835.66868994012475, 6540524.936610547825694 ], [ 9196382.174431892111897, 6253262.828376665711403 ], [ 9416053.198375448584557, 5881511.864779875613749 ], [ 9635724.222319006919861, 5594249.756545992568135 ], [ 9990577.414843214675784, 4952134.455787901766598 ], [ 10260941.752004517242312, 4377610.239320135675371 ], [ 10497510.54702065512538, 3431335.059255580417812 ], [ 10497510.54702065512538, 2383673.252755536697805 ], [ 10142657.354496447369456, 1420500.301618400961161 ], [ 9787804.161972239613533, 829078.314078053459525 ], [ 9213279.945504473522305, 575611.747989332303405 ], [ 8554266.873673800379038, 676998.374424820765853 ], [ 8064231.51256894133985, 1082544.880166772753 ], [ 7607991.693609245121479, 1268420.361965168267488 ], [ 7439013.982883431017399, 1792251.265215190127492 ], [ 7286934.043230200186372, 2383673.252755536697805 ], [ 6982774.163923734799027, 2823015.300642652437091 ], [ 6509636.573891457170248, 3093379.637803953140974 ], [ 6340658.863165644928813, 3718597.167489463463426 ] ] ] ] } },
{ "type": "Feature", "properties": { "id": 13 }, "geometry": { "type": "MultiPolygon", "coordinates": [ [ [ [ -8740601.819113202393055, -2634964.755801124498248 ], [ -8706806.276968039572239, -1840769.5153898014687 ], [ -8351953.084443832747638, -1063472.046051059383899 ], [ -7811224.410121229477227, -438254.516365549527109 ], [ -7219802.422580881975591, -472050.058510712347925 ], [ -6814255.916838929988444, -624129.998163944575936 ], [ -6510096.037532465532422, -877596.564252664800733 ], [ -6189038.387153420597315, -1249347.527849454432726 ], [ -6020060.676427606493235, -1705587.346809150651097 ], [ -6053856.218572769314051, -2398395.960784985683858 ], [ -6172140.616080839186907, -3023613.490470495074987 ], [ -6290425.013588909059763, -3800910.959809237159789 ], [ -6628380.435040535405278, -4578208.42914797924459 ], [ -6983233.627564743161201, -5051346.019180256873369 ], [ -8013997.6629922054708, -4476821.802712490782142 ], [ -8436441.939806738868356, -4037479.754825375974178 ], [ -8706806.276968039572239, -3479853.309430192224681 ], [ -8740601.819113202393055, -2634964.755801124498248 ] ] ] ] } },
{ "type": "Feature", "properties": { "id": 14 }, "geometry": { "type": "MultiPolygon", "coordinates": [ [ [ [ -8825090.674476109445095, -150992.408131665550172 ], [ -8571624.10838739015162, 474225.121553843840957 ], [ -8233668.686935762874782, 829078.314078052528203 ], [ -7794326.639048648066819, 1454295.843763561919332 ], [ -7186006.880435720086098, 2164002.228811978362501 ], [ -6324220.555734071880579, 2704730.903134581632912 ], [ -5597616.399613073095679, 2924401.927078139036894 ], [ -4414772.424532379955053, 3144072.951021696440876 ], [ -3350212.846959754824638, 2873708.61386039480567 ], [ -2437733.209040362387896, 2670935.360989418812096 ], [ -1322480.318249993026257, 3042686.324586208444089 ], [ -950729.354653203859925, 3110277.408876533620059 ], [ -984524.896798366680741, 2501957.650263605173677 ], [ -1237991.462887085974216, 1927433.433795839548111 ], [ -1204195.9207419231534, 1572580.241271631326526 ], [ -916933.812508041039109, 1336011.446255492977798 ], [ -629671.704274157062173, 896669.398368377238512 ], [ -274818.51174994930625, 271451.868682867847383 ], [ -291716.282822530716658, -269276.805639735423028 ], [ -376205.138185437768698, -1181756.443559127859771 ], [ -815547.186072552576661, -2094236.081478520296514 ], [ -1626640.197556456550956, -2685658.06901886779815 ], [ -2420835.437967780977488, -3006715.719397912733257 ], [ -3536088.328758148476481, -2905329.092962424270809 ], [ -4651341.21954851783812, -2601169.213655960746109 ], [ -5597616.399613073095679, -1857667.286462381482124 ], [ -6057362.149362255819142, -1604873.369885597843677 ], [ -6176808.396027306094766, -1282368.503889962565154 ], [ -6754421.18648356013, -673992.273460085853003 ], [ -7033926.940782487392426, -336867.889930061064661 ], [ -7608451.157250253483653, -15810.239551015198231 ], [ -8182975.373718018643558, -49605.781696178019047 ], [ -8825090.674476109445095, -150992.408131665550172 ] ] ] ] } },
{ "type": "Feature", "properties": { "id": 15 }, "geometry": { "type": "MultiPolygon", "coordinates": [ [ [ [ -8735638.623813981190324, -2518329.666269410401583 ], [ -8487135.25302448309958, -3141897.887978564016521 ], [ -8267464.229080925695598, -3885399.815172142349184 ], [ -8213367.982718665152788, -4269476.67019697278738 ], [ -8013997.6629922054708, -4882368.308454441837966 ], [ -7709837.783685741014779, -5338608.127414139918983 ], [ -7405677.904379277490079, -5913132.343881905078888 ], [ -7118415.796145394444466, -6589043.186785159632564 ], [ -6746664.832548604346812, -7484625.053631970658898 ], [ -6611482.66396795399487, -8126740.354390062391758 ], [ -6611482.66396795399487, -8667469.028712665662169 ], [ -7490166.759742183610797, -9157504.389817522838712 ], [ -8047793.205137368291616, -9309584.329470755532384 ], [ -8537828.566242227330804, -9191299.931962685659528 ], [ -8825090.674476109445095, -9123708.847672361880541 ], [ -9568592.601669689640403, -8684366.799785245209932 ], [ -10514867.781734244897962, -8312615.836188456043601 ], [ -11461142.96179880015552, -7873273.788301341235638 ], [ -12880555.731895633041859, -7264954.029688412323594 ], [ -13890197.553482368588448, -6589043.186785159632564 ], [ -14464721.76995013281703, -6267985.536406112834811 ], [ -15039245.986417900770903, -6065212.28353513777256 ], [ -15326508.094651782885194, -5744154.63315609190613 ], [ -15225121.468216294422746, -5051346.019180256873369 ], [ -14887166.04676466807723, -4426128.48949474748224 ], [ -14397130.685659809038043, -3784013.188736655749381 ], [ -13670526.529538810253143, -3733319.875518912449479 ], [ -12741149.120546836405993, -4020581.98375279456377 ], [ -11321736.350450003519654, -3175693.43012372776866 ], [ -10781007.676127400249243, -2634964.755801124498248 ], [ -10375461.170385448262095, -1925258.370752708055079 ], [ -10155790.146441891789436, -1637996.262518825009465 ], [ -9648857.014264451339841, -1688689.575736569240689 ], [ -9412288.219248311594129, -1705587.346809150651097 ], [ -8922252.858143452554941, -1891462.828607545234263 ], [ -8735638.623813981190324, -2518329.666269410401583 ] ] ] ] } }
]
}
