{
"type": "FeatureCollection",
"name": "map017",
"crs": { "type": "name", "properties": { "name": "urn:ogc:def:crs:ESRI::102016" } },
"features": [
{ "type": "Feature", "properties": { "id": 1 }, "geometry": { "type": "MultiPolygon", "coordinates": [ [ [ [ -690635.180498406291008, 3050758.553225301671773 ], [ 157704.096334293484688, 3703327.227711994200945 ], [ 875529.638269655406475, 3877345.540908445604146 ], [ 2093657.830644816160202, 4508161.926245581358671 ], [ 3116015.420673966407776, 4856198.552638484165072 ], [ 4160125.299852676689625, 4899703.130937597714365 ], [ 5117226.022433158010244, 4616923.371993363834918 ], [ 5791546.986069407314062, 3833840.962609332520515 ], [ 6378858.793107431381941, 3594565.781964211724699 ], [ 7357711.804837469011545, 3485804.336216430179775 ], [ 8380069.394866622984409, 3268281.444720865692943 ], [ 9010885.780203759670258, 2767978.794281067792326 ], [ 9206656.38254976645112, 2071905.541495262645185 ], [ 8314812.527417954057455, 1919639.517448367550969 ], [ 7988528.190174605697393, 2158914.698093488346785 ], [ 7792757.587828598916531, 1593355.180205021053553 ], [ 7401216.383136581629515, 1201813.975513005629182 ], [ 6813904.576098557561636, 766768.192521877586842 ], [ 6857409.154397673904896, 375226.987829861231148 ], [ 6835656.865248113870621, -168580.240909049287438 ], [ 6335354.214808318763971, -1234442.409237314015627 ], [ 6183088.190761424601078, -1103928.674339975230396 ], [ 5704537.829471182078123, -1538974.457331103272736 ], [ 5334748.913928721100092, -1538974.457331103272736 ], [ 5269492.046480052173138, -1016919.517741749063134 ], [ 4529914.215395133942366, -299093.975806387141347 ], [ 4247134.456450901925564, -668882.891348846256733 ], [ 3790336.384310215711594, -1060424.096040862612426 ], [ 3572813.492814652621746, -1843506.505424893461168 ], [ 3768584.095160659402609, -2082781.686070013791323 ], [ 3703327.227711990475655, -2278552.288416021503508 ], [ 3377042.890468645840883, -2670093.493108037859201 ], [ 3398795.179618202149868, -3083386.986949609592557 ], [ 3746831.806011103093624, -3170396.143547834828496 ], [ 3899097.830057997256517, -2974625.541201827116311 ], [ 4094868.432404007762671, -3170396.143547834828496 ], [ 4377648.191348239779472, -3105139.276099165901542 ], [ 4682180.239442028105259, -3322662.167594730854034 ], [ 4464657.347946465015411, -3801212.528884971514344 ], [ 3920850.119207553565502, -3996983.131230978295207 ], [ 3616318.071113765239716, -3996983.131230978295207 ], [ 3355290.601319089531898, -3996983.131230978295207 ], [ 2746226.505131509155035, -4388524.335922995582223 ], [ 2245923.854691710323095, -4214506.0227265432477 ], [ 1876134.939149253070354, -4279762.890175212174654 ], [ 1745621.204251911491156, -3801212.528884971514344 ], [ 1680364.336803244426847, -3213900.721846948377788 ], [ 1615107.469354573637247, -2604836.625659368000925 ], [ 1180061.686363445594907, -2278552.288416021503508 ], [ 1114804.818914776667953, -1778249.637976224534214 ], [ 679759.035923648625612, -1691240.481377998366952 ], [ 222960.963782964274287, -1517222.168181546963751 ], [ 48942.650586511939764, -1277946.987536426633596 ], [ -103323.373460382223129, -625378.313049733638763 ], [ -146827.951759494841099, 201208.674633409827948 ], [ -190332.530058609321713, 723263.614222764037549 ], [ -451359.999853285029531, 1789125.782551028765738 ], [ -690635.180498406291008, 3050758.553225301671773 ] ] ] ] } },
{ "type": "Feature", "properties": { "id": 2 }, "geometry": { "type": "MultiPolygon", "coordinates": [ [ [ [ 5927363.319080257788301, -1336405.830413762480021 ], [ 6011210.657153219915926, -1260180.977620160672814 ], [ 6208615.141851638443768, -1125808.918131587095559 ], [ 6335354.214808318763971, -1234442.409237314015627 ], [ 6350593.809194582514465, -1201975.447283969959244 ], [ 6677241.921921998262405, -506072.946255993563682 ], [ 6830747.75221052300185, -179038.786076091695577 ], [ 6835656.865248113870621, -168580.240909049287438 ], [ 6857409.154397673904896, 375226.987829861231148 ], [ 6820470.053616259247065, 707678.894862564047799 ], [ 7896080.961288992315531, 179456.385483853518963 ], [ 9157713.731963263824582, -494864.578152394853532 ], [ 10267080.478590643033385, -1430213.011583321727812 ], [ 11093667.466273786500096, -2322056.8667151350528 ], [ 11398199.514367574825883, -2931120.962902714498341 ], [ 11289438.068619793280959, -3431423.613342512398958 ], [ 10832639.996479107066989, -3670698.793987633660436 ], [ 10071309.876244632527232, -3822964.818034527823329 ], [ 8961943.129617257043719, -3801212.528884971514344 ], [ 7896080.961288992315531, -3496680.480791181325912 ], [ 7200007.708503186702728, -3387919.035043399780989 ], [ 6547439.034016493707895, -3387919.035043399780989 ], [ 5938374.937828913331032, -3126891.565248722210526 ], [ 6308163.853371372446418, -2778854.938855819404125 ], [ 5829613.492081131786108, -2191543.131817796267569 ], [ 5724296.97900409437716, -1521011.59411936509423 ], [ 5927363.319080257788301, -1336405.830413762480021 ] ] ] ] } },
{ "type": "Feature", "properties": { "id": 3 }, "geometry": { "type": "MultiPolygon", "coordinates": [ [ [ [ 7175669.019119382835925, 3506031.312407328747213 ], [ 6394974.056105422787368, 3592775.197186657227576 ], [ 5850450.905539984814823, 3809843.069491690024734 ], [ 5960127.226978467777371, 4943207.709236709401011 ], [ 5851365.781230686232448, 6335354.214808320626616 ], [ 5938374.937828911468387, 7096684.335042795166373 ], [ 6264659.275072257965803, 7945023.611875495873392 ], [ 6656200.479764273390174, 8314812.527417954988778 ], [ 6851971.082110282033682, 8597592.286362187936902 ], [ 7395778.310849191620946, 8488830.840614406391978 ], [ 7678558.069793425500393, 8053785.057623277418315 ], [ 8070099.274485442787409, 7640491.56378170568496 ], [ 8722667.948972132056952, 7009675.178444569930434 ], [ 9353484.3343092687428, 6357106.503957876935601 ], [ 10114814.454543743282557, 5530519.516274732537568 ], [ 10549860.237534873187542, 4790941.685189815238118 ], [ 10854392.285628661513329, 4007859.275805782526731 ], [ 10984906.020526003092527, 3529308.914515541866422 ], [ 11071915.177124228328466, 2398189.878738608211279 ], [ 10854392.285628661513329, 1267070.842961674556136 ], [ 10549860.237534873187542, 549245.301026312634349 ], [ 9919043.852197736501694, 70694.939736070111394 ], [ 9375236.623458825051785, 201208.674633409827948 ], [ 9092456.864514593034983, 962538.794867884367704 ], [ 9183812.673486, 2068005.396045351168141 ], [ 9206656.38254976645112, 2071905.541495262645185 ], [ 9142604.564439792186022, 2299645.339219619520009 ], [ 9113953.244380040094256, 2401516.699432070367038 ], [ 9113953.244380034506321, 2401516.699432086665183 ], [ 9010885.780203759670258, 2767978.794281067792326 ], [ 8380069.394866622984409, 3268281.444720865692943 ], [ 7357711.804837469011545, 3485804.336216430179775 ], [ 7175669.01911938469857, 3506031.312407328281552 ], [ 7175669.019119382835925, 3506031.312407328747213 ] ] ] ] } },
{ "type": "Feature", "properties": { "id": 5 }, "geometry": { "type": "MultiPolygon", "coordinates": [ [ [ [ 6264659.275072257965803, 7945023.611875495873392 ], [ 5111787.950145767070353, 7858014.45527726970613 ], [ 3088825.0592370191589, 8097289.635922389104962 ], [ 1065862.168328272178769, 8401821.684016179293394 ], [ -761330.120234467089176, 9271913.24999843724072 ], [ -2545017.830498093739152, 10446536.864074483513832 ], [ -2740788.432844101916999, 11251371.562608070671558 ], [ -2653779.276245876215398, 12708774.935628350824118 ], [ -1761935.42111406289041, 14035664.573751293122768 ], [ -804834.698533579707146, 14731737.826537098735571 ], [ 456798.072140692733228, 15536572.525070685893297 ], [ 1479155.662169843912125, 15732343.127416694536805 ], [ 2436256.384750327095389, 15754095.41656625084579 ], [ 3719641.444574155844748, 15514820.235921129584312 ], [ 5155292.528444879688323, 14753490.115686655044556 ], [ 6721457.347212941385806, 14035664.573751293122768 ], [ 8347440.961142285726964, 12969802.40542302839458 ], [ 9826596.623312121257186, 11795178.791346982121468 ], [ 11240495.418033288791776, 10142004.8159806933254 ], [ 12088834.694865990430117, 8619344.575511744245887 ], [ 12850164.815100464969873, 7074932.045893238857388 ], [ 13111192.284895142540336, 5748042.407770296558738 ], [ 13024183.128296915441751, 4703932.528591588139534 ], [ 12480375.899558005854487, 4138373.01070312038064 ], [ 11610284.333575747907162, 4334143.613049129024148 ], [ 10602214.440172981470823, 4656316.592691821977496 ], [ 10549860.237534873187542, 4790941.685189815238118 ], [ 10114814.454543743282557, 5530519.516274732537568 ], [ 10017330.539747890084982, 5636359.195195944048464 ], [ 9639887.973966142162681, 6046153.980901842005551 ], [ 9555797.330853406339884, 6137452.393424241803586 ], [ 9353484.3343092687428, 6357106.503957876935601 ], [ 8722667.948972132056952, 7009675.178444569930434 ], [ 8465726.061343973502517, 7258052.336485124193132 ], [ 7443860.809404296800494, 8414857.765914244577289 ], [ 7395778.310849191620946, 8488830.840614406391978 ], [ 6851971.082110282033682, 8597592.286362187936902 ], [ 6813404.273448118939996, 8541884.673850174993277 ], [ 6600950.375023882836103, 8262631.872940920293331 ], [ 6264659.275072257965803, 7945023.611875495873392 ] ] ] ] } },
{ "type": "Feature", "properties": { "id": 5 }, "geometry": { "type": "MultiPolygon", "coordinates": [ [ [ [ 4057310.400873140897602, -3132838.11201696889475 ], [ 3899097.830057997256517, -2974625.541201827116311 ], [ 3886506.601146426517516, -2990814.264088132418692 ], [ 3700768.134870867710561, -3158880.225762776099145 ], [ 3397067.615217512473464, -3050563.263336503412575 ], [ 3384620.532180580310524, -2661000.323053716681898 ], [ 3677028.353535272181034, -2310110.937428084202111 ], [ 3703327.227711990475655, -2278552.288416021503508 ], [ 3754988.914442186243832, -2123567.228225434198976 ], [ 3768584.095160659402609, -2082781.686070013791323 ], [ 3580324.49364723591134, -1852686.617553606396541 ], [ 3806010.827962101902813, -1046988.858624960412271 ], [ 4201902.490484029054642, -707653.147891880129464 ], [ 4247134.456450901925564, -668882.891348846256733 ], [ 4497345.149272189475596, -341684.293044084100984 ], [ 5278945.925995051860809, -1092550.553861747728661 ], [ 5334748.913928721100092, -1538974.457331103272736 ], [ 5383691.564515224657953, -1538974.457331103272736 ], [ 5733801.741542448289692, -1581526.729439492337406 ], [ 5829613.492081131786108, -2191543.131817796267569 ], [ 5876955.65478090941906, -2249644.876949341502041 ], [ 6308163.853371372446418, -2778854.938855819404125 ], [ 5938374.937828913331032, -3126891.565248722210526 ], [ 6010570.035437356680632, -3157832.321366626303643 ], [ 5622966.74516034591943, -3126891.565248725004494 ], [ 5296682.407916999422014, -2909368.673753160052001 ], [ 4926893.492374540306628, -3126891.565248725004494 ], [ 4680504.121271257288754, -3326349.627570426557213 ], [ 4682180.239442028105259, -3322662.167594730854034 ], [ 4415200.285116562619805, -3131962.200219396967441 ], [ 4377648.191348239779472, -3105139.276099165901542 ], [ 4100825.871145809069276, -3169021.349992034491152 ], [ 4057310.400873140897602, -3132838.11201696889475 ] ] ] ] } },
{ "type": "Feature", "properties": { "id": 6 }, "geometry": { "type": "MultiPolygon", "coordinates": [ [ [ [ 1827192.288562745787203, -10805449.635042138397694 ], [ 2436256.384750325232744, -10305146.984602339565754 ], [ 3067072.770087461918592, -10174633.249705001711845 ], [ 3480366.263929033651948, -10283394.695452783256769 ], [ 3523870.842228146269917, -10131128.671405889093876 ], [ 4111182.649266170337796, -10109376.382256332784891 ], [ 4285200.962462620809674, -10283394.695452783256769 ], [ 5111787.95014576613903, -10109376.382256332784891 ], [ 5481576.865688225254416, -10022367.225658107548952 ], [ 5786108.913782013580203, -9826596.623312098905444 ], [ 5459824.576538668945432, -9739587.46671387180686 ], [ 5438072.287389110773802, -9522064.575218308717012 ], [ 5981879.516128022223711, -9261037.105423633009195 ], [ 6199402.407623587176204, -9239284.816274076700211 ], [ 6264659.275072256103158, -9565569.153517421334982 ], [ 6569191.32316604629159, -9630826.020966090261936 ], [ 7091246.262755399569869, -9652578.310115646570921 ], [ 6960732.527858061715961, -9413303.129470527172089 ], [ 6699705.058063384145498, -9261037.105423633009195 ], [ 7417530.599998746067286, -8543211.563488271087408 ], [ 7482787.46744741499424, -8064661.202198028564453 ], [ 8026594.696186326444149, -7151065.05791665893048 ], [ 8744420.238121688365936, -6911789.877271538600326 ], [ 9571007.225804831832647, -6911789.877271538600326 ], [ 10201823.611141968518496, -7673119.997506013140082 ], [ 10006053.008795959874988, -8499706.985189158469439 ], [ 9201218.310262372717261, -9630826.020966090261936 ], [ 8418135.90087834186852, -10065871.803957220166922 ], [ 8287622.165981002151966, -10696688.18929435685277 ], [ 7917833.25043854303658, -11806054.935921732336283 ], [ 7417530.599998746067286, -12567385.056156208738685 ], [ 6699705.058063384145498, -13176449.152343787252903 ], [ 5960127.226978465914726, -13611494.935334915295243 ], [ 5024778.793547539040446, -13894274.69427914917469 ], [ 4546228.432257298380136, -14024788.429176488891244 ], [ 3915412.046920161694288, -13850770.115980036556721 ], [ 2784293.011143228039145, -12893669.393399553373456 ], [ 1957706.023460084572434, -11632036.622725281864405 ], [ 1827192.288562745787203, -10805449.635042138397694 ] ] ] ] } },
{ "type": "Feature", "properties": { "id": 7 }, "geometry": { "type": "MultiPolygon", "coordinates": [ [ [ [ 1125145.242613659473136, -1857526.219667659141123 ], [ 1180061.686363445594907, -2278552.288416021503508 ], [ 1284472.674281313782558, -2356860.529354422818869 ], [ 1626566.509445654693991, -2711787.666509455535561 ], [ 1680364.336803244426847, -3213900.721846948377788 ], [ 1730434.392620056867599, -3664531.224198275711387 ], [ 1745621.204251911491156, -3801212.528884971514344 ], [ 1876134.939149253070354, -4279762.890175212174654 ], [ 2193495.72824315354228, -4223758.045040994882584 ], [ 2586981.774489832110703, -4333134.86439545545727 ], [ 3349852.529031694866717, -4823570.118914121761918 ], [ 3610879.998826371505857, -5019340.721260129474103 ], [ 3132329.637536130845547, -5454386.504251258447766 ], [ 2458008.673899881541729, -5737166.263195491395891 ], [ 1696678.553665407001972, -5976441.443840612657368 ], [ 1239880.481524722650647, -5780670.841494604945183 ], [ 565559.517888473346829, -5867679.998092830181122 ], [ 152266.024046900682151, -6019946.022139725275338 ], [ -239275.180645114742219, -6019946.022139725275338 ], [ -478550.361290235072374, -5954689.154691056348383 ], [ -674320.96363624278456, -5976441.443840612657368 ], [ -1109366.746627371292561, -5911184.576391942799091 ], [ -1218128.192375153303146, -5519643.371699927374721 ], [ -1022357.590029145590961, -4801817.829764565452933 ], [ -1174623.614076040685177, -3648946.504838075488806 ], [ -1435651.083870717789978, -3148643.854398277588189 ], [ -1457403.373020274098963, -2604836.625659367069602 ], [ -978853.011730032972991, -2235047.710116907954216 ], [ -413293.49384156614542, -2300304.577565577346832 ], [ 369788.915542465634644, -1995772.5294717871584 ], [ 588173.283836031798273, -1656350.671058906242251 ], [ 679759.035923648625612, -1691240.481377998366952 ], [ 683064.986477622529492, -1691901.671488793101162 ], [ 1125145.242613659473136, -1857526.219667659141123 ] ] ] ] } },
{ "type": "Feature", "properties": { "id": 8 }, "geometry": { "type": "MultiPolygon", "coordinates": [ [ [ [ -465666.313101651321631, -5958202.98601521551609 ], [ -239275.180645114742219, -6019946.022139725275338 ], [ -87009.156598219211446, -6019946.022139725275338 ], [ 141389.879472123458982, -6019946.022139725275338 ], [ 152266.024046900682151, -6019946.022139725275338 ], [ 534814.514078308246098, -5879007.104759733192623 ], [ 1206060.904024030547589, -5785034.657946307212114 ], [ 1696678.553665407001972, -5976441.443840612657368 ], [ 2222709.023069613613188, -5811117.582027861848474 ], [ 2222709.023069618269801, -5811117.582027859985828 ], [ 2458008.673899881541729, -5737166.263195491395891 ], [ 2932815.074334898497909, -5538053.901722743175924 ], [ 3114427.311067912261933, -5461893.931479866616428 ], [ 3114427.311067913193256, -5461893.931479865685105 ], [ 3132329.637536130845547, -5454386.504251258447766 ], [ 3381890.40286961151287, -5227513.08122082054615 ], [ 3381890.402869616169482, -5227513.08122081682086 ], [ 3850155.179471493698657, -5519643.371699929237366 ], [ 4687618.31172941531986, -6041698.311289282515645 ], [ 4937769.63694931473583, -6596381.684602971188724 ], [ 5177044.817594435065985, -7314207.226538333110511 ], [ 5057407.227271874435246, -7553482.407183454371989 ], [ 4513599.998532963916659, -7727500.720379905775189 ], [ 4100306.504691392183304, -8303936.382843150757253 ], [ 3741393.73372371122241, -8184298.792520590126514 ], [ 3306347.95073258318007, -7771005.298679018393159 ], [ 3317224.095307361334562, -7227198.069940107874572 ], [ 3088825.059237018227577, -7107560.479617547243834 ], [ 2131724.336656535975635, -7140188.913341882638633 ], [ 2012086.746333975344896, -7238074.214514886029065 ], [ 1490031.806744621135294, -7216321.92536532972008 ], [ 1109366.746627384331077, -7509977.828884341754019 ], [ 598187.951612808275968, -7771005.298679018393159 ], [ 87009.156598232220858, -7586110.840907788835466 ], [ -587311.807038016617298, -7172817.34706621710211 ], [ -1065862.1683282579761, -6846533.009822870604694 ], [ -1185499.758650818374008, -6998799.03386976569891 ], [ -1511784.095894164638594, -6900913.732696761377156 ], [ -1805439.999413176439703, -7335959.515687890350819 ], [ -2545017.830498094670475, -7227198.069940107874572 ], [ -2001210.601759184151888, -6890037.588121983222663 ], [ -1522660.240468942793086, -6694266.985775975510478 ], [ -913596.144281363114715, -6280973.491934403777122 ], [ -632540.652159960474819, -5971799.187009914778173 ], [ -465666.313101651321631, -5958202.98601521551609 ] ] ] ] } },
{ "type": "Feature", "properties": { "id": 9 }, "geometry": { "type": "MultiPolygon", "coordinates": [ [ [ [ 2173326.676848670933396, -7138770.651744423434138 ], [ 2825137.822885687462986, -7116549.817220433615148 ], [ 3119305.357644982170314, -7123526.350212194956839 ], [ 3119305.357644985429943, -7123526.350212196819484 ], [ 3316776.177318076137453, -7249593.969404364936054 ], [ 3316776.177318076137453, -7249593.969404365867376 ], [ 3306347.95073258318007, -7771005.298679018393159 ], [ 3334074.25884699774906, -7797345.291387712582946 ], [ 3504547.010711039416492, -7959294.405658551491797 ], [ 3741393.73372371122241, -8184298.792520590126514 ], [ 4087255.13120165746659, -8299585.925013239495456 ], [ 4087255.131201658397913, -8299585.925013239495456 ], [ 4100306.504691392183304, -8303936.382843150757253 ], [ 4101885.278930729720742, -8301734.408246180042624 ], [ 4709370.600878971628845, -8390945.539441376924515 ], [ 5133540.239295322448015, -8369193.250291819684207 ], [ 5166168.673019656911492, -8825991.322432504966855 ], [ 5427196.142814333550632, -9228408.671699298545718 ], [ 5605669.573749478906393, -9441617.877765333279967 ], [ 5438072.287389110773802, -9522064.575218308717012 ], [ 5443994.940375376492739, -9581291.105080964043736 ], [ 5459824.576538668945432, -9739587.46671387180686 ], [ 5639139.397690023295581, -9787404.752354234457016 ], [ 5775954.836896849796176, -9823888.869476055726409 ], [ 5512359.888600255362689, -10002578.139500373974442 ], [ 5512359.888600231148303, -10002578.139500388875604 ], [ 4975302.432948771864176, -10138110.175350436940789 ], [ 4533515.587770886719227, -10231117.932229990139604 ], [ 4301645.000679129734635, -10279932.792670359835029 ], [ 4219930.521982022561133, -10218124.25497218593955 ], [ 4111182.649266170337796, -10109376.382256332784891 ], [ 3523870.842228146269917, -10131128.671405889093876 ], [ 3480366.263929033651948, -10283394.695452783256769 ], [ 3067072.770087461918592, -10174633.249705001711845 ], [ 2476176.919968381989747, -10296887.56352274119854 ], [ 2476176.919968352653086, -10296887.563522746786475 ], [ 2436256.384750325232744, -10305146.984602339565754 ], [ 2144712.75607257662341, -10544629.251016205176711 ], [ 2144712.756072569172829, -10544629.251016210764647 ], [ 2144712.756072561722249, -10544629.251016218215227 ], [ 1827192.288562745787203, -10805449.635042138397694 ], [ 1830278.762023155810311, -10824997.300291402265429 ], [ 1392146.505571617744863, -10674935.900144800543785 ], [ 946224.578005711082369, -10413908.430350124835968 ], [ 826586.987683150917292, -10022367.225658107548952 ], [ 1000605.300879602320492, -9630826.020966092124581 ], [ 1511784.095894178375602, -9282789.39457318931818 ], [ 1870696.866861859336495, -9000009.635628957301378 ], [ 2099095.902932201512158, -8608468.430936940014362 ], [ 2120848.192081757821143, -8347440.961142263375223 ], [ 1990334.457184419035912, -8086413.491347586736083 ], [ 2196981.204105204902589, -7607863.130057345144451 ], [ 2012086.746333975344896, -7238074.214514886029065 ], [ 2173326.676848670933396, -7138770.651744423434138 ] ] ] ] } },
{ "type": "Feature", "properties": { "id": 10 }, "geometry": { "type": "MultiPolygon", "coordinates": [ [ [ [ -1805439.999413176439703, -7335959.515687890350819 ], [ -1467381.48730906099081, -6914234.515272292308509 ], [ -1185499.758650818374008, -6998799.03386976569891 ], [ -1170120.478506830055267, -6979225.404595598578453 ], [ -1014058.585494652972557, -6881853.634482147172093 ], [ -587311.807038016617298, -7172817.34706621710211 ], [ -401962.805403128731996, -7286418.348068244755268 ], [ 87009.156598232220858, -7586110.840907788835466 ], [ 151418.094040520780254, -7609407.690620956942439 ], [ 598187.951612808275968, -7771005.298679018393159 ], [ 600344.630550481961109, -7769904.015817227773368 ], [ 1024705.626627214136533, -7553209.039097194559872 ], [ 1109366.746627384331077, -7509977.828884341754019 ], [ 1315820.071836822200567, -7350713.83515134640038 ], [ 1536627.698233099188656, -7218263.420844016596675 ], [ 2034382.842712270561606, -7282666.407271476462483 ], [ 2192910.344158245716244, -7617290.384671355597675 ], [ 2077378.660076898289844, -7884837.44254394993186 ], [ 1996429.501635391265154, -8072298.651566388085485 ], [ 1990334.457184419035912, -8086413.491347586736083 ], [ 2112691.083650674205273, -8331126.744280096143484 ], [ 2083612.894010334508494, -8635010.731945855543017 ], [ 1843092.102749190060422, -9021758.843717727810144 ], [ 1441384.356184856034815, -9330721.132247621193528 ], [ 1210364.710754125379026, -9488011.103604715317488 ], [ 1139230.728819295531139, -9536442.750879492610693 ], [ 1000605.300879602320492, -9630826.020966092124581 ], [ 535650.120307833887637, -9674330.599265204742551 ], [ -497583.614296096377075, -9652578.310115648433566 ], [ -1498188.915175692178309, -9500312.286068752408028 ], [ -2085500.722213715314865, -9445931.563194863498211 ], [ -2640184.095527403987944, -9239284.816274076700211 ], [ -2770697.830424742773175, -8651973.009236052632332 ], [ -2792450.11957429908216, -8021156.623898917809129 ], [ -2727193.252125629689544, -7466473.250585228204727 ], [ -2499459.585611195769161, -7233897.811835240572691 ], [ -1805439.999413176439703, -7335959.515687890350819 ] ] ] ] } },
{ "type": "Feature", "properties": { "id": 11 }, "geometry": { "type": "MultiPolygon", "coordinates": [ [ [ [ 5124730.963523500598967, -7157265.664325527846813 ], [ 4937769.63694931473583, -6596381.684602971188724 ], [ 4830935.840148132294416, -6359489.352565567940474 ], [ 5098192.769427292048931, -6204840.479910955764353 ], [ 5380972.528371525928378, -6117831.323312730528414 ], [ 5881275.178811323828995, -6183088.190761399455369 ], [ 6185807.226905113086104, -6150459.757037064991891 ], [ 6501215.419573681429029, -5682785.540321601554751 ], [ 6958013.491714366711676, -5302120.480204364284873 ], [ 7197288.672359487041831, -5356501.203078255057335 ], [ 7393059.274705494754016, -5519643.371699928306043 ], [ 7436563.853004607371986, -5867679.998092831112444 ], [ 7643210.599925393238664, -6498496.383429967798293 ], [ 7577953.732476724311709, -7259826.503664442338049 ], [ 7474862.001040746457875, -8122781.289180266670883 ], [ 7428406.744573524221778, -8463453.169939897954464 ], [ 7420194.48327948525548, -8523676.419429516419768 ], [ 7035506.021809661760926, -8925236.141677355393767 ], [ 6699705.058063384145498, -9261037.105423633009195 ], [ 6757861.437344069592655, -9294961.66000403277576 ], [ 6970500.275533500127494, -9431210.666875498369336 ], [ 7091246.262755399569869, -9652578.310115646570921 ], [ 6536138.454531478695571, -9623743.263401539996266 ], [ 6437701.273674921132624, -9602649.58178942091763 ], [ 6281371.399662768468261, -9569150.323072530329227 ], [ 6210173.973885146901011, -9293142.647581875324249 ], [ 6199402.407623587176204, -9239284.816274076700211 ], [ 5981879.516128022223711, -9261037.105423633009195 ], [ 5946215.049123225733638, -9278156.049585934728384 ], [ 5620077.990245648659766, -9434701.837847171351314 ], [ 5377272.122884452342987, -9151442.474307397380471 ], [ 5242518.623062055557966, -8943697.495414536446333 ], [ 5205087.93586822040379, -8885991.852657373994589 ], [ 5138163.9809609958902, -8433925.633611248806119 ], [ 5133540.239295322448015, -8369193.250291819684207 ], [ 4720093.001085202209651, -8390395.672764133661985 ], [ 4670376.707001109607518, -8385219.163417355157435 ], [ 4386679.386396027170122, -8343557.319132692180574 ], [ 4108641.281113673467189, -8302726.548426891677082 ], [ 4501598.647371562197804, -7744239.446999755688012 ], [ 4501598.64737156406045, -7744239.446999752894044 ], [ 5054940.757620469667017, -7554271.677471904084086 ], [ 5057407.227271874435246, -7553482.407183454371989 ], [ 5177044.817594435065985, -7314207.226538333110511 ], [ 5168071.998320243321359, -7287288.768715756945312 ], [ 5124730.963523500598967, -7157265.664325527846813 ] ] ] ] } },
{ "type": "Feature", "properties": { "id": 12 }, "geometry": { "type": "MultiPolygon", "coordinates": [ [ [ [ -531836.447805555770174, 2213456.14448118256405 ], [ -451359.999853285029531, 1789125.782551028765738 ], [ -267307.428322226158343, 1037577.782132534543052 ], [ -148984.428701045864727, 227086.397932021238375 ], [ -109174.558974023268092, -514205.78829055337701 ], [ -263746.505938362330198, -1364956.144134650938213 ], [ -611783.1323312651366, -1974020.240322231315076 ], [ -917136.845361909014173, -2242168.806236306671053 ], [ -978853.011730032972991, -2235047.710116907954216 ], [ -1400293.061469140928239, -2560705.930369854904711 ], [ -1457403.373020274098963, -2604836.625659367069602 ], [ -1446079.847099169157445, -2887924.773686991538852 ], [ -1435651.083870717789978, -3148643.854398277588189 ], [ -1418391.466625749366358, -3181724.787451133597642 ], [ -2330213.975146222859621, -3561937.348239850252867 ], [ -4461938.311802752315998, -3583689.637389406561852 ], [ -5767075.660776138305664, -3018130.11950093973428 ], [ -6506653.491861056536436, -2691845.782257593236864 ], [ -7115717.588048635981977, -1952267.951172675006092 ], [ -7006956.142300853505731, -1430213.01158332079649 ], [ -7311488.190394643694162, -799396.626246184110641 ], [ -7202726.744646862149239, 266465.542082080617547 ], [ -6985203.853151297196746, 1093052.529765224084258 ], [ -6571910.35930972546339, 1310575.42126078857109 ], [ -6506653.491861056536436, 1636859.758504134602845 ], [ -6115112.287169040180743, 1963144.095747481100261 ], [ -6093359.998019483871758, 2376437.589589053299278 ], [ -5701818.793327468447387, 2963749.396627076435834 ], [ -5636561.92587879858911, 3420547.46876776125282 ], [ -4788222.649046098813415, 4203629.878151793032885 ], [ -3200305.541128479875624, 4551666.504544694907963 ], [ -2069186.505351546220481, 4334143.613049130886793 ], [ -1090333.493621507659554, 3812088.673459776677191 ], [ -680276.315970477415249, 2996139.085714404005557 ], [ -531836.447805555770174, 2213456.14448118256405 ] ] ] ] } },
{ "type": "Feature", "properties": { "id": 13 }, "geometry": { "type": "MultiPolygon", "coordinates": [ [ [ [ 6810659.274894817732275, -5424915.660887321457267 ], [ 6523680.898531422019005, -5664064.307856817729771 ], [ 6501215.419573681429029, -5682785.540321601554751 ], [ 6194249.379273938946426, -6137942.082835013046861 ], [ 5881275.178811323828995, -6183088.190761399455369 ], [ 5390271.834141785278916, -6119044.27623928617686 ], [ 5380972.528371525928378, -6117831.323312730528414 ], [ 5115006.701040196232498, -6199666.962491600774229 ], [ 5098192.769427292048931, -6204840.479910955764353 ], [ 5063472.705718344077468, -6224931.329287873581052 ], [ 4823343.387785227969289, -6342653.914717389270663 ], [ 4687618.31172941531986, -6041698.311289282515645 ], [ 4647515.088130159303546, -6016698.899175460450351 ], [ 4125079.688242306932807, -5691024.883660955354571 ], [ 3850155.179471493698657, -5519643.371699929237366 ], [ 3381890.402869614772499, -5227513.081220817752182 ], [ 3610879.998826371505857, -5019340.721260129474103 ], [ 3586517.434978870674968, -5001068.798374503850937 ], [ 3349852.529031694866717, -4823570.118914121761918 ], [ 3119806.658811751753092, -4675677.95731193665415 ], [ 2690498.563114636577666, -4399683.860111839137971 ], [ 2723571.874626314733177, -4380644.464442927390337 ], [ 2746226.505131509155035, -4388524.335922995582223 ], [ 3057629.763696728274226, -4188336.526845354121178 ], [ 3358009.637462781276554, -3996983.131230977829546 ], [ 3616318.071113765239716, -3996983.131230978295207 ], [ 3920850.119207553565502, -3996983.131230978295207 ], [ 3932885.512903085909784, -3992650.389500586781651 ], [ 4464657.347946465015411, -3801212.528884971514344 ], [ 4478904.35239801555872, -3769869.119091560132802 ], [ 4492653.75038686208427, -3739620.443516097497195 ], [ 4668864.411752018146217, -3351956.988512753508985 ], [ 5052255.737200149334967, -3053149.068292484153062 ], [ 5317388.913934363052249, -2923173.011098069138825 ], [ 5622966.74516034591943, -3126891.565248725004494 ], [ 6010570.035437355749309, -3157832.321366626303643 ], [ 6547439.034016493707895, -3387919.035043399780989 ], [ 6588224.576171910390258, -3387919.035043399780989 ], [ 7066774.937462151050568, -3996983.131230977829546 ], [ 7175536.383209933526814, -4714808.673166340216994 ], [ 6947315.644591636024415, -5311035.35280663985759 ], [ 6810659.274894817732275, -5424915.660887321457267 ] ] ] ] } },
{ "type": "Feature", "properties": { "id": 14 }, "geometry": { "type": "MultiPolygon", "coordinates": [ [ [ [ -5785481.443902688100934, 2838255.420764246489853 ], [ -6093359.998019483871758, 2376437.589589053299278 ], [ -6096845.1714191371575, 2310219.294995648320764 ], [ -6153624.536810881458223, 1931050.554379280423746 ], [ -6506653.491861056536436, 1636859.758504134602845 ], [ -6511673.250895570032299, 1611760.963331565260887 ], [ -6571910.35930972546339, 1310575.42126078857109 ], [ -6985203.853151297196746, 1093052.529765224084258 ], [ -7014507.455114430747926, 981698.842305315542035 ], [ -7202726.744646862149239, 266465.542082080617547 ], [ -7222721.635332563892007, 70515.613362204981968 ], [ -7311488.190394643694162, -799396.626246184110641 ], [ -7272724.226702858693898, -879693.408179166959599 ], [ -7175446.369695264846087, -1081197.540552039630711 ], [ -7040434.110943756997585, -1360865.790823021205142 ], [ -7060836.439233224838972, -1688838.436858703382313 ], [ -7115717.588048635981977, -1952267.951172675006092 ], [ -7079927.223633489571512, -1995727.67939106747508 ], [ -6985203.853151299059391, -3257405.300146063789725 ], [ -7093965.298899080604315, -4018735.420380538329482 ], [ -7267983.612095534801483, -4432028.914222110062838 ], [ -7594267.949338879436255, -4519038.070820335298777 ], [ -7855295.419133558869362, -4236258.311876103281975 ], [ -8029313.73233000934124, -3192148.432697394862771 ], [ -8681882.406816700473428, -2148038.553518686443567 ], [ -9225689.635555611923337, -1995772.529471790418029 ], [ -9508469.394499845802784, -1691240.481378002092242 ], [ -9769496.864294521510601, -625378.313049737364054 ], [ -9813001.442593634128571, 505740.722727198153734 ], [ -9312698.792153837159276, 1636859.758504130877554 ], [ -8768891.563414927572012, 2615712.770234170369804 ], [ -8159827.467227347195148, 3377042.890468644909561 ], [ -7072213.00974952429533, 3942602.408357111737132 ], [ -6093359.998019486665726, 3725079.516861547715962 ], [ -5646567.978887595236301, 3350505.097706186119467 ], [ -5785481.443902688100934, 2838255.420764246489853 ] ] ] ] } },
{ "type": "Feature", "properties": { "id": 15 }, "geometry": { "type": "MultiPolygon", "coordinates": [ [ [ [ -8668439.980937762185931, -2169546.434924986679107 ], [ -8028137.932916520163417, -3199203.229178328998387 ], [ -7855295.419133558869362, -4236258.311876103281975 ], [ -7823605.183184045366943, -4270589.400821409188211 ], [ -7594267.949338879436255, -4519038.070820335298777 ], [ -7529281.85727381426841, -4501708.446269650943577 ], [ -6941699.274852186441422, -6063450.600438839755952 ], [ -6332635.178664606064558, -7390340.238561781123281 ], [ -5941093.973972592502832, -8738982.165834279730916 ], [ -5962846.263122148811817, -9609073.731816535815597 ], [ -6376139.756963718682528, -9935358.069059882313013 ], [ -6811185.539954848587513, -10218137.82800411619246 ], [ -7833543.129983998835087, -10239890.117153672501445 ], [ -9095175.900658272206783, -10196385.538854559883475 ], [ -10204542.647285651415586, -10065871.803957222029567 ], [ -10748349.876024561002851, -9761339.755863431841135 ], [ -11292157.10476347245276, -9195780.237974964082241 ], [ -11531432.285408591851592, -8673725.298385610803962 ], [ -11727202.8877546004951, -7803633.732403352856636 ], [ -11596689.152857260778546, -7281578.792813999578357 ], [ -11205147.948165245354176, -7238074.214514886029065 ], [ -10574331.562828110530972, -7586110.840907788835466 ], [ -10378560.960482101887465, -7238074.214514886029065 ], [ -10465570.117080327123404, -6498496.383429967798293 ], [ -10139285.779836980625987, -6389734.937682186253369 ], [ -10291551.803883876651525, -5889432.287242388352752 ], [ -10117533.490687424317002, -5432634.215101703070104 ], [ -10226294.936435207724571, -4345019.757623882032931 ], [ -10596083.851977666839957, -3692451.083137189503759 ], [ -10378560.960482101887465, -3105139.276099166367203 ], [ -9965267.466640530154109, -3300909.878445174079388 ], [ -9813001.442593634128571, -2604836.625659368466586 ], [ -10182790.358136093243957, -2235047.7101169093512 ], [ -10617836.141127223148942, -1734745.059677111683413 ], [ -10639588.430276779457927, -1408460.722433765185997 ], [ -10443817.827930770814419, -1277946.987536426633596 ], [ -9921762.888341417536139, -1299699.276685983175412 ], [ -9527238.756767990067601, -1614598.918783078668639 ], [ -9508469.394499845802784, -1691240.481378002092242 ], [ -9225689.635555611923337, -1995772.529471790418029 ], [ -9211166.593838550150394, -1999838.981152567779645 ], [ -8668439.980937762185931, -2169546.434924986679107 ] ] ] ] } },
{ "type": "Feature", "properties": { "id": 16 }, "geometry": { "type": "MultiPolygon", "coordinates": [ [ [ [ -9961861.702822146937251, -3285340.672418277710676 ], [ -10256068.997375210747123, -3163161.784939272329211 ], [ -10378560.960482101887465, -3105139.276099166367203 ], [ -10596083.851977666839957, -3692451.083137189503759 ], [ -10570892.176486548036337, -3736906.981062692124397 ], [ -10214234.26126317679882, -4465626.509344195015728 ], [ -10147168.2925387006253, -5510425.569961304776371 ], [ -10291551.803883876651525, -5889432.287242388352752 ], [ -10276272.514273634180427, -5939635.667390326969326 ], [ -10247319.731626139953732, -6034766.238946381025016 ], [ -10165892.81864102371037, -6302311.810183189809322 ], [ -10406838.936376525089145, -6478919.323195367120206 ], [ -10465570.117080327123404, -6498496.383429967798293 ], [ -10398754.211842782795429, -7066431.577949102967978 ], [ -10574331.562828110530972, -7586110.840907788835466 ], [ -11205147.948165245354176, -7238074.214514886029065 ], [ -11267221.553787151351571, -7244971.281806209124625 ], [ -11532228.10086528211832, -7274416.453703779727221 ], [ -11596689.152857260778546, -7281578.792813999578357 ], [ -11727202.8877546004951, -7803633.732403352856636 ], [ -11532014.589401293545961, -8671137.28064027428627 ], [ -11531432.285408591851592, -8673725.298385610803962 ], [ -11292157.10476347245276, -9195780.237974964082241 ], [ -11248267.974081238731742, -9241424.933884486556053 ], [ -12423276.140540406107903, -9717835.177564319223166 ], [ -12858321.923531534150243, -9717835.177564319223166 ], [ -13880679.513560686260462, -9261037.105423633009195 ], [ -14772523.368692498654127, -8412697.8285909332335 ], [ -15294578.308281853795052, -7172817.34706621710211 ], [ -15838385.537020763382316, -5715413.974045936949551 ], [ -16055908.428516328334808, -4432028.914222108200192 ], [ -15577358.067226087674499, -3605441.926538963802159 ], [ -14293973.007402257993817, -2996377.830351383890957 ], [ -11988230.357549278065562, -2343809.155864691361785 ], [ -10944120.478370569646358, -1669488.192228442290798 ], [ -10592079.932231085374951, -1764364.69990767003037 ], [ -10182790.358136093243957, -2235047.7101169093512 ], [ -9813001.442593634128571, -2604836.625659368466586 ], [ -9961861.702822146937251, -3285340.672418277710676 ] ] ] ] } }
]
}
