{
"type": "FeatureCollection",
"name": "map030",
"crs": { "type": "name", "properties": { "name": "urn:ogc:def:crs:ESRI::102016" } },
"features": [
{ "type": "Feature", "properties": { "id": 1 }, "geometry": { "type": "MultiPolygon", "coordinates": [ [ [ [ -2183386.023386711254716, -7369947.46748408395797 ], [ -1791844.818694695830345, -7456956.624082309193909 ], [ -1422055.903152236714959, -7108919.997689406387508 ], [ -1182780.722507115453482, -6913149.395343398675323 ], [ -203927.710777075961232, -7369947.46748408395797 ], [ 644411.566055623814464, -7826745.539624768309295 ], [ 1296980.240542316809297, -7652727.226428316906095 ], [ 1666769.156084775924683, -7413452.04578319657594 ], [ 1797282.890982115641236, -7239433.732586745172739 ], [ 2014805.782477678731084, -7478708.913231865502894 ], [ 2145319.517375018447638, -8240039.033466340973973 ], [ 1971301.204178566113114, -8827350.840504363179207 ], [ 1623264.577785663306713, -9197139.756046824157238 ], [ 1231723.373093647882342, -9392910.358392830938101 ], [ 905439.035850301384926, -9327653.490944162011147 ], [ 470393.252859173342586, -9218892.045196380466223 ], [ 600906.987756511196494, -8762093.973055694252253 ], [ 448640.963709617033601, -8588075.659859243780375 ], [ 231118.072214052081108, -8696837.105607025325298 ], [ 209365.783064495772123, -8914359.997102590277791 ], [ 231118.072214052081108, -9240644.334345936775208 ], [ -290936.867375303059816, -9436414.93669194355607 ], [ -1030514.698460221290588, -9523424.093290168792009 ], [ -1683083.372946914285421, -9240644.334345936775208 ], [ -2074624.577638929709792, -8696837.105607025325298 ], [ -2444413.493181388825178, -8087773.009419445879757 ], [ -2183386.023386711254716, -7369947.46748408395797 ] ] ] ] } },
{ "type": "Feature", "properties": { "id": 2 }, "geometry": { "type": "MultiPolygon", "coordinates": [ [ [ [ 1257826.120073115453124, -9379858.98490309715271 ], [ 1643061.156534617068246, -9176105.891126060858369 ], [ 1971301.204178566113114, -8827350.840504363179207 ], [ 2132811.265354592818767, -8282254.384035278111696 ], [ 2079493.398901816224679, -7856053.342372664250433 ], [ 2027536.305389949120581, -7552970.296886775642633 ], [ 1910473.535877996589988, -7363943.441972214728594 ], [ 2275833.252272356301546, -7152424.575988519005477 ], [ 3058915.661656387150288, -7304690.600035414099693 ], [ 3276438.55315195210278, -7500461.202381421811879 ], [ 3319943.13145106472075, -8066020.720269889570773 ], [ 3950759.516788201406598, -8283543.611765453591943 ], [ 4451062.167228000238538, -8305295.900915009900928 ], [ 4842603.371920015662909, -8261791.322615897282958 ], [ 5168887.709163362160325, -9110130.599448598921299 ], [ 5538676.624705821275711, -9893213.008832629770041 ], [ 4799098.793620903044939, -10175992.767776863649487 ], [ 4451062.167228000238538, -10458772.526721095666289 ], [ 4298796.143181104212999, -10698047.707366216927767 ], [ 4907860.239368684589863, -10915570.59886178188026 ], [ 4472814.456377556547523, -11176598.068656459450722 ], [ 3733236.625292636454105, -11372368.671002466231585 ], [ 3145924.818254614248872, -11546386.984198918566108 ], [ 2471603.854618364945054, -11698653.008245812729001 ], [ 2732631.324413040652871, -10937322.888011338189244 ], [ 2580365.300366146489978, -10654543.129067104309797 ], [ 2232328.673973243683577, -10306506.502674201503396 ], [ 2014805.782477678731084, -10088983.611178636550903 ], [ 1732026.023533444851637, -10023726.743729967623949 ], [ 1666769.156084775924683, -9566928.671589283272624 ], [ 1571059.08382672839798, -9223242.50302629172802 ], [ 1257826.120073115453124, -9379858.98490309715271 ] ] ] ] } },
{ "type": "Feature", "properties": { "id": 3 }, "geometry": { "type": "MultiPolygon", "coordinates": [ [ [ [ -2193230.125045634340495, -7397018.747046122327447 ], [ -2099095.902932181023061, -7108919.997689405456185 ], [ -1620545.54164193989709, -6760883.371296502649784 ], [ -1033233.734603916294873, -6434599.034053156152368 ], [ -848339.27683268673718, -6140943.130534145049751 ], [ -554683.37331367470324, -5977800.961912471801043 ], [ -348036.626392888836563, -5999553.251062028110027 ], [ 65256.867448683362454, -5999553.251062028110027 ], [ 500302.650439811870456, -5945172.528188137337565 ], [ 891843.855131827760488, -5760278.070416907779872 ], [ 1076738.312903057318181, -5901667.949889024719596 ], [ 1250756.626099508721381, -6195323.853408035822213 ], [ 1914201.445160979870707, -6140943.130534145049751 ], [ 2729912.288269346114248, -5912544.094463802874088 ], [ 3241091.083283922169358, -5651516.624669125303626 ], [ 3632632.287975937593728, -5455746.022323117591441 ], [ 3806650.601172388996929, -5325232.28742577880621 ], [ 3980668.91436884040013, -5129461.685079771094024 ], [ 4024173.492667953949422, -5172966.263378883711994 ], [ 3969792.769794062245637, -5401365.299449225887656 ], [ 3850155.179471501614898, -5608012.046370012685657 ], [ 3806650.601172388996929, -5890791.805314246565104 ], [ 4078554.215541844721884, -6010429.39563680626452 ], [ 4274324.817887851968408, -6086562.407660253345966 ], [ 4654989.878005089238286, -6217076.142557592131197 ], [ 5198797.106744000688195, -6249704.576281927525997 ], [ 5764356.624632468447089, -6401970.60032882168889 ], [ 6319039.997946158051491, -6249704.576281927525997 ], [ 6808466.503811176866293, -5444869.877748339436948 ], [ 6938980.238708514720201, -5977800.961912471801043 ], [ 7036865.539881519973278, -6499855.901501826010644 ], [ 6841094.93753551132977, -7369947.467484083026648 ], [ 6667076.624339060857892, -8109525.29856900125742 ], [ 6482182.166567830368876, -8196534.455167227424681 ], [ 6036260.239001924172044, -8294419.756340231746435 ], [ 5666471.323459465056658, -8283543.611765453591943 ], [ 5546833.733136903494596, -8011639.997395997866988 ], [ 5383691.564515231177211, -7815869.395049990154803 ], [ 4842603.371920013800263, -8261791.322615897282958 ], [ 4396312.06585911475122, -8302915.461725058034062 ], [ 4146632.724271706305444, -8292059.838177779689431 ], [ 3840148.77972058346495, -8245401.9782938612625 ], [ 3342400.462916307616979, -8073764.627671697176993 ], [ 3277206.281004289165139, -7510441.664461806416512 ], [ 3088359.367963797878474, -7331189.935712083242834 ], [ 2776249.111651964951307, -7249727.659756775945425 ], [ 2286313.165557792875916, -7154462.336905132047832 ], [ 1952304.861165604786947, -7409957.899788583628833 ], [ 1762044.182559833396226, -7286418.677149787545204 ], [ 1611300.818753407336771, -7449343.322879964485765 ], [ 1281410.655985061777756, -7656879.11564358510077 ], [ 1128422.564248554874212, -7697675.940106653608382 ], [ 679612.365924200392328, -7817358.659659814089537 ], [ -275376.835720875882544, -7336604.542510310187936 ], [ -1169681.716267419978976, -6919262.264921923168004 ], [ -1798754.369365732185543, -7455421.168377634137869 ], [ -2193230.125045634340495, -7397018.747046122327447 ] ] ] ] } },
{ "type": "Feature", "properties": { "id": 4 }, "geometry": { "type": "MultiPolygon", "coordinates": [ [ [ [ 4870273.563264671713114, -10938122.604524189606309 ], [ 4337534.411063622683287, -10637173.286407973617315 ], [ 4453109.441500899381936, -10457109.116374365985394 ], [ 4744231.843107198365033, -10220572.165069248527288 ], [ 5116140.460078437812626, -10054770.954131335020065 ], [ 5521652.380292167887092, -9899722.278755497187376 ], [ 5431647.81397704873234, -9666563.762583464384079 ], [ 5259118.537608816288412, -9301207.64792132563889 ], [ 5116609.333823255263269, -8974206.823564320802689 ], [ 4991029.107805197127163, -8647698.235917370766401 ], [ 4860403.247706057503819, -8308070.999659605324268 ], [ 5085558.862461061216891, -8061566.697245386429131 ], [ 5406647.361466094851494, -7843416.351391026750207 ], [ 5573014.479276525788009, -8071141.693167866207659 ], [ 5742059.11820949986577, -8285766.782199278473854 ], [ 6035141.60356164816767, -8294386.85529787093401 ], [ 6301168.739387629553676, -8236269.109914100728929 ], [ 6653481.443620587699115, -8240039.033466340973973 ], [ 6621376.790229882113636, -8131031.102855673991144 ], [ 7371306.985555949620903, -8577199.515284463763237 ], [ 8089132.52749131154269, -8620704.093583578243852 ], [ 8361036.141860766336322, -8479314.214111462235451 ], [ 8524178.310482440516353, -7989887.708246441558003 ], [ 8654692.045379778370261, -7522213.491530978120863 ], [ 8926595.659749234095216, -7337319.03375974856317 ], [ 9198499.27411868982017, -7478708.913231865502894 ], [ 9372517.587315140292048, -8000763.852821219712496 ], [ 9492155.17763770185411, -8479314.214111462235451 ], [ 9416022.165614252910018, -9175387.466897267848253 ], [ 8991852.52719790302217, -9795327.707659624516964 ], [ 8556806.74420677497983, -10208621.201501198112965 ], [ 7915114.214294860139489, -10687171.562791438773274 ], [ 7240793.250658610835671, -10959075.177160892635584 ], [ 6979765.780863934196532, -11143969.634932123124599 ], [ 6881880.479690929874778, -11252731.080679904669523 ], [ 6686109.877344922162592, -10926446.743436560034752 ], [ 6251064.09435379318893, -10763304.574814885854721 ], [ 5761637.588488773442805, -10861189.875987891107798 ], [ 5141697.347726415842772, -10828561.442263554781675 ], [ 4870273.563264671713114, -10938122.604524189606309 ] ] ] ] } },
{ "type": "Feature", "properties": { "id": 5 }, "geometry": { "type": "MultiPolygon", "coordinates": [ [ [ [ 3488523.372360131703317, -3976590.36015327880159 ], [ 3140486.745967228896916, -4009218.793877613265067 ], [ 2977344.577345555648208, -3769943.61323249200359 ], [ 2748945.541275213472545, -3552420.72173692798242 ], [ 2455289.637756201438606, -3508916.14343781536445 ], [ 1791844.81869473028928, -3226136.384493581485003 ], [ 1628702.650073057040572, -2965108.914698904845864 ], [ 1606950.360923500731587, -2562691.565432110335678 ], [ 1759216.384970395825803, -2192902.649889651220292 ], [ 1944110.842741625383496, -1703476.144024631474167 ], [ 2063748.433064186014235, -1137916.626136165112257 ], [ 1976739.276465959846973, -648490.120271145366132 ], [ 1519941.204325275029987, -82930.602382677607238 ], [ 1193656.867081928532571, 145468.433687664568424 ], [ 1084895.421334146521986, 297734.45773455966264 ], [ 1356799.035703601781279, 450000.481781454756856 ], [ 1596074.216348722577095, 645771.084127462469041 ], [ 1672207.228372170124203, 819789.397323913872242 ], [ 1487312.77060094056651, 1254835.180315042380244 ], [ 1150152.288782815914601, 1646376.385007058270276 ], [ 715106.5057916874066, 2027041.445124295540154 ], [ 301813.011950114974752, 2124926.746297299396247 ], [ -89728.192741900682449, 2331573.493218085728586 ], [ -448640.963709581759758, 2549096.384713649749756 ], [ -405136.385410468908958, 2668733.975036210380495 ], [ -307251.08423746493645, 2723114.697910101152956 ], [ -2719.036143674980849, 2723114.697910101152956 ], [ 106042.409604107262567, 2864504.57738221809268 ], [ 301813.011950114974752, 3082027.46887778211385 ], [ 649849.638343018013984, 3136408.191751673817635 ], [ 976133.9755863645114, 3408311.806121128611267 ], [ 1193656.867081928532571, 3593206.26389235816896 ], [ 1606950.360923500731587, 3854233.733687035739422 ], [ 1726587.951246061362326, 3712843.854214918799698 ], [ 1563445.782624388113618, 3495320.962719354778528 ], [ 1313294.457404489163309, 3201665.059200342744589 ], [ 1215409.156231484841555, 2820999.99908310547471 ], [ 1443808.192301827482879, 2831876.143657883629203 ], [ 1628702.650073057040572, 2831876.143657883629203 ], [ 1802720.963269508443773, 2766619.276209214236587 ], [ 2161633.734237189870328, 2657857.830461432226002 ], [ 2400908.914882310666144, 2712238.553335322998464 ], [ 2672812.529251765925437, 2973266.023130000568926 ], [ 2781573.974999547936022, 3212541.203775120899081 ], [ 2966468.432770777493715, 3343054.938672459684312 ], [ 3162239.035116785205901, 3440940.239845463540405 ], [ 3597284.818107914179564, 3506197.107294132933021 ], [ 3836559.998753034509718, 3473568.673569798469543 ], [ 4064959.034823377616704, 3440940.239845463540405 ], [ 4304234.215468497946858, 3517073.251868911087513 ], [ 4565261.685263175517321, 3691091.565065362490714 ], [ 4695775.420160513371229, 3604082.408467136789113 ], [ 4684899.275585735216737, 3375683.372396794147789 ], [ 4587013.974412731826305, 3169036.625476008281112 ], [ 4260729.637169385328889, 3071151.324303003959358 ], [ 3999702.167374707758427, 3158160.480901230126619 ], [ 3727798.553005252964795, 3332178.79409768152982 ], [ 3532027.950659244321287, 3245169.637499455362558 ], [ 3423266.504911462776363, 3016770.601429113186896 ], [ 3358009.637462792918086, 2603477.107587540987879 ], [ 3434142.649486240930855, 2364201.926942420192063 ], [ 3586408.673533136025071, 2179307.469171191100031 ], [ 4075835.179398155771196, 1972660.722250405000523 ], [ 4119339.757697268389165, 2233688.192045082338154 ], [ 4358614.93834238871932, 2146679.035446856170893 ], [ 4728403.853884848766029, 1972660.722250405000523 ], [ 4902422.16708130016923, 1766013.975329618901014 ], [ 5119945.0585768641904, 1504986.505534941796213 ], [ 5283087.227198537439108, 1222206.746590708149597 ], [ 5304839.516348093748093, 917674.698496918193996 ], [ 5043812.04655341617763, 286858.313159781508148 ], [ 4695775.420160513371229, -137311.325256568845361 ], [ 4162844.335996381007135, -681118.553995479363948 ], [ 3782179.275879143737257, -1301058.794757837429643 ], [ 3673417.83013136126101, -1692599.999449853319675 ], [ 3814807.709603478200734, -2029760.481267977971584 ], [ 3825683.854178256355226, -2247283.372763541992754 ], [ 3651665.540981804952025, -2443053.975109549704939 ], [ 3347133.492888014763594, -2758462.167778118047863 ], [ 3379761.926612350158393, -2954232.770124125760049 ], [ 3510275.661509688012302, -3204384.095344025176018 ], [ 3673417.83013136126101, -3302269.396517029497772 ], [ 3814807.709603478200734, -3617677.589185596909374 ], [ 3488523.372360131703317, -3976590.36015327880159 ] ] ] ] } }
]
}
