{
"type": "FeatureCollection",
"name": "map020",
"crs": { "type": "name", "properties": { "name": "urn:ogc:def:crs:ESRI::102016" } },
"features": [
{ "type": "Feature", "properties": { "id": 1 }, "geometry": { "type": "MultiPolygon", "coordinates": [ [ [ [ 943430.663368698209524, -1538510.053726125508547 ], [ 1554877.474101467058063, -1538510.053726125508547 ], [ 1554877.474101467058063, -1742325.657303715124726 ], [ 1249154.068735081702471, -1929156.627249838784337 ], [ 1283123.335998013615608, -2302818.567142087034881 ], [ 1622816.008627329021692, -2506634.170719676651061 ], [ 1775677.711310522630811, -3203004.14960977435112 ], [ 1945524.047625180333853, -3508727.554976158775389 ], [ 2438078.42293768748641, -3423804.386818829923868 ], [ 2692847.927409674972296, -3406819.753187363967299 ], [ 3083494.500933388248086, -3882389.494868406094611 ], [ 3474141.074457101523876, -3899374.128499872051179 ], [ 3915741.548875212669373, -3797466.32671107724309 ], [ 4068603.251558404415846, -4103189.732077461667359 ], [ 3576048.876245897263288, -4120174.365708927623928 ], [ 3032540.60003899037838, -4256051.434760653413832 ], [ 2556970.858357949182391, -4646698.008284367620945 ], [ 2607924.759252347052097, -5444975.788963260129094 ], [ 2302201.353885961696506, -5835622.362486973404884 ], [ 1537892.840470001101494, -5903560.897012837231159 ], [ 705645.792528176680207, -5869591.629749905318022 ], [ -126601.255413647741079, -5954514.79790723323822 ], [ -907894.40246107429266, -5920545.530644301325083 ], [ -1315525.609616253525019, -5563868.22438351996243 ], [ -1468387.312299445271492, -4782575.07733609341085 ], [ -1485371.945930911228061, -4239066.801129188388586 ], [ -958848.303355472162366, -3270942.684135637246072 ], [ -313432.22535977140069, -2438695.636193812824786 ], [ 298014.585372997447848, -1878202.726355441845953 ], [ 943430.663368698209524, -1538510.053726125508547 ] ] ] ] } },
{ "type": "Feature", "properties": { "id": 2 }, "geometry": { "type": "MultiPolygon", "coordinates": [ [ [ [ -935550.79704682319425, -5896346.185381771065295 ], [ -907894.40246107429266, -5920545.530644301325083 ], [ -349196.095421510282904, -5944836.761385152116418 ], [ -349196.095421499630902, -5944836.76138515304774 ], [ -349196.095421495672781, -5944836.76138515304774 ], [ -126601.255413647741079, -5954514.79790723323822 ], [ 470311.301642730773892, -5893605.353309644386172 ], [ 1077994.159923354163766, -5884789.522296647541225 ], [ 1077994.159923364873976, -5884789.522296647541225 ], [ 1537892.840470001101494, -5903560.897012837231159 ], [ 2302201.353885961696506, -5835622.362486973404884 ], [ 2607924.759252347052097, -5444975.788963260129094 ], [ 2604685.579799637198448, -5394228.644204141572118 ], [ 3083494.500933388248086, -6294207.470536550506949 ], [ 3389217.906299773603678, -6939623.54853224940598 ], [ 2489032.323832085356116, -7398208.656581826508045 ], [ 1571862.107732933014631, -7534085.72563355229795 ], [ 1215184.801472149789333, -7466147.19110769033432 ], [ 586753.357107916846871, -7839809.130999937653542 ], [ 94198.981795407831669, -7805839.863737005740404 ], [ -330416.858991237357259, -7635993.527422348037362 ], [ -856940.501566676422954, -7381224.022950360551476 ], [ -1400448.777773583307862, -7228362.320267168805003 ], [ -1774110.717665830627084, -7415193.290213292464614 ], [ -2079834.12303221412003, -7415193.290213292464614 ], [ -2402542.162030064500868, -7177408.419372770935297 ], [ -2436511.429292996414006, -6854700.380374921485782 ], [ -2130788.023926611989737, -6379130.638693878427148 ], [ -1519341.213193843141198, -6039437.966064563021064 ], [ -935550.797046823310666, -5896346.185381771065295 ], [ -935550.79704682319425, -5896346.185381771065295 ] ] ] ] } },
{ "type": "Feature", "properties": { "id": 3 }, "geometry": { "type": "MultiPolygon", "coordinates": [ [ [ [ -2311020.512362760491669, -7244845.424390784464777 ], [ -2079834.12303221412003, -7415193.290213292464614 ], [ -1774110.717665830627084, -7415193.290213292464614 ], [ -1767316.864213244989514, -7411796.363486999645829 ], [ -1767316.864213244291022, -7411796.363486999645829 ], [ -1372658.535596490371972, -7236178.325879476033151 ], [ -1372658.535596476634964, -7236178.325879479758441 ], [ -819870.751014361856505, -7399160.999024061486125 ], [ -631466.054087965167128, -7490324.562052963301539 ], [ -433857.001251001376659, -7585941.845683752559125 ], [ -433857.001250998640899, -7585941.845683753490448 ], [ -330416.858991237357259, -7635993.527422348037362 ], [ 42952.242390103907383, -7785341.167974884621799 ], [ 42952.242390120467462, -7785341.167974891141057 ], [ 42952.242390121304197, -7785341.167974891141057 ], [ 94198.981795407831669, -7805839.863737005740404 ], [ 586753.357107916846871, -7839809.130999937653542 ], [ 637116.049762037931941, -7809863.746178568340838 ], [ 637116.049762038514018, -7809863.746178568340838 ], [ 586753.357107914052904, -8340855.823128174990416 ], [ 153645.199505536817014, -8306886.555865243077278 ], [ -118108.93859791662544, -8408794.35765403881669 ], [ 340476.169451660476625, -8739994.713467622175813 ], [ 578261.040292181074619, -8723010.079836156219244 ], [ 720507.346955706365407, -8459748.258548434823751 ], [ 1297984.890425543300807, -8408794.35765403881669 ], [ 1985862.552499908953905, -8315378.872680976986885 ], [ 2104754.987920168787241, -8400302.040838304907084 ], [ 2121739.62155163474381, -8790948.614362020045519 ], [ 2291585.957866293378174, -8731502.396651888266206 ], [ 2452939.977365218102932, -8790948.614362020045519 ], [ 2401986.076470821164548, -8960794.950676675885916 ], [ 2843586.550888931378722, -9198579.821517199277878 ], [ 2334047.541944957338274, -9538272.494146514683962 ], [ 2537863.145522546954453, -9801534.315434234216809 ], [ 2096262.671104436740279, -10243134.789852345362306 ], [ 2079278.037472968921065, -11491505.361765081062913 ], [ 1994354.869315641000867, -12272798.508812507614493 ], [ 1892447.067526845261455, -13172984.09128019399941 ], [ 1179092.455005282536149, -13037107.022228468209505 ], [ 346845.407063458114862, -12782337.517756480723619 ], [ -519370.908141298219562, -12221844.607918109744787 ], [ -1300664.055188724771142, -11525474.62902801297605 ], [ -2200849.637656413018703, -10880058.551032312214375 ], [ -2642450.112074522301555, -10404488.809351269155741 ], [ -2931188.883809441700578, -8977779.584308141842484 ], [ -2846265.715652111917734, -7958701.566420193761587 ], [ -2761342.547494783997536, -7517101.092002083547413 ], [ -2364883.234678432811052, -7205157.102684499695897 ], [ -2311020.512362760491669, -7244845.424390784464777 ] ] ] ] } },
{ "type": "Feature", "properties": { "id": 4 }, "geometry": { "type": "MultiPolygon", "coordinates": [ [ [ [ 975276.85142769291997, -1538510.053726125508547 ], [ 822415.148744501173496, -1096909.57930801063776 ], [ 227952.971643198281527, 7091.606737266294658 ], [ -230632.136406378820539, 1603647.168095051776618 ], [ -621278.709930092096329, 2775586.88866619206965 ], [ -638263.343561558052897, 3285125.897610166110098 ], [ -349524.571826639585197, 3777680.272922674193978 ], [ -43801.166460255160928, 3981495.876500263810158 ], [ 839399.782375967130065, 4083403.678289058618248 ], [ 1671646.830317790620029, 4066419.044657592661679 ], [ 1926416.334789778105915, 3760695.63929120823741 ], [ 1926416.334789778105915, 3285125.897610166110098 ], [ 2045308.770210038870573, 3013371.759506713598967 ], [ 2334047.541944956406951, 3030356.393138179089874 ], [ 2690724.848205739632249, 3217187.363084302749485 ], [ 2826601.917257465422153, 3421002.966661892365664 ], [ 3081371.421729452908039, 3709741.738396811299026 ], [ 3472017.995253166183829, 3828634.173817071598023 ], [ 4151403.340511796995997, 3573864.669345084577799 ], [ 4491096.013141114264727, 3251156.630347234196961 ], [ 3947587.736934207379818, 3336079.798504563514143 ], [ 3709802.866093687713146, 3404018.333030426874757 ], [ 3607895.064304891973734, 3217187.363084302749485 ], [ 3302171.658938508480787, 3234171.996715768706053 ], [ 3404079.460727302357554, 2877494.690454986877739 ], [ 3489002.628884632140398, 2130170.810670491773635 ], [ 4015526.271460071206093, 2130170.810670491773635 ], [ 4202357.241406194865704, 1603647.168095051776618 ], [ 4117434.073248866945505, 771400.120153227820992 ], [ 4372203.577720852568746, 737430.852890295907855 ], [ 4389188.211352318525314, 176937.943051924929023 ], [ 4576019.181298442184925, 58045.507631664164364 ], [ 4694911.616718703880906, -315616.432260583154857 ], [ 4915711.853927759453654, -485462.768575241789222 ], [ 5442235.496503198519349, -1215802.014728271402419 ], [ 5764943.535501047968864, -1827248.825461039319634 ], [ 6036697.673604501411319, -2472664.90345674008131 ], [ 6036697.673604501411319, -3084111.714189508929849 ], [ 6359405.712602352723479, -3236973.416872701607645 ], [ 6631159.850705804303288, -3457773.65408175624907 ], [ 6155590.1090247631073, -3916358.762131333351135 ], [ 5629066.46644932217896, -4154143.632971854880452 ], [ 4796819.418507497757673, -4307005.335655046626925 ], [ 4068603.251558404415846, -4103189.732077461667359 ], [ 3915741.548875212669373, -3797466.32671107724309 ], [ 3897599.956351714674383, -3801652.848062653560191 ], [ 3423375.446624183095992, -3897166.927289745304734 ], [ 3423375.446624180302024, -3897166.927289744839072 ], [ 3043961.246206070762128, -3834262.054330802056938 ], [ 2911382.453575120307505, -3672861.785040949471295 ], [ 2692847.927409674972296, -3406819.753187363967299 ], [ 2438078.42293768748641, -3423804.386818829923868 ], [ 2011714.596617087721825, -3497315.391356864478439 ], [ 2011714.596617086790502, -3497315.391356864478439 ], [ 1786393.252575654536486, -3222292.123887011781335 ], [ 1622816.008627329021692, -2506634.170719676651061 ], [ 1319028.351946880342439, -2324361.576711406931281 ], [ 1252617.124157890444621, -1967250.236900734482333 ], [ 1554877.474101432133466, -1742325.657303736545146 ], [ 1554877.474101467058063, -1742325.657303715124726 ], [ 1554877.474101467058063, -1742325.657303710468113 ], [ 1554877.474101467058063, -1538510.053726125508547 ], [ 975276.85142769291997, -1538510.053726125508547 ] ] ] ] } },
{ "type": "Feature", "properties": { "id": 5 }, "geometry": { "type": "MultiPolygon", "coordinates": [ [ [ [ 2313138.872267602011561, 3029126.471392452251166 ], [ 2486909.24462815374136, 4457065.618181305006146 ], [ 2928509.719046264886856, 5034543.161651141941547 ], [ 2894540.451783332973719, 5679959.239646842703223 ], [ 1909431.701158314943314, 6800945.059323584660888 ], [ 550661.010641053318977, 7786053.809948600828648 ], [ -1249710.154294323176146, 9246732.302254660055041 ], [ -2200849.637656409293413, 11454734.674345213919878 ], [ -2336726.706708133220673, 13357013.641069384291768 ], [ -1249710.154294323176146, 14919599.935164237394929 ], [ 7152.734434146434069, 15225323.340530622750521 ], [ 2588817.046416949480772, 15700893.082211663946509 ], [ 4389188.211352322250605, 14885630.667901307344437 ], [ 5272389.160188544541597, 13560829.244646973907948 ], [ 5544143.298291996121407, 12439843.424970231950283 ], [ 6019713.03997303918004, 10843287.86361244507134 ], [ 6563221.316179946064949, 9518486.440358113497496 ], [ 7752145.670382551848888, 8023838.680789122357965 ], [ 9382670.499003268778324, 6291406.050379611551762 ], [ 11352888.000253297388554, 4219280.74734078347683 ], [ 11675596.039251148700714, 3675772.471133878454566 ], [ 11862427.009197272360325, 2928448.5913493828848 ], [ 12032273.345511928200722, 1892385.939829968847334 ], [ 12015288.711880464106798, 771400.12015322688967 ], [ 11760519.207408476620913, -689278.372152832336724 ], [ 11217010.931201569736004, -1827248.825461040250957 ], [ 10214917.546945087611675, -2557588.071614070795476 ], [ 8397561.748378247022629, -3338881.218661497347057 ], [ 6987837.156966585665941, -3559681.455870552919805 ], [ 6631159.850705804303288, -3457773.65408175624907 ], [ 6429102.656257119961083, -3293602.183592200279236 ], [ 6036697.673604501411319, -2914265.377874852158129 ], [ 6036697.673604501411319, -2472664.90345674008131 ], [ 6029344.326338173821568, -2455200.703699211124331 ], [ 5764943.535501047968864, -1827248.825461039319634 ], [ 5681588.652766540646553, -1669313.25817460520193 ], [ 5442235.496503198519349, -1215802.014728271402419 ], [ 5115640.938137009739876, -762783.756349363946356 ], [ 4915711.853927759453654, -485462.768575241789222 ], [ 4780276.764189863577485, -381281.930315321253147 ], [ 4592074.466051868163049, 7586.041263754363172 ], [ 4576019.181298442184925, 58045.507631664164364 ], [ 4563930.118537222966552, 65738.547570621609339 ], [ 4386180.840443260967731, 276181.183050827472471 ], [ 4383414.488085733726621, 367470.810849208151922 ], [ 4373855.294385930523276, 682924.202942709671333 ], [ 4372203.577720852568746, 737430.852890295907855 ], [ 4167497.949673491995782, 764724.93662994436454 ], [ 4160665.776741982903332, 1195070.814385770587251 ], [ 4179210.716837246436626, 1376811.227319356519729 ], [ 4195496.177531983703375, 1536408.742127780569717 ], [ 4202357.241406194865704, 1603647.168095051776618 ], [ 4015526.271460071206093, 2130170.810670491773635 ], [ 3930603.103302743285894, 2130170.810670491773635 ], [ 3489002.628884632140398, 2130170.810670491773635 ], [ 3419106.660804096609354, 2745255.329779197927564 ], [ 3371782.526621930301189, 3230304.726288911886513 ], [ 3607895.064304891973734, 3217187.363084302749485 ], [ 3630613.364066725131124, 3258837.579314329661429 ], [ 3788316.738541028928012, 3381585.798045472241938 ], [ 3947587.736934207379818, 3336079.798504563514143 ], [ 4057429.257006528787315, 3318917.060993263497949 ], [ 4487469.170497217215598, 3251723.324510343372822 ], [ 4491096.013141114264727, 3251156.630347234196961 ], [ 4246927.955416756682098, 3483116.28518537292257 ], [ 4151403.340511796995997, 3573864.669345084577799 ], [ 4039723.557729557622224, 3615744.587888424284756 ], [ 3472017.995253166183829, 3828634.173817071598023 ], [ 3353742.648598061408848, 3792637.329182909335941 ], [ 3081371.421729452908039, 3709741.738396811299026 ], [ 2967369.50338595546782, 3580539.564274181146175 ], [ 2826601.917257465422153, 3421002.966661892365664 ], [ 2769115.464966350235045, 3334773.28822521911934 ], [ 2313138.872267602011561, 3029126.471392452251166 ] ] ] ] } },
{ "type": "Feature", "properties": { "id": 6 }, "geometry": { "type": "MultiPolygon", "coordinates": [ [ [ [ -1464470.458100641844794, -4200635.033183209598064 ], [ -1485371.945930911228061, -4239066.801129188388586 ], [ -1470543.532251928001642, -4713576.038856649771333 ], [ -2693404.012968916445971, -4544790.206495566293597 ], [ -3610574.229068068787456, -4103189.732077455148101 ], [ -4408852.009746961295605, -3576666.089502014219761 ], [ -5173160.523162923753262, -3135065.61508390493691 ], [ -6022392.204736213199794, -2336787.834405012428761 ], [ -6616854.381837516091764, -1674387.122777845710516 ], [ -7449101.429779340513051, -1266755.915622666478157 ], [ -7584978.498831066302955, -723247.639415760524571 ], [ -7483070.697042271494865, 108999.408526063896716 ], [ -7177347.291675888001919, 822354.021047627553344 ], [ -6514946.580048721283674, 1637616.435357985086739 ], [ -5920484.402947418391705, 2401924.948773946613073 ], [ -5495868.562160773202777, 3132264.19492697622627 ], [ -4935375.652322402223945, 3539895.402082154992968 ], [ -4544729.078798688948154, 3811649.540185607969761 ], [ -3219927.655544355511665, 4372142.450023978948593 ], [ -1997034.034078817814589, 4508019.51907570566982 ], [ -1028909.917085267603397, 4202296.113709321245551 ], [ -369966.254781322029885, 3742809.166705863084644 ], [ -559897.827495797420852, 3418808.248545875307173 ], [ -601212.793206190457568, 3348329.777628146111965 ], [ -638263.343561558052897, 3285125.897610166110098 ], [ -622334.358635266544297, 2807256.349821424577385 ], [ -621278.709930092096329, 2775586.88866619206965 ], [ -354619.961916079511866, 1975610.6446241538506 ], [ -48972.024080205825157, 971200.851107635186054 ], [ 227952.971643198281527, 7091.606737266294658 ], [ 254676.500705549842678, -42537.80437852954492 ], [ 441039.593093612405937, -388640.690242074255366 ], [ 604263.891092646517791, -691771.529383137589321 ], [ 959526.240054786670953, -1493008.287537729367614 ], [ 552558.426328733796254, -1744232.283747159410268 ], [ 298014.585372997447848, -1878202.726355441845953 ], [ 226102.287506945547648, -1944122.332732656039298 ], [ -313432.22535977140069, -2438695.636193812824786 ], [ -427534.066456667729653, -2585826.95760823180899 ], [ -958848.303355472162366, -3270942.684135637246072 ], [ -994351.129729841137305, -3336222.074565928429365 ], [ -1171198.156849960563704, -3661392.414754536002874 ], [ -1464470.458100641844794, -4200635.033183209598064 ] ] ] ] } },
{ "type": "Feature", "properties": { "id": 7 }, "geometry": { "type": "MultiPolygon", "coordinates": [ [ [ [ -5256507.797478157095611, 3306344.751059787813574 ], [ -5430225.248395918868482, 3180004.786755961365998 ], [ -5495868.562160773202777, 3132264.19492697622627 ], [ -5872410.524938556365669, 2484612.018949190154672 ], [ -5945177.447227011434734, 2370176.748985898680985 ], [ -6599110.435173113830388, 1534030.152127963490784 ], [ -6826146.095541933551431, 1254601.647058647824451 ], [ -6990316.502510569989681, 1052545.761558787897229 ], [ -7177347.291675888001919, 822354.021047627553344 ], [ -7348657.820544982329011, 422629.45368640567176 ], [ -7483070.697042271494865, 108999.408526063896716 ], [ -7497915.698944209143519, -12234.773673094110563 ], [ -7531381.727882727049291, -285540.676670988963451 ], [ -7567039.045828443020582, -576742.106561003136449 ], [ -7584978.498831066302955, -723247.639415760524571 ], [ -7462089.679026931524277, -1214802.918632300337777 ], [ -7449101.429779340513051, -1266755.915622666478157 ], [ -6953764.705132841132581, -1509369.821571972453967 ], [ -6560352.332229562103748, -1737346.549483851529658 ], [ -6022392.204736213199794, -2336787.834405012428761 ], [ -5613736.653569282963872, -2720924.052501926664263 ], [ -5173160.523162923753262, -3135065.61508390493691 ], [ -4848308.182029445655644, -3322758.078849913552403 ], [ -4291250.835116979666054, -3654232.821704768110067 ], [ -3964879.280674537178129, -3869499.166124252136797 ], [ -3630468.217924104537815, -4090068.164959644433111 ], [ -3950266.901697382330894, -6854700.380374915897846 ], [ -4459805.910641353577375, -8858887.148887880146503 ], [ -5716668.79936982318759, -10591319.779297392815351 ], [ -7720855.567882787436247, -11440551.460870679467916 ], [ -10404427.681654386222363, -11202766.590030159801245 ], [ -11729229.104908717796206, -10829104.650137912482023 ], [ -13087999.795425981283188, -9843995.899512894451618 ], [ -14480739.753206176683307, -8383317.40720683708787 ], [ -15499817.771094124764204, -6752792.578586120158434 ], [ -15397909.969305330887437, -4205097.533866250887513 ], [ -15092186.563938945531845, -2574572.705245533958077 ], [ -13325784.666266502812505, 142968.675788994878531 ], [ -11423505.69954233430326, 1603647.168095053173602 ], [ -9215503.327451778575778, 2690663.720508864149451 ], [ -6497961.94641724973917, 3336079.798504564911127 ], [ -4969712.154907094314694, 3514923.400202378630638 ], [ -5256507.797478157095611, 3306344.751059787813574 ] ] ] ] } },
{ "type": "Feature", "properties": { "id": 8 }, "geometry": { "type": "MultiPolygon", "coordinates": [ [ [ [ 11429196.21886109188199, 4090761.642317129299045 ], [ 11352888.000253297388554, 4219280.74734078347683 ], [ 10314109.24571280926466, 5311789.437460955232382 ], [ 10314109.245712792500854, 5311789.437460972927511 ], [ 9351755.349347462877631, 6324253.396888906136155 ], [ 8297648.472373702563345, 7444241.953673525713384 ], [ 7173950.80689063295722, 8750712.22346467897296 ], [ 6616160.608446322381496, 9451934.187223240733147 ], [ 5968398.965974605642259, 11015556.540607186034322 ], [ 5704611.009466285817325, 11901130.39459940418601 ], [ 5394949.569393916986883, 13055267.556674811989069 ], [ 6537744.365732746198773, 13492890.710121113806963 ], [ 8440023.332456918433309, 13357013.641069386154413 ], [ 9832763.290237111970782, 12303966.355918506160378 ], [ 11531226.653383692726493, 10707410.79456072114408 ], [ 13093812.947478545829654, 8737193.29331068880856 ], [ 13739229.025474248453975, 7140637.731952903792262 ], [ 13467474.887370793148875, 5408205.101543391123414 ], [ 12448396.869482846930623, 4626911.954495964571834 ], [ 11429196.218861093744636, 4090761.642317127902061 ], [ 11429196.21886109188199, 4090761.642317129299045 ] ] ] ] } },
{ "type": "Feature", "properties": { "id": 9 }, "geometry": { "type": "MultiPolygon", "coordinates": [ [ [ [ 3069911.953852471895516, -6268677.443335839547217 ], [ 2942273.265471855178475, -6028765.211351116187871 ], [ 2663061.649308006279171, -5503953.472216201946139 ], [ 2571837.198807131499052, -4879604.00865488871932 ], [ 2560937.395624450407922, -4708840.425459550693631 ], [ 2560166.96361580863595, -4696770.323990832082927 ], [ 3126455.633060040418059, -4232572.676505391485989 ], [ 3372233.272668307181448, -4171128.266603324562311 ], [ 3398209.771163493860513, -4164634.141979528125376 ], [ 4094668.987688273657113, -4110485.098457832820714 ], [ 4796819.418507497757673, -4307005.335655046626925 ], [ 4811070.224122945219278, -4304387.840746087022126 ], [ 5191548.767392034642398, -4234504.026676254346967 ], [ 5417651.573730826377869, -4192974.93979770084843 ], [ 5629066.46644932217896, -4154143.632971854880452 ], [ 6074358.933398391120136, -3953043.809188404586166 ], [ 6155590.1090247631073, -3916358.762131333351135 ], [ 6414345.881523517891765, -3666844.267221818678081 ], [ 6654714.012440011836588, -3464503.414577244315296 ], [ 7115221.909202584065497, -3916358.76213133148849 ], [ 7234114.344622845761478, -4527805.572864100337029 ], [ 6945375.572887926362455, -5394021.888068856671453 ], [ 6384882.663049555383623, -6056422.599696023389697 ], [ 5688512.684159456752241, -6277222.8369050770998 ], [ 4907219.53711203020066, -6243253.569642147049308 ], [ 4057987.855538739822805, -6379130.638693872839212 ], [ 3548448.846594766713679, -7109469.884846901521087 ], [ 3069911.953852471895516, -6268677.443335839547217 ] ] ] ] } },
{ "type": "Feature", "properties": { "id": 10 }, "geometry": { "type": "MultiPolygon", "coordinates": [ [ [ [ 2392962.989854106213897, -9946434.471102675423026 ], [ 2503893.878259619232267, -9835503.582697162404656 ], [ 2537863.145522546954453, -9801534.315434234216809 ], [ 2353673.247429331764579, -9563622.363730497658253 ], [ 2574603.741546173579991, -9377901.694412371143699 ], [ 2843586.550888931378722, -9198579.821517199277878 ], [ 2809656.239207725971937, -9180309.653688857331872 ], [ 2693338.03839702391997, -9117676.776329247280955 ], [ 2422749.401529473252594, -8971975.202631335705519 ], [ 2418478.834177458193153, -8905819.091654552146792 ], [ 2452939.977365218102932, -8790948.614362020045519 ], [ 2410043.420961847994477, -8775144.619897620752454 ], [ 2305360.081482057925314, -8736577.073773486539721 ], [ 2291585.957866293378174, -8731502.396651888266206 ], [ 2121739.62155163474381, -8790948.614362020045519 ], [ 2104754.987920168787241, -8400302.040838304907084 ], [ 2096721.715256639756262, -8394563.98893578350544 ], [ 1985862.552499908953905, -8315378.872680976986885 ], [ 1925948.634611963527277, -8323515.33066575974226 ], [ 1020646.962896471843123, -8433265.351259544491768 ], [ 720507.346955706365407, -8459748.258548434823751 ], [ 689315.55678071139846, -8517476.347827531397343 ], [ 509762.099072897923179, -8727902.861351819708943 ], [ 322957.53618269454455, -8727342.367217812687159 ], [ -46447.744645974918967, -8381921.40992206055671 ], [ 59432.093616096979531, -8342216.470573782920837 ], [ 65232.038136265837238, -8340041.49137871991843 ], [ 227756.630356470035622, -8312699.21710845362395 ], [ 586753.357107914052904, -8340855.823128174990416 ], [ 595288.415043841698207, -8250867.621516156941652 ], [ 632766.647555790143088, -7855721.066136537119746 ], [ 1142226.725665972102433, -7509527.668614066205919 ], [ 1388347.925633282400668, -7499130.64332885760814 ], [ 1571862.107732933014631, -7534085.72563355229795 ], [ 1975124.616338275140151, -7474343.131766094826162 ], [ 2489032.323832085356116, -7398208.656581826508045 ], [ 2615453.949408298823982, -7333805.186948660761118 ], [ 3389217.906299773603678, -6939623.54853224940598 ], [ 3385170.803906441666186, -6931079.665701882913709 ], [ 3432749.726427366491407, -6906185.776136358268559 ], [ 3548448.846594766713679, -7109469.884846901521087 ], [ 3612952.147836128249764, -7017015.15306761674583 ], [ 4022955.890209380537271, -6429343.122332621365786 ], [ 4961025.574597372673452, -6245592.962576292455196 ], [ 5688512.684159456752241, -6277222.8369050770998 ], [ 5919255.817705202847719, -6204060.379927158355713 ], [ 6384882.663049555383623, -6056422.599696023389697 ], [ 6445441.66710105817765, -5984852.867635156959295 ], [ 6945375.572887926362455, -5394021.888068856671453 ], [ 8202238.461616395972669, -5852606.996118432842195 ], [ 9442116.716713398694992, -6599930.875902928411961 ], [ 10104517.428340565413237, -8162517.169997781515121 ], [ 9798794.02297418192029, -9555257.12777797691524 ], [ 8932577.707769423723221, -10998950.986452570185065 ], [ 7420945.314568969421089, -12289783.142443969845772 ], [ 6130113.158577567897737, -13189968.724911658093333 ], [ 5077065.873426687903702, -13393784.328489247709513 ], [ 3854172.251961150206625, -13580615.298435371369123 ], [ 2937002.03586199786514, -13444738.229383645579219 ], [ 2393493.759655091911554, -13308861.160331917926669 ], [ 1892447.067526845261455, -13172984.09128019399941 ], [ 1994354.869315641000867, -12272798.508812507614493 ], [ 2024083.927948951721191, -11999291.169386046007276 ], [ 2079278.037472968921065, -11491505.361765081062913 ], [ 2081528.483147969469428, -11326097.604652555659413 ], [ 2181185.839261769317091, -10158211.621695011854172 ], [ 2392962.989854106213897, -9946434.471102675423026 ] ] ] ] } }
]
}
