{
"type": "FeatureCollection",
"name": "map058",
"crs": { "type": "name", "properties": { "name": "urn:ogc:def:crs:ESRI::102016" } },
"features": [
{ "type": "Feature", "properties": { "id": 1 }, "geometry": { "type": "MultiPolygon", "coordinates": [ [ [ [ -9379374.818144137039781, -1628028.208092441782355 ], [ -9159457.977469934150577, -1171277.846692173741758 ], [ -9193291.337573658674955, -663777.445136320777237 ], [ -8939541.136795731261373, 926390.479738686233759 ], [ -8313623.974876845255494, 1755307.802279913332313 ], [ -7586206.73264678940177, 2601141.804873002227396 ], [ -6706539.369949975982308, 3108642.206428855657578 ], [ -6029872.167875504121184, 2990225.446065823081881 ], [ -5894538.727460611611605, 2533475.084665555506945 ], [ -6215955.648445984348655, 1924474.602798531297594 ], [ -6892622.850520456209779, 1247807.400724059902132 ], [ -7349373.211920723319054, 435806.758234694600105 ], [ -7484706.652335617691278, -308527.164047223515809 ], [ -7721540.173061681911349, -816027.565603076480329 ], [ -7789206.893269129097462, -1137444.486588451080024 ], [ -8093707.13420264236629, -1644944.888144304044545 ], [ -8482790.775395464152098, -2186278.649803880602121 ], [ -8922624.456743869930506, -2186278.649803880602121 ], [ -9227124.697677381336689, -1983278.489181539975107 ], [ -9379374.818144137039781, -1628028.208092441782355 ] ] ] ] } },
{ "type": "Feature", "properties": { "id": 2 }, "geometry": { "type": "MultiPolygon", "coordinates": [ [ [ [ -7298623.171765137463808, -545360.684773288667202 ], [ -7112539.691194659098983, -1120527.806536588817835 ], [ -6943372.890676040202379, -1763361.64850733615458 ], [ -6537372.56943135894835, -2440028.850581808015704 ], [ -6621955.969690667465329, -3235112.813019311055541 ], [ -6943372.890676040202379, -4131696.855767985805869 ], [ -7552373.372543064877391, -4402363.736597774550319 ], [ -7924540.333684023469687, -4216280.256027294322848 ], [ -8178290.534461950883269, -3759529.894627025350928 ], [ -7907623.65363216213882, -3201279.452915588393807 ], [ -7907623.65363216213882, -2643029.011204149574041 ], [ -8096964.112525570206344, -1649476.33624576870352 ], [ -8093707.13420264236629, -1644944.888144304044545 ], [ -7789206.893269129097462, -1137444.486588451080024 ], [ -7721540.173061681911349, -816027.565603076480329 ], [ -7691719.893992159515619, -752126.967596956295893 ], [ -7298623.171765137463808, -545360.684773288667202 ] ] ] ] } },
{ "type": "Feature", "properties": { "id": 3 }, "geometry": { "type": "MultiPolygon", "coordinates": [ [ [ [ -7112539.691194659098983, 97473.157197459600866 ], [ -6655789.329794390127063, 875640.439583101309836 ], [ -6131372.248186675831676, 1586141.001761295832694 ], [ -5843788.687305025756359, 2093641.403317149262875 ], [ -5674621.886786406859756, 2618058.484924864023924 ], [ -5674621.886786406859756, 3074808.846325132064521 ], [ -5065621.404919384047389, 3548475.887777261901647 ], [ -4388954.202844912186265, 3633059.288036570884287 ], [ -4067537.281859539449215, 3328559.047103059012443 ], [ -3966037.201548367738724, 2719558.565236034803092 ], [ -4185954.042222570627928, 2127474.76342087239027 ], [ -4473537.603104220703244, 1332390.800983369350433 ], [ -4575037.683415392413735, 892557.119634962640703 ], [ -4710371.12383028678596, 401973.398130971007049 ], [ -4913371.284452628344297, -494610.644617702811956 ], [ -5133288.125126831233501, -1103611.126484727486968 ], [ -5268621.565541725605726, -1441944.727521962486207 ], [ -5488538.40621592849493, -1797195.008611059747636 ], [ -5945288.767616195604205, -1898695.088922230526805 ], [ -6520455.889379495754838, -1729528.288403612561524 ], [ -7117348.426401256583631, -1105664.443170740501955 ], [ -7280699.704176908358932, -600760.493682360975072 ], [ -7112539.691194659098983, 97473.157197459600866 ] ] ] ] } },
{ "type": "Feature", "properties": { "id": 4 }, "geometry": { "type": "MultiPolygon", "coordinates": [ [ [ [ -8313623.974876845255494, -2727612.411463457159698 ], [ -8279790.614773120731115, -3235112.813019311055541 ], [ -8141866.218156975694001, -3684404.742248014546931 ], [ -8178290.534461950883269, -3759529.894627025350928 ], [ -8128204.362924609333277, -3849685.003394239582121 ], [ -8093707.13420264236629, -4267030.296182879246771 ], [ -7873790.293528439477086, -4757614.017686870880425 ], [ -7467789.972283756360412, -5569614.660176236182451 ], [ -6723456.050001837313175, -6516948.74308049492538 ], [ -6097538.888082951307297, -7210532.625206828117371 ], [ -5742288.606993854045868, -7971783.227540608495474 ], [ -5691538.566838270053267, -8462366.949044600129128 ], [ -6283622.368653431534767, -9003700.710704177618027 ], [ -7027956.290935350582004, -9308200.95163768902421 ], [ -7823040.25337285362184, -9308200.95163768902421 ], [ -8584290.855706632137299, -9189784.191274655982852 ], [ -9379374.818144137039781, -9139034.151119071990252 ], [ -10072958.700270470231771, -8851450.590237421914935 ], [ -10698875.86218935623765, -8276283.468474119901657 ], [ -11138709.543537762016058, -7853366.467177575454116 ], [ -11257126.303900793194771, -7616532.946451511234045 ], [ -11020292.783174730837345, -7278199.345414275303483 ], [ -10749625.902344942092896, -7210532.625206828117371 ], [ -10292875.540944673120975, -7227449.305258689448237 ], [ -10056042.02021860703826, -6449282.022873047739267 ], [ -9988375.300011161714792, -5535781.300072512589395 ], [ -10157542.100529778748751, -4622280.5772719765082 ], [ -10343625.581100258976221, -4114780.175716122612357 ], [ -10597375.781878184527159, -3505779.693849098868668 ], [ -10597375.781878184527159, -3201279.452915587462485 ], [ -9886875.219699990004301, -2998279.292293245904148 ], [ -9666958.379025787115097, -2507695.570789254270494 ], [ -9650041.69897392578423, -1915611.768974091857672 ], [ -9276124.736448291689157, -1868945.065382750006393 ], [ -9276124.736448289826512, -1868945.065382753498852 ], [ -9227124.697677381336689, -1983278.489181539975107 ], [ -8922624.456743869930506, -2186278.649803880602121 ], [ -8635040.895862217992544, -2186278.649803880602121 ], [ -8313623.974876845255494, -2727612.411463457159698 ] ] ] ] } },
{ "type": "Feature", "properties": { "id": 5 }, "geometry": { "type": "MultiPolygon", "coordinates": [ [ [ [ -9466812.252676874399185, -1892743.819358235690743 ], [ -9650041.69897392578423, -1915611.768974091857672 ], [ -9659631.497208870947361, -2251254.707197206094861 ], [ -9727272.205626534298062, -2642241.799360151402652 ], [ -9906983.726176733151078, -3004024.579858029261231 ], [ -10236301.725689265877008, -3098115.43686161050573 ], [ -10320325.248198635876179, -3122122.157578573562205 ], [ -10597375.781878184527159, -3201279.452915587462485 ], [ -10597375.781878184527159, -3471946.333745375275612 ], [ -10597375.781878184527159, -3505779.693849098868668 ], [ -10387168.514961559325457, -4010277.13444900047034 ], [ -10100218.337224066257477, -4931828.899122821167111 ], [ -9992483.306899609044194, -5591239.393066542223096 ], [ -10040394.668137894943357, -6238042.769783428870142 ], [ -10175073.400445116683841, -6840385.129331575706601 ], [ -10411755.77199405618012, -7223046.333738341927528 ], [ -10749625.902344942092896, -7210532.625206828117371 ], [ -10829233.808471348136663, -7230434.601738429628313 ], [ -11020292.783174730837345, -7278199.345414275303483 ], [ -11068772.128021340817213, -7347455.552338004112244 ], [ -11112503.35709903948009, -7409928.736734718084335 ], [ -11240436.693379828706384, -7592690.645707277581096 ], [ -11443209.784471273422241, -7870283.147229438647628 ], [ -12322877.147168086841702, -7667282.986607097089291 ], [ -13287127.910124208778143, -7244365.985310552641749 ], [ -14826545.794843629002571, -6652282.183495389297605 ], [ -15790796.557799750939012, -5891031.581161609850824 ], [ -15959963.358318369835615, -5079030.938672244548798 ], [ -15790796.557799750939012, -4436197.096701497212052 ], [ -15367879.55650320649147, -3894863.335041919723153 ], [ -14860379.15494735352695, -3607279.774160269647837 ], [ -14268295.35313219204545, -3370446.253434204496443 ], [ -13337877.950279792770743, -3624196.454212131910026 ], [ -12542793.987842289730906, -4064030.135560537688434 ], [ -11883043.465819679200649, -3776446.574678887613118 ], [ -11730793.345352925360203, -3032112.652396969497204 ], [ -11663126.625145476311445, -2253945.370011327788234 ], [ -11510876.504678722470999, -1611111.528040579985827 ], [ -10918792.702863559126854, -1171277.846692173741758 ], [ -10208292.140685364603996, -1086694.446432864759117 ], [ -9751541.779285095632076, -1019027.726225417573005 ], [ -9396291.498195998370647, -1205111.206795897334814 ], [ -9364751.925217950716615, -1597657.584322671638802 ], [ -9379374.818144137039781, -1628028.208092441782355 ], [ -9358374.801528032869101, -1677028.246863351669163 ], [ -9466812.252676874399185, -1892743.819358235690743 ] ] ] ] } },
{ "type": "Feature", "properties": { "id": 5 }, "geometry": { "type": "MultiPolygon", "coordinates": [ [ [ [ -2447765.166893772780895, -7785699.746970130130649 ], [ -1348180.963522758334875, -7819533.107073853723705 ], [ -586930.361188977956772, -7819533.107073853723705 ], [ 360403.721715280786157, -7734949.706814545206726 ], [ 800237.40306368842721, -7667282.986607098020613 ], [ 1409237.884930711239576, -7667282.986607098020613 ], [ 1256987.764463955536485, -8327033.508629707619548 ], [ 1138571.004100922495127, -8834533.910185560584068 ], [ 1155487.684152785688639, -9291284.271585829555988 ], [ 394237.081819005310535, -9528117.792311893776059 ], [ -705347.12155201099813, -9545034.472363755106926 ], [ -1686514.564559994265437, -9274367.591533966362476 ], [ -2227848.326219569891691, -9155950.831170935183764 ], [ -2819932.128034733235836, -8919117.310444869101048 ], [ -2583098.60730866715312, -8039449.947748056612909 ], [ -2447765.166893772780895, -7785699.746970130130649 ] ] ] ] } },
{ "type": "Feature", "properties": { "id": 6 }, "geometry": { "type": "MultiPolygon", "coordinates": [ [ [ [ 1324654.484671402722597, -9358950.991793276742101 ], [ 1984405.006694011390209, -9088284.110963487997651 ], [ 2407322.00799055583775, -8665367.10966694355011 ], [ 2661072.208768483251333, -7988699.907592471688986 ], [ 2914822.409546410664916, -7565782.906295927241445 ], [ 3286989.370687369257212, -7295116.025466138496995 ], [ 3929823.212658116593957, -7109032.544895659200847 ], [ 4555740.374577002599835, -7058282.504740074276924 ], [ 5232407.576651474460959, -7413532.785829171538353 ], [ 5604574.53779243119061, -8039449.947748056612909 ], [ 5333907.656962646171451, -9003700.710704179480672 ], [ 4572657.054628863930702, -9849534.713297266513109 ], [ 4014406.612917425110936, -10221701.67443822696805 ], [ 3456156.17120598629117, -10357035.114853121340275 ], [ 2914822.409546410664916, -10289368.394645674154162 ], [ 2474988.728198003023863, -10170951.634282641112804 ], [ 2035155.046849597245455, -9832618.033245405182242 ], [ 1324654.484671402722597, -9358950.991793276742101 ] ] ] ] } },
{ "type": "Feature", "properties": { "id": 7 }, "geometry": { "type": "MultiPolygon", "coordinates": [ [ [ [ 5172194.476522128097713, -9183382.022304754704237 ], [ 5172194.476522129029036, -9183382.022304752841592 ], [ 5333907.656962646171451, -9003700.710704179480672 ], [ 5427115.909505170769989, -8671646.311021430417895 ], [ 5427115.909505171701312, -8671646.31102142855525 ], [ 5528085.683762717060745, -8311941.490228917449713 ], [ 5558472.361514149233699, -8203688.950739439576864 ], [ 5718762.12814250215888, -7701116.346710821613669 ], [ 5904845.608712980523705, -6956782.424428903497756 ], [ 6074012.409231599420309, -6280115.222354431636631 ], [ 6530762.770631866529584, -5688031.420539270155132 ], [ 7055179.852239582687616, -5569614.660176237113774 ], [ 7630346.974002882838249, -5789531.500850440002978 ], [ 7867180.49472894705832, -6263198.542302570305765 ], [ 7714930.374262191355228, -7024449.144636350683868 ], [ 7511930.213639849796891, -7548866.226244064979255 ], [ 7393513.453276816755533, -8140950.028059227392077 ], [ 7444263.493432402610779, -8546950.349303910508752 ], [ 7782597.094469638541341, -9139034.151119073852897 ], [ 7934847.214936394244432, -9764951.31303795799613 ], [ 7850263.814677085727453, -10509285.235319877043366 ], [ 7461180.173484263941646, -11490452.678327860310674 ], [ 6699929.571150485426188, -12150203.200350468978286 ], [ 6023262.369076013565063, -12573120.201647013425827 ], [ 5211261.726586647331715, -12911453.802684249356389 ], [ 4517677.844460316002369, -12962203.842839835211635 ], [ 3756427.242126535624266, -12860703.762528663501143 ], [ 3079760.040052063763142, -12573120.201647013425827 ], [ 2369259.477873869240284, -12200953.240506054833531 ], [ 2014009.196784771978855, -11778036.23920951038599 ], [ 1641842.235643813386559, -11152119.077290624380112 ], [ 1658758.915695674717426, -10813785.47625338844955 ], [ 1760258.996006844565272, -10526201.915371738374233 ], [ 2448623.233358810655773, -10150670.484406339004636 ], [ 2474988.728198003023863, -10170951.634282641112804 ], [ 2914822.409546410664916, -10289368.394645674154162 ], [ 3456156.17120598629117, -10357035.114853121340275 ], [ 4014406.612917425110936, -10221701.67443822696805 ], [ 4572657.054628863930702, -9849534.713297266513109 ], [ 4776848.859840494580567, -9622654.929728789255023 ], [ 5172194.476522128097713, -9183382.022304754704237 ] ] ] ] } },
{ "type": "Feature", "properties": { "id": 8 }, "geometry": { "type": "MultiPolygon", "coordinates": [ [ [ [ -2401244.296751151792705, -7312032.705518000759184 ], [ -2113660.735869501717389, -6753782.263806561939418 ], [ -1403160.173691307194531, -6449282.022873049601912 ], [ -743409.651668697595596, -6330865.262510017491877 ], [ -100575.809697950258851, -6229365.182198846712708 ], [ 812924.913102585822344, -5975614.981420920230448 ], [ 1557258.83538450486958, -5891031.581161610782146 ], [ 2081675.916992219164968, -5688031.420539270155132 ], [ 2606092.998599933460355, -5535781.300072513520718 ], [ 3265843.520622543990612, -5535781.300072513520718 ], [ 3705677.20197094976902, -5603448.02027996070683 ], [ 4196260.923474941402674, -5671114.740487407892942 ], [ 4788344.725290102884173, -5840281.541006025858223 ], [ 5295845.126845957711339, -5840281.541006025858223 ], [ 5803345.528401810675859, -5958698.301369057968259 ], [ 5887928.928661119192839, -6280115.222354431636631 ], [ 5515761.967520160600543, -6770698.943858423270285 ], [ 4673767.578858488239348, -7120246.786987854167819 ], [ 4555740.374577002599835, -7058282.504740074276924 ], [ 4198608.757335550151765, -7087239.122354245744646 ], [ 3929823.212658116593957, -7109032.544895659200847 ], [ 3472856.663653354160488, -7241312.335397037677467 ], [ 3286989.370687369257212, -7295116.025466138496995 ], [ 3001577.545758323278278, -7502688.261778172105551 ], [ 2914822.409546410664916, -7565782.906295927241445 ], [ 2831607.270173649769276, -7704474.805250528268516 ], [ 2661072.208768483251333, -7988699.907592471688986 ], [ 2501348.623484295327216, -8414629.468350306153297 ], [ 2261415.642543249763548, -8811273.475114248692989 ], [ 1809628.665533550782129, -9159987.225285727530718 ], [ 1324654.484671402722597, -9358950.991793276742101 ], [ 1154369.561121960403398, -9261094.949753550812602 ], [ 1146925.250631457427517, -9060098.566509986296296 ], [ 1143084.049909279216081, -8956386.147011181339622 ], [ 1221082.155618367949501, -8480914.689396509900689 ], [ 1256987.764463955536485, -8327033.508629707619548 ], [ 1281008.499762315535918, -8222943.655670147389174 ], [ 1396193.984160385560244, -7723806.556611843407154 ], [ 1409237.884930711239576, -7667282.986607098020613 ], [ 931341.673465617932379, -7667282.986607098020613 ], [ 800237.40306368842721, -7667282.986607098020613 ], [ 436764.768108774034772, -7723201.853523238562047 ], [ 229437.257232789881527, -7746643.141143338754773 ], [ -861826.412031730636954, -7819533.107073853723705 ], [ -1671958.979424330871552, -7809570.706584574654698 ], [ -2447765.166893772780895, -7785699.746970130130649 ], [ -2401244.296751151792705, -7312032.705518000759184 ] ] ] ] } },
{ "type": "Feature", "properties": { "id": 9 }, "geometry": { "type": "MultiPolygon", "coordinates": [ [ [ [ 3164343.440311372280121, -5231281.059139002114534 ], [ 2893676.559481583535671, -4859114.097998042590916 ], [ 2927509.91958530806005, -4385447.056545913219452 ], [ 3062843.360000202432275, -4064030.135560539085418 ], [ 3401176.961037438362837, -3877946.654990059323609 ], [ 3891760.68254142999649, -3505779.693849100265652 ], [ 4280844.323734249919653, -3387362.933486068155617 ], [ 4551511.204564038664103, -3404279.613537929486483 ], [ 4856011.445497550070286, -3624196.454212132841349 ], [ 4889844.805601274594665, -3658029.814315856434405 ], [ 5194345.046534786000848, -3844113.294886335730553 ], [ 5820262.208453672006726, -3844113.294886335730553 ], [ 6141679.129439046606421, -3793363.25473075080663 ], [ 6513846.090580005198717, -3776446.574678889010102 ], [ 6835263.011565377935767, -3810279.934782612603158 ], [ 7072096.532291444018483, -4013280.095404953695834 ], [ 7207429.972706338390708, -4537697.177012668922544 ], [ 6970596.451980272307992, -5045197.578568522818387 ], [ 6192429.169594630599022, -5586531.340228099375963 ], [ 5395847.840324296616018, -5863615.507484304718673 ], [ 5395847.840324295684695, -5863615.507484304718673 ], [ 5295845.126845957711339, -5840281.541006025858223 ], [ 4906761.485653135925531, -5840281.541006025858223 ], [ 4788344.725290102884173, -5840281.541006025858223 ], [ 4196260.923474941402674, -5671114.740487407892942 ], [ 3705677.20197094976902, -5603448.02027996070683 ], [ 3682795.680975946132094, -5599927.786280728876591 ], [ 3164343.440311372280121, -5231281.059139002114534 ] ] ] ] } },
{ "type": "Feature", "properties": { "id": 10 }, "geometry": { "type": "MultiPolygon", "coordinates": [ [ [ [ 3040553.146284808404744, -4116969.393134599551558 ], [ 2555342.958444349467754, -4639197.25732383877039 ], [ 2318509.437718283385038, -4808364.057842455804348 ], [ 1827925.716214291751385, -4689947.297479424625635 ], [ 1506508.795228919014335, -4436197.096701497212052 ], [ 1320425.314658438786864, -3844113.294886335730553 ], [ 1320425.314658438786864, -3387362.933486066758633 ], [ 1472675.435125194489956, -2998279.29229324683547 ], [ 1760258.996006844565272, -2423112.170529945753515 ], [ 1658758.915695674717426, -1661861.568196165375412 ], [ 1591092.195488227531314, -934444.325966109521687 ], [ 1608008.875540088862181, -71693.643321158364415 ], [ 1354258.674762163311243, 249723.277664215303957 ], [ 508424.672169073484838, 807973.719375654123724 ], [ 85507.670872529037297, 1450807.561346401460469 ], [ -151325.849853535182774, 2144391.443472734186798 ], [ -66742.449594226665795, 2398141.64425066113472 ], [ 187007.751183699816465, 2837975.325599067378789 ], [ 694508.152739553712308, 3514642.527673538308591 ], [ 1557258.83538450486958, 3717642.688295879866928 ], [ 2487676.238236902281642, 3548475.887777261901647 ], [ 3045926.679948341101408, 3260892.32689561182633 ], [ 3468843.681244885548949, 2668808.525080449413508 ], [ 3841010.642385844141245, 1822974.522487360518426 ], [ 4179344.243423080071807, 1213974.040620336309075 ], [ 4348511.043941697105765, 537306.838545865379274 ], [ 4162427.56337121874094, -376193.884254670701921 ], [ 4094760.843163771554828, -1019027.726225418038666 ], [ 4010177.442904461175203, -1712611.608351751230657 ], [ 3536510.401452332735062, -2490778.890737392939627 ], [ 3181260.120363235473633, -3116696.052656278014183 ], [ 3181260.120363235473633, -3641113.134263994172215 ], [ 3040553.146284808404744, -4116969.393134599551558 ] ] ] ] } },
{ "type": "Feature", "properties": { "id": 11 }, "geometry": { "type": "MultiPolygon", "coordinates": [ [ [ [ -4498912.623182012699544, 503473.478442141786218 ], [ -4262079.102455947548151, 1163224.000464751385152 ], [ -3991412.221626159269363, 1975224.642954116687179 ], [ -3703828.660744509194046, 2567308.44476927863434 ], [ -3348578.379655411932617, 3074808.846325132064521 ], [ -2638077.817477216944098, 3362392.407206782605499 ], [ -1826077.174987851642072, 3430059.12741422932595 ], [ -1132493.292861518450081, 3362392.407206782605499 ], [ -726492.971616836264729, 2753391.925339758396149 ], [ -472742.770838909782469, 2262808.203835766762495 ], [ -235909.250112844631076, 1518474.281553848646581 ], [ 220841.111287423409522, 689556.959012621082366 ], [ 863674.953258170746267, 182056.557456768117845 ], [ 1235841.914399130269885, -308527.164047223515809 ], [ 1354258.674762163311243, -900610.965862385928631 ], [ 1337341.994710300117731, -1644944.888144304044545 ], [ 1168175.194191683083773, -2423112.170529945753515 ], [ 1015925.073724927380681, -3015195.972345108166337 ], [ 1049758.433828650973737, -3658029.814315855503082 ], [ 1134341.834087959490716, -4131696.855767985805869 ], [ 1421925.394969610497355, -4689947.297479424625635 ], [ 1929425.796525463461876, -4943697.498257350176573 ], [ 2098592.597044080495834, -5163614.338931553065777 ], [ 1972046.644728525308892, -5730468.558189732022583 ], [ 1202008.554295406676829, -5654198.06043554469943 ], [ 373091.231754179112613, -5704948.100591130554676 ], [ -66742.449594226665795, -5891031.581161610782146 ], [ -591159.531201941892505, -6043281.701628366485238 ], [ -1030993.212550347670913, -6060198.381680227816105 ], [ -1335493.453483860008419, -5569614.660176236182451 ], [ -1403160.173691307194531, -5163614.338931553065777 ], [ -1792243.814884128049016, -4554613.85706453025341 ], [ -3027161.458670037798584, -4097863.49566426128149 ], [ -4329745.822663394734263, -3691863.174419580027461 ], [ -5040246.384841589257121, -2507695.570789254270494 ], [ -5205621.515693412162364, -1284444.602901179809123 ], [ -5133288.125126831233501, -1103611.126484727486968 ], [ -4939416.043399368412793, -566734.592470213538036 ], [ -4913371.284452628344297, -494610.644617702811956 ], [ -4777533.723535003140569, 105338.582768474123441 ], [ -4498912.623182012699544, 503473.478442141786218 ] ] ] ] } },
{ "type": "Feature", "properties": { "id": 12 }, "geometry": { "type": "MultiPolygon", "coordinates": [ [ [ [ 3494218.701322677079588, -3412737.953563859686255 ], [ 3350426.92088185204193, -3192821.112889656797051 ], [ 3336117.839578316546977, -2843851.499753516633064 ], [ 3596617.115677981637418, -2392032.145938112400472 ], [ 4010177.442904461175203, -1712611.608351751230657 ], [ 4094760.843163771554828, -1019027.726225418038666 ], [ 4105420.668949875980616, -917759.381257424131036 ], [ 4390802.744071351364255, -731444.16534376819618 ], [ 4695302.985004862770438, -579194.044877012027428 ], [ 5075928.28617175295949, -663777.445136321010068 ], [ 5304303.46687188744545, -883694.285810524132103 ], [ 5329678.486949680373073, -1458861.407573824748397 ], [ 5397345.207157127559185, -1771819.988533267285675 ], [ 5887928.928661119192839, -1518069.787755340803415 ], [ 6107845.769335322082043, -1340444.6472107921727 ], [ 6488471.070502212271094, -1543444.807833133265376 ], [ 6792971.311435723677278, -2034028.52933712489903 ], [ 6987513.132032133638859, -2397737.150452153291553 ], [ 6995971.472058065235615, -2558445.61094484012574 ], [ 6902929.73177282512188, -2939070.912111730314791 ], [ 6564596.130735589191318, -3345071.233356412500143 ], [ 6234720.869724284857512, -3480404.673771306872368 ], [ 5921762.288764841854572, -3632654.794238063506782 ], [ 4800731.989993393421173, -3584272.403014685958624 ], [ 4551511.204564038664103, -3404279.613537929486483 ], [ 4280844.323734249919653, -3387362.933486068155617 ], [ 3891760.68254142999649, -3505779.693849100265652 ], [ 3832520.384095664136112, -3550720.609911405481398 ], [ 3494218.701322677079588, -3412737.953563859686255 ] ] ] ] } },
{ "type": "Feature", "properties": { "id": 13 }, "geometry": { "type": "MultiPolygon", "coordinates": [ [ [ [ 6384856.405184557661414, -1019027.726225418504328 ], [ 6672439.966066207736731, -333902.184125016443431 ], [ 6833148.426558895036578, 368140.038027247413993 ], [ 6976940.206999720074236, 909473.7996868242044 ], [ 7196857.04767392296344, 1188599.020542543381453 ], [ 7475982.268529642373323, 1374682.501113023143262 ], [ 7755107.489385361783206, 1442349.221320470096543 ], [ 7991941.0101114269346, 1129390.640361027326435 ], [ 7975024.33005956467241, 901015.459660893306136 ], [ 7797399.189515016041696, 173598.21743083698675 ], [ 7966565.990033634006977, -274693.803943500388414 ], [ 8465608.051563557237387, -697610.805240044835955 ], [ 8693983.232263691723347, -1205111.206795898266137 ], [ 8770108.29249706864357, -1721069.948377682827413 ], [ 8770108.29249706864357, -2186278.649803881533444 ], [ 8668608.212185896933079, -2465403.870659600943327 ], [ 8347191.291200524196029, -2744529.09151532035321 ], [ 8051149.390292942523956, -2888320.871956145390868 ], [ 7704357.449229775927961, -2905237.552008006721735 ], [ 7433690.568399988114834, -2913695.892033937387168 ], [ 6995971.472058065235615, -2558445.61094484012574 ], [ 6987513.132032133638859, -2397737.150452153291553 ], [ 6792971.311435723677278, -2034028.52933712489903 ], [ 6488471.070502212271094, -1543444.807833133265376 ], [ 6218783.510752120986581, -1399611.442633084952831 ], [ 6384856.405184557661414, -1019027.726225418504328 ] ] ] ] } },
{ "type": "Feature", "properties": { "id": 14 }, "geometry": { "type": "MultiPolygon", "coordinates": [ [ [ [ 7484440.608555573038757, 2592683.464847072027624 ], [ 7450607.248451848514378, 2169766.463550527580082 ], [ 7366023.848192539997399, 1763766.142305844463408 ], [ 7298357.127985092811286, 1493099.261476056650281 ], [ 7247607.087829506956041, 1222432.380646267905831 ], [ 7196857.04767392296344, 1188599.020542543381453 ], [ 6976940.206999720074236, 909473.7996868242044 ], [ 6935097.946602344512939, 751949.995837880531326 ], [ 6833148.426558895036578, 368140.038027247413993 ], [ 6783051.720253588631749, 149296.531535645306576 ], [ 6601932.243222086690366, -501876.465018363378476 ], [ 6441836.483529515564442, -883281.06899184116628 ], [ 6290318.424244911409914, -1235677.265878774225712 ], [ 6149661.870761095546186, -1362746.567971204407513 ], [ 6107845.769335322082043, -1340444.6472107921727 ], [ 5900071.762564814649522, -1508262.114217740949243 ], [ 5846452.514120266772807, -1539523.105621299007908 ], [ 5578150.1598643315956, -1678300.185408851597458 ], [ 5354941.35876474250108, -1575702.189718487206846 ], [ 5310630.79084013029933, -1027113.629090699017979 ], [ 5304303.46687188744545, -883694.285810524132103 ], [ 5143912.570390849374235, -729243.792902857996523 ], [ 5075928.28617175295949, -663777.445136321010068 ], [ 4904646.900646651163697, -625714.915019631618634 ], [ 4695302.985004862770438, -579194.044877012027428 ], [ 4676694.636947814375162, -588498.21890553610865 ], [ 4426327.772180260159075, -713681.651289313682355 ], [ 4642438.359842793084681, -113985.343450812622905 ], [ 4591688.319687209092081, 461181.778312487527728 ], [ 4591688.319687209092081, 985598.859920202754438 ], [ 4490188.239376037381589, 1696099.422098397277296 ], [ 3999604.517872045747936, 2017516.343083771876991 ], [ 3638869.354762114118785, 2282386.539814020507038 ], [ 3468843.681244885548949, 2668808.525080449413508 ], [ 3311535.702046406455338, 2889039.695958320051432 ], [ 3322937.315797575749457, 3556934.227803193498403 ], [ 3509020.796368054114282, 4419684.910448144190013 ], [ 3898104.43756087590009, 4741101.831433517858386 ], [ 4304104.758805559016764, 4707268.47132979426533 ], [ 4862355.200516995973885, 4250518.109929526224732 ], [ 5606689.122798915021122, 3658434.30811436381191 ], [ 6181856.244562215171754, 3675350.988166225608438 ], [ 6689356.646118068136275, 3861434.468736705370247 ], [ 7163023.687570198439062, 3320100.707077128347009 ], [ 7484440.608555573038757, 2592683.464847072027624 ] ] ] ] } },
{ "type": "Feature", "properties": { "id": 15 }, "geometry": { "type": "MultiPolygon", "coordinates": [ [ [ [ 7552107.328763020224869, 1822974.522487360751256 ], [ 7462629.118059451691806, 2320039.833645563572645 ], [ 7484440.608555573038757, 2592683.464847072027624 ], [ 7390924.282676118426025, 2804325.676047942135483 ], [ 7390924.282676118426025, 2804325.676047942601144 ], [ 7200110.255376203916967, 3236167.948358274530619 ], [ 7120731.987440545111895, 3954476.209021944086999 ], [ 6917731.826818203553557, 4546560.010837106965482 ], [ 6883898.466714479029179, 5595394.174052537418902 ], [ 6613231.585884690284729, 6288978.05617886967957 ], [ 6088814.504276975989342, 6762645.097631 ], [ 5445980.662306228652596, 7456228.979757332243025 ], [ 5158397.10142457857728, 8132896.181831803172827 ], [ 4972313.62085409834981, 8775730.023802550509572 ], [ 5090730.381217131391168, 9333980.465513989329338 ], [ 5327563.901943195611238, 9655397.386499363929033 ], [ 5868897.663602773100138, 9604647.346343778073788 ], [ 6444064.785366073250771, 9029480.224580477923155 ], [ 6850065.106610756367445, 8521979.823024623095989 ], [ 7222232.067751714959741, 7896062.661105738952756 ], [ 7662065.749100120738149, 7422395.619653608649969 ], [ 8304899.591070868074894, 6982561.938305202871561 ], [ 8626316.512056242674589, 6796478.457734722644091 ], [ 9184566.953767681494355, 5849144.374830463901162 ], [ 9573650.594960501417518, 5003310.37223737500608 ], [ 9996567.596257045865059, 4275893.130007318221033 ], [ 10233401.11698311008513, 3311642.367051197215915 ], [ 10148817.716723801568151, 2398141.64425066113472 ], [ 10131901.036671940237284, 1586141.001761296764016 ], [ 9911984.19599773734808, 994057.199946135282516 ], [ 9708984.035375395789742, 638806.918857038021088 ], [ 9302983.714130712673068, 385056.718079110607505 ], [ 8710899.912315551191568, 368140.038027249276638 ], [ 7971556.594127024523914, 886814.255365729914047 ], [ 7975024.33005956467241, 901015.459660893306136 ], [ 7991941.0101114269346, 1129390.640361027326435 ], [ 7755107.489385361783206, 1442349.221320470096543 ], [ 7655368.034925208427012, 1418169.959633160382509 ], [ 7552107.328763020224869, 1822974.522487360751256 ] ] ] ] } },
{ "type": "Feature", "properties": { "id": 16 }, "geometry": { "type": "MultiPolygon", "coordinates": [ [ [ [ 7983482.670085495337844, 7608479.100224088877439 ], [ 7408315.548322193324566, 8369729.70255786832422 ], [ 6917731.826818203553557, 8843396.744009997695684 ], [ 6427148.105314211919904, 9909147.587277289479971 ], [ 5902731.023706495761871, 10416647.988833142444491 ], [ 5665897.5029804315418, 11414732.111892987042665 ], [ 5632064.142876707017422, 12175982.714226767420769 ], [ 6054981.144173251464963, 12649649.755678897723556 ], [ 6850065.106610756367445, 12835733.236249376088381 ], [ 7797399.189515015110373, 12378982.874849108979106 ], [ 9624400.635116087272763, 10890315.030285272747278 ], [ 10943901.679161304607987, 9638480.706447500735521 ], [ 12144985.962843490764499, 8268229.622246697545052 ], [ 12686319.724503068253398, 7168645.418875682167709 ], [ 12838569.84496982395649, 6373561.456438179127872 ], [ 13007736.645488440990448, 5460060.733637643978 ], [ 12906236.565177271142602, 4867976.931822480633855 ], [ 12567902.96414003521204, 4546560.010837107896805 ], [ 12178819.322947215288877, 4411226.57042221352458 ], [ 11282235.280198540538549, 4901810.291926205158234 ], [ 9878150.835894012823701, 5916811.095037911087275 ], [ 8641799.152089864015579, 6770204.886768577620387 ], [ 8626316.512056242674589, 6796478.457734722644091 ], [ 8486280.094199543818831, 6877552.17333596944809 ], [ 7983482.670085495337844, 7608479.100224088877439 ] ] ] ] } },
{ "type": "Feature", "properties": { "id": 17 }, "geometry": { "type": "MultiPolygon", "coordinates": [ [ [ [ 4321021.438857419416308, 8369729.70255786832422 ], [ 4291417.248766658827662, 8403563.062661593779922 ], [ 3800833.527262667194009, 8572729.863180212676525 ], [ 3496333.286329155787826, 8741896.663698829710484 ], [ 3073416.285032609477639, 8403563.062661593779922 ], [ 2853499.444358406588435, 7320895.539342440664768 ], [ 1838498.641246702522039, 6339728.096334457397461 ], [ 535914.277253344655037, 6272061.376127010211349 ], [ -969670.247362352907658, 6322811.416282596066594 ], [ -2306087.971459433436394, 6559644.937008660286665 ], [ -4183839.457216089591384, 6508894.896853074431419 ], [ -5554090.541416894644499, 6035227.855400945991278 ], [ -7008925.025877006351948, 5663060.894259987398982 ], [ -8260759.349714777432382, 5866061.054882327094674 ], [ -9360343.553085792809725, 6559644.937008660286665 ], [ -10020094.075108401477337, 7422395.619653610512614 ], [ -10206177.555678881704807, 8234396.262142976745963 ], [ -9783260.554382337257266, 8826480.063958138227463 ], [ -9157343.392463453114033, 9452397.225877024233341 ], [ -8243842.669662916101515, 10027564.347640324383974 ], [ -7042758.385980729945004, 10551981.429248038679361 ], [ -6247674.423543226905167, 11110231.870959479361773 ], [ -5219986.110392624512315, 11719232.352826500311494 ], [ -3968151.786554852500558, 12362066.194797247648239 ], [ -2716317.462717080488801, 13495483.758271988481283 ], [ -1532149.859086756594479, 14341317.760865075513721 ], [ 41101.38573638908565, 15288651.843769336119294 ], [ 1343685.749729745090008, 15914569.005688222125173 ], [ 2900020.314501030370593, 15897652.325636360794306 ], [ 3509020.79636805318296, 15559318.724599123001099 ], [ 4321021.438857419416308, 14561234.60153928026557 ], [ 4456354.879272313788533, 13783067.319153636693954 ], [ 4456354.879272313788533, 12666566.435730759054422 ], [ 4946938.600776305422187, 10907231.710337134078145 ], [ 4879271.880568858236074, 10095231.067847769707441 ], [ 4862355.200516996905208, 9232480.385202817618847 ], [ 4693188.399998378008604, 8640396.583387658 ], [ 4321021.438857419416308, 8369729.70255786832422 ] ] ] ] } }
]
}
