{
"type": "FeatureCollection",
"name": "map031",
"crs": { "type": "name", "properties": { "name": "urn:ogc:def:crs:ESRI::102016" } },
"features": [
{ "type": "Feature", "properties": { "id": 1 }, "geometry": { "type": "MultiPolygon", "coordinates": [ [ [ [ 6876442.407403548248112, -8109525.298568997532129 ], [ 5680066.50417794380337, -8348800.479214116930962 ], [ 4788222.649046131409705, -8327048.190064560621977 ], [ 4179158.552858551032841, -8283543.611765448004007 ], [ 3417828.432624076493084, -8000763.85282121412456 ], [ 3004534.938782502897084, -7435204.334932747296989 ], [ 2917525.782184277661145, -7108919.997689400799572 ], [ 2874021.203885165043175, -6499855.901501821354032 ], [ 2765259.758137383498251, -5912544.094463797286153 ], [ 3135048.673679842613637, -5303479.998276217840612 ], [ 3265562.408577180467546, -4672663.612939081154764 ], [ 3483085.300072745420039, -4128856.384200170636177 ], [ 4135653.974559438414872, -3889581.2035550493747 ], [ 4635956.624999235384166, -3606801.444610815960914 ], [ 5136259.275439034216106, -3302269.396517026238143 ], [ 5549552.769280605949461, -3128251.083320574834943 ], [ 6397892.046113307587802, -3411030.842264808248729 ], [ 7028708.431450442411005, -3954838.071003719232976 ], [ 7703029.395086691714823, -4716168.191238193772733 ], [ 8072818.310629150830209, -5433993.73317355569452 ], [ 7942304.575731812976301, -6478103.612352265045047 ], [ 7637772.527638022787869, -7369947.467484078370035 ], [ 6876442.407403548248112, -8109525.298568997532129 ] ] ] ] } },
{ "type": "Feature", "properties": { "id": 2 }, "geometry": { "type": "MultiPolygon", "coordinates": [ [ [ [ 3901816.86620170623064, -3585049.155461259186268 ], [ 3695170.11928091943264, -3867828.914405493065715 ], [ 3390638.071187130175531, -3900457.348129828460515 ], [ 3031725.300219449214637, -3715562.890358598902822 ], [ 2814202.408723884262145, -3498039.998863033950329 ], [ 2564051.083503985777497, -3432783.131414365023375 ], [ 2194262.167961526662111, -3454535.420563921332359 ], [ 1954986.987316405400634, -3411030.84226480871439 ], [ 1661331.083797393366694, -3095622.649596240371466 ], [ 1563445.782624389976263, -2736709.878628559410572 ], [ 1454684.336876607500017, -2464806.264259103685617 ], [ 1345922.891128825955093, -2040636.625842753332108 ], [ 1182780.722507152706385, -1464200.963379507884383 ], [ 910877.10813769698143, -354834.216752130538225 ], [ 388822.168548342771828, 732780.240725691430271 ], [ -89728.192741898819804, 1407101.204361940734088 ], [ -296374.939662684686482, 1896527.710226960480213 ], [ -350755.662536575924605, 2418582.649816314689815 ], [ -241994.21678879391402, 3082027.46887778583914 ], [ 1030514.698460257612169, 3767224.577088814228773 ], [ 2020243.854765075258911, 4365412.528701616451144 ], [ 2792450.11957432795316, 4669944.576795405708253 ], [ 3749550.842154811136425, 4941848.191164861433208 ], [ 4554385.540688399225473, 4898343.612865747883916 ], [ 5489733.974119326099753, 4463297.829874619841576 ], [ 6153178.793180797249079, 3723719.998789701145142 ], [ 6871004.335116159170866, 3169036.625476012472063 ], [ 7229917.10608384013176, 2603477.107587545178831 ], [ 7262545.539808174595237, 2103174.457147747278214 ], [ 7393059.274705512449145, 1700757.10788095369935 ], [ 7556201.443327186629176, 1309215.903188937343657 ], [ 7447439.997579403221607, 1015559.99966992624104 ], [ 6990641.925438718870282, 982931.565945590846241 ], [ 6914508.913415271788836, 787160.963599583134055 ], [ 6751366.744793597608805, 678399.517851801589131 ], [ 6903632.768840493634343, 221601.445711116306484 ], [ 6903632.768840493634343, 47583.132514664903283 ], [ 6892756.624265715479851, -180815.903555678203702 ], [ 7175536.383209949359298, -169939.758980899117887 ], [ 7077651.082036944106221, -604985.54197202809155 ], [ 6783995.178517932072282, -1094412.047837047837675 ], [ 6131426.504031239077449, -1203173.493584831245244 ], [ 5903027.467960897833109, -1333687.228482169099152 ], [ 5685504.576465332880616, -1649095.421150737442076 ], [ 5435353.251245433464646, -1616466.987426402978599 ], [ 5272211.082623761147261, -1366315.662206504493952 ], [ 5228706.504324648529291, -1029155.180388379842043 ], [ 4935050.600805636495352, -648490.120271141640842 ], [ 4619642.408137068152428, -376586.50590168684721 ], [ 4358614.938342390581965, -604985.541972029022872 ], [ 4173720.480571161024272, -1029155.180388379842043 ], [ 3782179.275879145599902, -1344563.373056947253644 ], [ 3597284.818107916042209, -1790485.3006228543818 ], [ 3629913.251832250505686, -1997132.047543640248477 ], [ 3738674.697580032981932, -2116769.637866200879216 ], [ 3738674.697580032981932, -2334292.529361764900386 ], [ 3466771.083210577256978, -2540939.276282551698387 ], [ 3314505.059163682162762, -2812842.890652006492019 ], [ 3314505.059163682162762, -3041241.926722349599004 ], [ 3379761.926612352021039, -3171755.661619687452912 ], [ 3651665.540981806814671, -3226136.384493579156697 ], [ 3727798.55300525482744, -3443659.275989143177867 ], [ 3901816.86620170623064, -3585049.155461259186268 ] ] ] ] } },
{ "type": "Feature", "properties": { "id": 3 }, "geometry": { "type": "MultiPolygon", "coordinates": [ [ [ [ 1215409.156231487169862, -2008008.192118418868631 ], [ 1390407.060487727401778, -2214124.886342470068485 ], [ 1515440.730708127142861, -2616697.248837902676314 ], [ 1454684.336876607500017, -3062994.215871905907989 ], [ 1367675.180278382264078, -3367526.263965695165098 ], [ 1302418.312829712405801, -3726439.034933377057314 ], [ 1585198.071773946285248, -3726439.034933377057314 ], [ 1846225.54156862385571, -4085351.805901058018208 ], [ 1780968.674119953997433, -4281122.408247065730393 ], [ 1791844.818694732151926, -4335503.131120956502855 ], [ 1998491.565615518018603, -4302874.697396622039378 ], [ 2335652.047433642670512, -4389883.853994848206639 ], [ 2466165.782330981455743, -4455140.721443517133594 ], [ 2422661.204031868837774, -4737920.480387751013041 ], [ 2324775.90285886451602, -4868434.215285088866949 ], [ 2368280.481157978065312, -5466622.16689789108932 ], [ 1900606.264442514628172, -5716773.492117789573967 ], [ 1476436.626026163809001, -5814658.793290793895721 ], [ 1030514.698460257612169, -5803782.648716015741229 ], [ 812991.806964692659676, -5814658.793290793895721 ], [ 595468.915469128638506, -5782030.359566459432244 ], [ 269184.578225782141089, -5803782.648716015741229 ], [ -57099.759017564356327, -5890791.805314240977168 ], [ -394260.240835689008236, -5956048.672762910835445 ], [ -709668.433504256885499, -6021305.540211579762399 ], [ -1035952.770747603382915, -5792906.504141237586737 ], [ -1188218.794794498477131, -5499250.600622225552797 ], [ -1199094.939369276631624, -5064204.817631097510457 ], [ -1133838.071920607239008, -4629159.034639968536794 ], [ -1046828.915322381537408, -4194113.251648839563131 ], [ -698792.288929478731006, -3715562.890358598902822 ], [ -133232.771041011437774, -2910728.191825010813773 ], [ 312689.15652489522472, -2356044.818511321209371 ], [ 660725.78291779756546, -1997132.047543640714139 ], [ 1030514.698460257612169, -1877494.4572210800834 ], [ 1215409.156231487169862, -2008008.192118418868631 ] ] ] ] } },
{ "type": "Feature", "properties": { "id": 4 }, "geometry": { "type": "MultiPolygon", "coordinates": [ [ [ [ -7099403.3711864547804, 819789.397323917131871 ], [ -6827499.756817, 1222206.746590711176395 ], [ -6425082.407550205476582, 1624624.09585750522092 ], [ -6120550.35945641528815, 2059669.878848633728921 ], [ -5750761.443913956172764, 2581724.818437987938523 ], [ -5196078.070600267499685, 3060275.179728229530156 ], [ -4217225.058870228007436, 3364807.227822019718587 ], [ -3379761.92661230545491, 3386559.516971576027572 ], [ -2368280.481157931499183, 3343054.938672462943941 ], [ -1454684.336876561865211, 3364807.227822019718587 ], [ -932629.397287206724286, 3310426.504948128480464 ], [ -584592.770894303917885, 3060275.179728229530156 ], [ -530212.048020413145423, 2277192.770344198215753 ], [ -910877.108137650415301, 1831270.842778291087598 ], [ -1063143.13218454644084, 1450605.782661053352058 ], [ -1432932.047727005556226, 1428853.493511497043073 ], [ -2041996.143914585001767, 1069940.72254381608218 ], [ -2292147.469134483486414, 591390.361253574490547 ], [ -2292147.469134483486414, 47583.132514663971961 ], [ -2564051.083503939211369, -354834.216752129606903 ], [ -2912087.70989684201777, -931269.879215375520289 ], [ -3086106.02309329342097, -1518581.686253398656845 ], [ -3249248.191714966669679, -2388673.252235655672848 ], [ -3499399.516934866085649, -2954232.770124123431742 ], [ -3858312.287902547046542, -3150003.372470131143928 ], [ -4554385.540688352659345, -2867223.613525897264481 ], [ -5609371.564441839233041, -2279911.806487874127924 ], [ -6066169.636582524515688, -1899246.746370635926723 ], [ -6577348.431597100570798, -1594714.698276846669614 ], [ -6871004.335116112604737, -1224925.782734386622906 ], [ -7110279.515761232934892, -866013.011766705662012 ], [ -7175536.383209902793169, -539728.674523359630257 ], [ -7012394.214588228613138, 14954.698790329508483 ], [ -7099403.3711864547804, 819789.397323917131871 ] ] ] ] } },
{ "type": "Feature", "properties": { "id": 5 }, "geometry": { "type": "MultiPolygon", "coordinates": [ [ [ [ -7098712.323733327910304, 813397.2083824952133 ], [ -7412092.527711326256394, 406495.903482345864177 ], [ -7520853.973459107801318, -159063.614406121894717 ], [ -7738376.864954672753811, -768127.710593701340258 ], [ -8129918.069646688178182, -1094412.047837047837675 ], [ -8456202.406890034675598, -1833989.878921966068447 ], [ -8390945.539441365748644, -2356044.818511321209371 ], [ -8216927.226244913414121, -2856347.468951119109988 ], [ -8086413.491347575560212, -3661182.167484706267715 ], [ -7890642.889001566916704, -4400759.998569624498487 ], [ -7564358.551758222281933, -5618888.190944785252213 ], [ -7216321.925365317612886, -6401970.600328816100955 ], [ -7042303.612168867141008, -7228557.588011961430311 ], [ -6454991.80513084307313, -8120401.443143773823977 ], [ -6106955.178737940266728, -8598951.804434016346931 ], [ -6237468.913635279983282, -9186263.61147204041481 ], [ -6520248.672579512000084, -9708318.551061393693089 ], [ -7520853.973459107801318, -9838832.285958731546998 ], [ -8260431.804544027894735, -9643061.683612724766135 ], [ -8760734.45498382486403, -9382034.213818047195673 ], [ -9543816.864367855712771, -8946988.430826919153333 ], [ -10587926.743546564131975, -8511942.647835791110992 ], [ -11414513.731229709461331, -8185658.310592444613576 ], [ -11980073.24911817535758, -8120401.443143773823977 ], [ -12828412.525950876995921, -8577199.515284460037947 ], [ -13415724.3329889010638, -8816474.695929579436779 ], [ -14024788.429176479578018, -8577199.515284460037947 ], [ -14394577.344718940556049, -8142153.732293330132961 ], [ -14764366.260261399671435, -7554841.925255307927728 ], [ -15025393.730056077241898, -6902273.250768614932895 ], [ -15264668.91070119664073, -6162695.419683696702123 ], [ -15547448.669645430520177, -5314356.142850995063782 ], [ -15569200.958794986829162, -4574778.31176607683301 ], [ -15242916.621551640331745, -3704686.745783818885684 ], [ -14764366.260261399671435, -2812842.890652005560696 ], [ -14198806.742372931912541, -2443053.97510954644531 ], [ -13611494.935334909707308, -2486558.55340865906328 ], [ -13002430.839147329330444, -2812842.890652005560696 ], [ -12567385.056156199425459, -3247888.673643134534359 ], [ -12110586.984015515074134, -2638824.577455554157495 ], [ -11632036.622725274413824, -2029760.481267974711955 ], [ -11066477.10483680665493, -1311934.939332611858845 ], [ -10283394.695452775806189, -876889.156341483816504 ], [ -9826596.623312089592218, -246072.771004347130656 ], [ -8978257.346479389816523, 1059064.57796903885901 ], [ -8108165.780497133731842, 1853023.131927847629413 ], [ -7346835.660262659192085, 2570848.673863209784031 ], [ -6498496.383429958485067, 3071151.324303007684648 ], [ -6237468.913635280914605, 2897133.011106556281447 ], [ -6085202.889588385820389, 2668733.975036213640124 ], [ -6128707.467887499369681, 2429458.794391092844307 ], [ -6346230.359383063390851, 2070546.023423411883414 ], [ -6585505.540028183721006, 1657252.529581839917228 ], [ -6820702.166457762941718, 1229004.336949947755784 ], [ -7098712.323733327910304, 813397.2083824952133 ] ] ] ] } },
{ "type": "Feature", "properties": { "id": 7 }, "geometry": { "type": "MultiPolygon", "coordinates": [ [ [ [ 10544422.16524749994278, 5561788.431927219033241 ], [ 9848348.912461694329977, 6323118.552161693572998 ], [ 9021761.924778550863266, 7149705.539844837971032 ], [ 8173422.647945850156248, 7758769.636032418347895 ], [ 7303331.081963592208922, 8607108.912865119054914 ], [ 6563753.25087867397815, 9477200.478847377002239 ], [ 6150459.757037102244794, 10325539.755680076777935 ], [ 5845927.708943312056363, 10978108.430166769772768 ], [ 5715413.974045972339809, 11587172.526354350149632 ], [ 5671909.395746859721839, 12239741.200841043144464 ], [ 6106955.178737989626825, 12696539.27298172749579 ], [ 6607257.829177786596119, 13001071.321075517684221 ], [ 7694872.286655607633293, 13022823.610225073993206 ], [ 8913000.479030769318342, 12457264.092336606234312 ], [ 9717835.177564356476068, 10999860.719316326081753 ], [ 10631431.321845725178719, 9716475.659492496401072 ], [ 11458018.30952887237072, 8346081.443070441484451 ], [ 12328109.8755111284554, 7628255.901135079562664 ], [ 13002430.839147377759218, 7106200.961545725353062 ], [ 13198201.441493384540081, 6105595.66066613048315 ], [ 12806660.236801370978355, 5257256.38383342884481 ], [ 12436871.321258910000324, 4756953.733393631875515 ], [ 11914816.3816695548594, 4561183.131047623232007 ], [ 11501522.887827984988689, 4648192.287645848467946 ], [ 10544422.16524749994278, 5561788.431927219033241 ] ] ] ] } },
{ "type": "Feature", "properties": { "id": 6 }, "geometry": { "type": "MultiPolygon", "coordinates": [ [ [ [ 4536726.658464564941823, 4899298.147040009498596 ], [ 4083992.287829241715372, 6062091.082367016002536 ], [ 3387919.035043436102569, 7737017.34688286203891 ], [ 3279157.589295652695, 8715870.358612902462482 ], [ 3083386.986949645914137, 9955750.840137617662549 ], [ 3192148.432697427459061, 10738833.249521648511291 ], [ 3561937.348239886574447, 10956356.141017213463783 ], [ 3953478.552931901998818, 11043365.297615438699722 ], [ 4540790.359969926066697, 10782337.827820762991905 ], [ 5432634.215101740323007, 10129769.153334069997072 ], [ 6302725.781083996407688, 9150916.141604028642178 ], [ 7356858.022261123172939, 8554920.146075025200844 ], [ 7955899.756450285203755, 7454237.587938628159463 ], [ 8891248.189881213009357, 6801668.91345193516463 ], [ 9543816.86436790600419, 6062091.082367016002536 ], [ 10446309.572480447590351, 5669099.080266181379557 ], [ 10305146.984602380543947, 4800458.311692744493484 ], [ 10566174.454397056251764, 3865109.878261817619205 ], [ 10609679.032696168869734, 2755743.131634440273046 ], [ 10218137.828004155308008, 1602871.806707948446274 ], [ 9369798.551171451807022, 732780.240725692361593 ], [ 8369193.25029185693711, 384743.614332789555192 ], [ 7607863.130057382397354, 58459.277089443057775 ], [ 7303331.081963592208922, 145468.433687668293715 ], [ 7173076.148840787820518, -180874.133954948338214 ], [ 6903632.768840493634343, 123716.144538111970178 ], [ 6835928.768862498924136, 424713.445645099040121 ], [ 6751994.21467291098088, 678817.83110467728693 ], [ 6912626.503777328878641, 785906.02384095476009 ], [ 7066002.013482231646776, 988314.429377270513214 ], [ 7447439.997579403221607, 1015559.99966992624104 ], [ 7556201.443327186629176, 1309215.903188937343657 ], [ 7426122.110653988085687, 1621406.30160461156629 ], [ 7268497.58720269985497, 2084822.311014628736302 ], [ 7237291.132105539552867, 2490408.708588150795549 ], [ 6799964.679284264333546, 3223930.904982476960868 ], [ 6001866.468210306018591, 3892396.033183035440743 ], [ 5377910.136841094121337, 4515308.916980774141848 ], [ 4536726.658464564941823, 4899298.147040009498596 ] ] ] ] } },
{ "type": "Feature", "properties": { "id": 8 }, "geometry": { "type": "MultiPolygon", "coordinates": [ [ [ [ -1680364.336803212761879, -6554236.624375712126493 ], [ -1027795.662316519767046, -6293209.154581035487354 ], [ -309970.120381157845259, -6162695.419683696702123 ], [ 351657.997540057171136, -5798284.420761730521917 ], [ 1040522.755990348057821, -5804026.747680163942277 ], [ 1410091.820810131262988, -5813040.627309914678335 ], [ 2191543.131817831657827, -5988677.106487245298922 ], [ 2768956.060587366111577, -5932504.127693704329431 ], [ 2880604.85992852691561, -6592027.086108887568116 ], [ 2929800.932907679118216, -7154951.81290215626359 ], [ 1778249.637976259924471, -7424328.190357970073819 ], [ 734139.758797550573945, -7685355.660152645781636 ], [ -5438.072287367656827, -7685355.660152645781636 ], [ -723263.614222729578614, -7359071.32290929928422 ], [ -1310575.421260753646493, -6880520.96161905862391 ], [ -1680364.336803212761879, -6554236.624375712126493 ] ] ] ] } },
{ "type": "Feature", "properties": { "id": 9 }, "geometry": { "type": "MultiPolygon", "coordinates": [ [ [ [ -1605356.443184052128345, -6524233.466928048059344 ], [ -865612.889795012190007, -7243083.024294846691191 ], [ -208658.08872568901279, -7592982.925407954491675 ], [ 516616.867301986552775, -7685355.660152645781636 ], [ 1419976.640218860004097, -7513896.439797319471836 ], [ 2121376.589238006621599, -7344062.295520995743573 ], [ 2645292.80998835619539, -7221505.311514065600932 ], [ 2916490.616139723919332, -7094427.673065649345517 ], [ 3229664.314224892761558, -7743276.111853911541402 ], [ 3729337.519660474732518, -8116467.228006161749363 ], [ 4531998.349698183126748, -8308746.454396850429475 ], [ 5320107.825728115625679, -8340020.999251926317811 ], [ 6059162.889596895314753, -8272981.202130327001214 ], [ 6782844.817072524689138, -8128244.816635202616453 ], [ 7499101.68430960085243, -8316172.045489782467484 ], [ 7629615.419206938706338, -9447291.081266717985272 ], [ 7390340.238561817444861, -10295630.358099417760968 ], [ 6977046.744720245711505, -10795933.008539216592908 ], [ 6694266.985776011832058, -10991703.610885223373771 ], [ 6367982.648532665334642, -10926446.743436554446816 ], [ 5954689.154691093601286, -10882942.165137441828847 ], [ 5715413.974045972339809, -11252731.080679900944233 ], [ 5410881.925952184014022, -11600767.707072803750634 ], [ 4910579.275512385182083, -11774786.020269256085157 ], [ 4475533.492521257139742, -12014061.20091437548399 ], [ 4105744.576978798024356, -12514363.851354174315929 ], [ 3279157.589295652695, -12666629.875401068478823 ], [ 2800607.22800541203469, -12144574.935811715200543 ], [ 1756497.348826703615487, -10774180.719389660283923 ], [ 1016919.517741784453392, -10143364.334052523598075 ], [ 81571.084310857579112, -9838832.285958733409643 ], [ -570997.590175834484398, -9534300.237864943221211 ], [ -1267070.842961641028523, -9360281.924668490886688 ], [ -2028400.96319611556828, -9142759.033172927796841 ], [ -2463446.746187244541943, -8838226.985079137608409 ], [ -2789731.08343059103936, -8337924.334639338776469 ], [ -2680969.637682808563113, -7489585.057806639000773 ], [ -2332933.011289905756712, -6902273.250768614932895 ], [ -1605356.443184052128345, -6524233.466928048059344 ] ] ] ] } },
{ "type": "Feature", "properties": { "id": 10 }, "geometry": { "type": "MultiPolygon", "coordinates": [ [ [ [ 4008303.646079779136926, -12532313.496519783511758 ], [ 4410888.242004666477442, -12101522.422201527282596 ], [ 4591601.369365338236094, -11950223.868650130927563 ], [ 5028694.572412168607116, -11733702.438738895580173 ], [ 5398226.715570062398911, -11605169.519379628822207 ], [ 5725335.14007272105664, -11237398.369547652080655 ], [ 6036215.542517376132309, -10891523.890171786770225 ], [ 6506026.021981774829328, -10954055.418126376345754 ], [ 6798329.937067491002381, -10919660.029221892356873 ], [ 7194569.636215810663998, -11143969.634932119399309 ], [ 6694266.985776011832058, -11818290.598568368703127 ], [ 6237468.913635327480733, -12340345.538157721981406 ], [ 5476138.793400852940977, -12753639.031999293714762 ], [ 4975836.142961054109037, -13014666.501793971285224 ], [ 4693056.38401682022959, -13145180.236691311001778 ], [ 4366772.046773473732173, -13145180.236691311001778 ], [ 4062239.998679685406387, -12971161.923494858667254 ], [ 4008303.646079779136926, -12532313.496519783511758 ] ] ] ] } },
{ "type": "Feature", "properties": { "id": 11 }, "geometry": { "type": "MultiPolygon", "coordinates": [ [ [ [ 3061634.69780008494854, 8433090.59966866672039 ], [ 3334930.989218753762543, 8213909.759304998442531 ], [ 2784293.011143241077662, 7802274.214331530034542 ], [ 1587917.107917636632919, 7323723.853041289374232 ], [ 152266.024046912789345, 6910430.359199717640877 ], [ -1761935.421114053577185, 6410127.708759918808937 ], [ -4306953.251612154766917, 5888072.769170565530658 ], [ -6438677.588268686085939, 5714054.455974113196135 ], [ -8700915.659822553396225, 5953329.636619234457612 ], [ -10180071.321992391720414, 6671155.178554596379399 ], [ -10571612.526684407144785, 7432485.298789070919156 ], [ -10506355.659235738217831, 8476595.17796777933836 ], [ -10006053.008795939385891, 9738227.948642052710056 ], [ -7618739.27463212236762, 11891704.574448138475418 ], [ -4529914.215395108796656, 13305603.369169306010008 ], [ -1158309.39721386320889, 14567236.139843579381704 ], [ 1234442.409237343817949, 15045786.501133821904659 ], [ 2996377.830351416021585, 15089291.079432934522629 ], [ 4083992.287829237058759, 14393217.826647128909826 ], [ 4432028.91422213986516, 13653639.995562210679054 ], [ 4018735.420380568131804, 12783548.429579952731729 ], [ 3061634.69780008494854, 11913456.863597694784403 ], [ 2691845.782257625833154, 11217383.6108118891716 ], [ 2648341.203958513215184, 10042759.996735842898488 ], [ 2952873.252052303403616, 8955145.539258021861315 ], [ 3061634.69780008494854, 8433090.59966866672039 ] ] ] ] } },
{ "type": "Feature", "properties": { "id": 12 }, "geometry": { "type": "MultiPolygon", "coordinates": [ [ [ [ 3599899.275938387960196, -3215783.131484895013273 ], [ 3314505.059163682162762, -3030365.782147571444511 ], [ 3381550.330409665126354, -2693119.191998465918005 ], [ 3571078.935274719726294, -2461665.308713803533465 ], [ 3738674.697580032981932, -2225531.08361398242414 ], [ 3684786.107944817747921, -2057492.189267463982105 ], [ 3599908.320549264550209, -1807100.81608472764492 ], [ 3737058.458329135552049, -1453384.168324619298801 ], [ 3937183.421489553526044, -1219698.922426341101527 ], [ 4178649.296917824540287, -1017847.89582838723436 ], [ 4337392.936352349817753, -653671.311243300093338 ], [ 4451784.035230753012002, -523462.582194711838383 ], [ 4570362.885815946385264, -419706.087932668626308 ], [ 5130082.304383832029998, -901308.995279913768172 ], [ 5257605.656132349744439, -1253123.606898064957932 ], [ 5402843.820429244078696, -1566619.193508245749399 ], [ 5617503.403020328842103, -1640225.702875302173197 ], [ 5766834.650320240296423, -1531166.81406112248078 ], [ 5950757.010114056989551, -1306413.204394649714231 ], [ 6286411.564221825450659, -1964503.613819306716323 ], [ 6547439.034016501158476, -2247283.37276354059577 ], [ 6808466.503811180591583, -2508310.842558216303587 ], [ 6764961.925512067973614, -3008613.492998015135527 ], [ 6397892.046113307587802, -3411030.842264808248729 ], [ 6020217.92575413081795, -3285139.468811749480665 ], [ 5764356.624632470309734, -2899852.047250231727958 ], [ 5242301.68504311516881, -2769338.312352893874049 ], [ 4959521.926098883152008, -2986861.203848458826542 ], [ 4903791.061139848083258, -3443771.787829573731869 ], [ 4722301.961738929152489, -3554243.413551871664822 ], [ 4415714.697359971702099, -3095622.649596240371466 ], [ 4024173.492667958140373, -3226136.384493578225374 ], [ 3893659.757770616561174, -2791090.601502450183034 ], [ 3599899.275938387960196, -3215783.131484895013273 ] ] ] ] } },
{ "type": "Feature", "properties": { "id": 2 }, "geometry": { "type": "MultiPolygon", "coordinates": [ [ [ [ 6806548.384505310095847, -2530369.214575730729848 ], [ 6410670.647287022322416, -2099117.620473271235824 ], [ 6254385.67510871309787, -1901713.074496340472251 ], [ 6095555.710802032612264, -1590308.164417487103492 ], [ 5976079.54585987329483, -1356061.027469572145492 ], [ 6195801.521919787861407, -1192444.32393673970364 ], [ 6825500.465534915216267, -1025236.569475409458391 ], [ 6965610.798586470074952, -791719.347722818260081 ], [ 7096444.943401361815631, -521457.269241282425355 ], [ 7145125.557191149331629, -305098.985731120221317 ], [ 7199995.281445039436221, -113430.555104071943788 ], [ 7334933.46431294362992, 136439.181587853701785 ], [ 7495818.319909665733576, 90472.079988790559582 ], [ 7694872.286655604839325, -354834.216752130538225 ], [ 7999404.334749393165112, -942146.023790153674781 ], [ 7955899.756450280547142, -1355439.517631726339459 ], [ 8195174.937095403671265, -1529457.83082817774266 ], [ 8651973.009236086159945, -1529457.83082817774266 ], [ 8934752.768180321902037, -1746980.72232374176383 ], [ 8738982.165834311395884, -2008008.192118419334292 ], [ 8390945.539441410452127, -2029760.481267975643277 ], [ 8064661.202198062092066, -2312540.240212209522724 ], [ 7564358.551758266985416, -2182026.50531486980617 ], [ 7368587.949412256479263, -2269035.661913096904755 ], [ 7216321.92536536231637, -2704081.444904224947095 ], [ 7020551.323019355535507, -2812842.890652006492019 ], [ 6806548.384505310095847, -2530369.214575730729848 ] ] ] ] } }
]
}
